<?xml version="1.0" encoding="UTF-8"?>
<gpx xmlns="http://www.topografix.com/GPX/1/1" xmlns:xsi="http://www.w3.org/2001/XMLSchema-instance" version="1.1" creator="Trace de Trail" xsi:schemaLocation="http://www.topografix.com/GPX/1/1 http://www.topografix.com/GPX/1/1/gpx.xsd">
  <metadata>
    <name>ntmf 2026 13 km</name>
    <desc>Parcours créé sur Trace de Trail</desc>
    <link href="https://tracedetrail.fr/fr/trace/333601">
      <text>Cartographie du parcours</text>
    </link>
    <time>2026-03-02T13:34:24+00:00</time>
  </metadata>
  <trk>
    <name>ntmf 2026 13 km sur TraceDeTrail.fr</name>
    <src>Trace de Trail</src>
    <trkseg>
      <trkpt lat="50.77259" lon="2.72067">
        <ele>39</ele>
        <time>2026-03-02T13:34:24+00:00</time>
      </trkpt>
      <trkpt lat="50.77282" lon="2.72071">
        <ele>39</ele>
        <time>2026-03-02T13:34:27+00:00</time>
      </trkpt>
      <trkpt lat="50.77308" lon="2.72076">
        <ele>40</ele>
        <time>2026-03-02T13:34:30+00:00</time>
      </trkpt>
      <trkpt lat="50.77342" lon="2.72067">
        <ele>41</ele>
        <time>2026-03-02T13:34:33+00:00</time>
      </trkpt>
      <trkpt lat="50.77371" lon="2.72057">
        <ele>41</ele>
        <time>2026-03-02T13:34:36+00:00</time>
      </trkpt>
      <trkpt lat="50.77399" lon="2.72047">
        <ele>42</ele>
        <time>2026-03-02T13:34:39+00:00</time>
      </trkpt>
      <trkpt lat="50.77434" lon="2.72035">
        <ele>43</ele>
        <time>2026-03-02T13:34:42+00:00</time>
      </trkpt>
      <trkpt lat="50.77437" lon="2.72052">
        <ele>43</ele>
        <time>2026-03-02T13:34:45+00:00</time>
      </trkpt>
      <trkpt lat="50.77437" lon="2.72101">
        <ele>44</ele>
        <time>2026-03-02T13:34:48+00:00</time>
      </trkpt>
      <trkpt lat="50.77438" lon="2.72136">
        <ele>44</ele>
        <time>2026-03-02T13:34:51+00:00</time>
      </trkpt>
      <trkpt lat="50.77445" lon="2.72155">
        <ele>44</ele>
        <time>2026-03-02T13:34:54+00:00</time>
      </trkpt>
      <trkpt lat="50.7746" lon="2.72156">
        <ele>45</ele>
        <time>2026-03-02T13:34:57+00:00</time>
      </trkpt>
      <trkpt lat="50.77494" lon="2.72144">
        <ele>47</ele>
        <time>2026-03-02T13:35:00+00:00</time>
      </trkpt>
      <trkpt lat="50.77519" lon="2.72143">
        <ele>49</ele>
        <time>2026-03-02T13:35:03+00:00</time>
      </trkpt>
      <trkpt lat="50.7755" lon="2.72144">
        <ele>52</ele>
        <time>2026-03-02T13:35:06+00:00</time>
      </trkpt>
      <trkpt lat="50.7758" lon="2.72145">
        <ele>56</ele>
        <time>2026-03-02T13:35:09+00:00</time>
      </trkpt>
      <trkpt lat="50.77631" lon="2.72147">
        <ele>61</ele>
        <time>2026-03-02T13:35:12+00:00</time>
      </trkpt>
      <trkpt lat="50.77653" lon="2.7215">
        <ele>63</ele>
        <time>2026-03-02T13:35:15+00:00</time>
      </trkpt>
      <trkpt lat="50.77677" lon="2.7216">
        <ele>65</ele>
        <time>2026-03-02T13:35:18+00:00</time>
      </trkpt>
      <trkpt lat="50.77707" lon="2.72181">
        <ele>69</ele>
        <time>2026-03-02T13:35:21+00:00</time>
      </trkpt>
      <trkpt lat="50.77731" lon="2.72199">
        <ele>73</ele>
        <time>2026-03-02T13:35:24+00:00</time>
      </trkpt>
      <trkpt lat="50.77755" lon="2.72225">
        <ele>77</ele>
        <time>2026-03-02T13:35:27+00:00</time>
      </trkpt>
      <trkpt lat="50.77774" lon="2.72246">
        <ele>80</ele>
        <time>2026-03-02T13:35:30+00:00</time>
      </trkpt>
      <trkpt lat="50.77792" lon="2.72251">
        <ele>82</ele>
        <time>2026-03-02T13:35:33+00:00</time>
      </trkpt>
      <trkpt lat="50.77822" lon="2.72263">
        <ele>84</ele>
        <time>2026-03-02T13:35:36+00:00</time>
      </trkpt>
      <trkpt lat="50.77857" lon="2.72276">
        <ele>87</ele>
        <time>2026-03-02T13:35:39+00:00</time>
      </trkpt>
      <trkpt lat="50.77879" lon="2.72274">
        <ele>88</ele>
        <time>2026-03-02T13:35:42+00:00</time>
      </trkpt>
      <trkpt lat="50.77905" lon="2.72271">
        <ele>91</ele>
        <time>2026-03-02T13:35:45+00:00</time>
      </trkpt>
      <trkpt lat="50.77936" lon="2.7227">
        <ele>94</ele>
        <time>2026-03-02T13:35:48+00:00</time>
      </trkpt>
      <trkpt lat="50.77967" lon="2.72269">
        <ele>96</ele>
        <time>2026-03-02T13:35:51+00:00</time>
      </trkpt>
      <trkpt lat="50.78021" lon="2.72268">
        <ele>99</ele>
        <time>2026-03-02T13:35:54+00:00</time>
      </trkpt>
      <trkpt lat="50.78017" lon="2.72274">
        <ele>107</ele>
        <time>2026-03-02T13:35:57+00:00</time>
      </trkpt>
      <trkpt lat="50.77992" lon="2.72274">
        <ele>99</ele>
        <time>2026-03-02T13:36:00+00:00</time>
      </trkpt>
      <trkpt lat="50.77983" lon="2.72292">
        <ele>102</ele>
        <time>2026-03-02T13:36:03+00:00</time>
      </trkpt>
      <trkpt lat="50.7797" lon="2.7231">
        <ele>98</ele>
        <time>2026-03-02T13:36:06+00:00</time>
      </trkpt>
      <trkpt lat="50.77954" lon="2.72315">
        <ele>98</ele>
        <time>2026-03-02T13:36:09+00:00</time>
      </trkpt>
      <trkpt lat="50.77949" lon="2.72336">
        <ele>97</ele>
        <time>2026-03-02T13:36:12+00:00</time>
      </trkpt>
      <trkpt lat="50.77949" lon="2.7235">
        <ele>97</ele>
        <time>2026-03-02T13:36:15+00:00</time>
      </trkpt>
      <trkpt lat="50.77947" lon="2.72371">
        <ele>97</ele>
        <time>2026-03-02T13:36:18+00:00</time>
      </trkpt>
      <trkpt lat="50.77935" lon="2.72385">
        <ele>97</ele>
        <time>2026-03-02T13:36:21+00:00</time>
      </trkpt>
      <trkpt lat="50.77929" lon="2.72405">
        <ele>97</ele>
        <time>2026-03-02T13:36:24+00:00</time>
      </trkpt>
      <trkpt lat="50.77926" lon="2.7242">
        <ele>98</ele>
        <time>2026-03-02T13:36:27+00:00</time>
      </trkpt>
      <trkpt lat="50.77922" lon="2.72432">
        <ele>98</ele>
        <time>2026-03-02T13:36:30+00:00</time>
      </trkpt>
      <trkpt lat="50.77916" lon="2.72438">
        <ele>97</ele>
        <time>2026-03-02T13:36:33+00:00</time>
      </trkpt>
      <trkpt lat="50.77906" lon="2.72452">
        <ele>98</ele>
        <time>2026-03-02T13:36:36+00:00</time>
      </trkpt>
      <trkpt lat="50.77898" lon="2.72465">
        <ele>98</ele>
        <time>2026-03-02T13:36:39+00:00</time>
      </trkpt>
      <trkpt lat="50.77894" lon="2.72478">
        <ele>99</ele>
        <time>2026-03-02T13:36:42+00:00</time>
      </trkpt>
      <trkpt lat="50.77893" lon="2.72493">
        <ele>100</ele>
        <time>2026-03-02T13:36:45+00:00</time>
      </trkpt>
      <trkpt lat="50.77893" lon="2.72501">
        <ele>100</ele>
        <time>2026-03-02T13:36:48+00:00</time>
      </trkpt>
      <trkpt lat="50.77897" lon="2.72512">
        <ele>101</ele>
        <time>2026-03-02T13:36:51+00:00</time>
      </trkpt>
      <trkpt lat="50.77912" lon="2.72555">
        <ele>104</ele>
        <time>2026-03-02T13:36:54+00:00</time>
      </trkpt>
      <trkpt lat="50.77907" lon="2.72581">
        <ele>104</ele>
        <time>2026-03-02T13:36:57+00:00</time>
      </trkpt>
      <trkpt lat="50.77909" lon="2.72606">
        <ele>105</ele>
        <time>2026-03-02T13:37:00+00:00</time>
      </trkpt>
      <trkpt lat="50.77913" lon="2.72621">
        <ele>106</ele>
        <time>2026-03-02T13:37:03+00:00</time>
      </trkpt>
      <trkpt lat="50.77922" lon="2.72652">
        <ele>106</ele>
        <time>2026-03-02T13:37:06+00:00</time>
      </trkpt>
      <trkpt lat="50.77906" lon="2.72664">
        <ele>107</ele>
        <time>2026-03-02T13:37:09+00:00</time>
      </trkpt>
      <trkpt lat="50.779" lon="2.7267">
        <ele>107</ele>
        <time>2026-03-02T13:37:12+00:00</time>
      </trkpt>
      <trkpt lat="50.77893" lon="2.72686">
        <ele>107</ele>
        <time>2026-03-02T13:37:15+00:00</time>
      </trkpt>
      <trkpt lat="50.77886" lon="2.72693">
        <ele>107</ele>
        <time>2026-03-02T13:37:18+00:00</time>
      </trkpt>
      <trkpt lat="50.77871" lon="2.72695">
        <ele>107</ele>
        <time>2026-03-02T13:37:21+00:00</time>
      </trkpt>
      <trkpt lat="50.77856" lon="2.72704">
        <ele>106</ele>
        <time>2026-03-02T13:37:24+00:00</time>
      </trkpt>
      <trkpt lat="50.77851" lon="2.72724">
        <ele>105</ele>
        <time>2026-03-02T13:37:27+00:00</time>
      </trkpt>
      <trkpt lat="50.77852" lon="2.72764">
        <ele>104</ele>
        <time>2026-03-02T13:37:30+00:00</time>
      </trkpt>
      <trkpt lat="50.7785" lon="2.72783">
        <ele>103</ele>
        <time>2026-03-02T13:37:33+00:00</time>
      </trkpt>
      <trkpt lat="50.77852" lon="2.72789">
        <ele>103</ele>
        <time>2026-03-02T13:37:36+00:00</time>
      </trkpt>
      <trkpt lat="50.77856" lon="2.72797">
        <ele>104</ele>
        <time>2026-03-02T13:37:39+00:00</time>
      </trkpt>
      <trkpt lat="50.7788" lon="2.72816">
        <ele>105</ele>
        <time>2026-03-02T13:37:42+00:00</time>
      </trkpt>
      <trkpt lat="50.77919" lon="2.72848">
        <ele>108</ele>
        <time>2026-03-02T13:37:45+00:00</time>
      </trkpt>
      <trkpt lat="50.77937" lon="2.72866">
        <ele>110</ele>
        <time>2026-03-02T13:37:48+00:00</time>
      </trkpt>
      <trkpt lat="50.7795" lon="2.7288">
        <ele>111</ele>
        <time>2026-03-02T13:37:51+00:00</time>
      </trkpt>
      <trkpt lat="50.77958" lon="2.72896">
        <ele>113</ele>
        <time>2026-03-02T13:37:54+00:00</time>
      </trkpt>
      <trkpt lat="50.7797" lon="2.72913">
        <ele>116</ele>
        <time>2026-03-02T13:37:57+00:00</time>
      </trkpt>
      <trkpt lat="50.77974" lon="2.72936">
        <ele>120</ele>
        <time>2026-03-02T13:38:00+00:00</time>
      </trkpt>
      <trkpt lat="50.77977" lon="2.72942">
        <ele>121</ele>
        <time>2026-03-02T13:38:03+00:00</time>
      </trkpt>
      <trkpt lat="50.77984" lon="2.72938">
        <ele>122</ele>
        <time>2026-03-02T13:38:06+00:00</time>
      </trkpt>
      <trkpt lat="50.77988" lon="2.72925">
        <ele>121</ele>
        <time>2026-03-02T13:38:09+00:00</time>
      </trkpt>
      <trkpt lat="50.77993" lon="2.72905">
        <ele>123</ele>
        <time>2026-03-02T13:38:12+00:00</time>
      </trkpt>
      <trkpt lat="50.77995" lon="2.72876">
        <ele>123</ele>
        <time>2026-03-02T13:38:15+00:00</time>
      </trkpt>
      <trkpt lat="50.78" lon="2.72845">
        <ele>123</ele>
        <time>2026-03-02T13:38:18+00:00</time>
      </trkpt>
      <trkpt lat="50.78002" lon="2.72811">
        <ele>125</ele>
        <time>2026-03-02T13:38:21+00:00</time>
      </trkpt>
      <trkpt lat="50.78005" lon="2.72777">
        <ele>125</ele>
        <time>2026-03-02T13:38:24+00:00</time>
      </trkpt>
      <trkpt lat="50.78006" lon="2.72746">
        <ele>125</ele>
        <time>2026-03-02T13:38:27+00:00</time>
      </trkpt>
      <trkpt lat="50.77997" lon="2.72714">
        <ele>125</ele>
        <time>2026-03-02T13:38:30+00:00</time>
      </trkpt>
      <trkpt lat="50.77988" lon="2.72684">
        <ele>124</ele>
        <time>2026-03-02T13:38:33+00:00</time>
      </trkpt>
      <trkpt lat="50.77975" lon="2.72678">
        <ele>120</ele>
        <time>2026-03-02T13:38:36+00:00</time>
      </trkpt>
      <trkpt lat="50.77975" lon="2.72662">
        <ele>122</ele>
        <time>2026-03-02T13:38:39+00:00</time>
      </trkpt>
      <trkpt lat="50.77982" lon="2.72641">
        <ele>122</ele>
        <time>2026-03-02T13:38:42+00:00</time>
      </trkpt>
      <trkpt lat="50.77988" lon="2.72619">
        <ele>122</ele>
        <time>2026-03-02T13:38:45+00:00</time>
      </trkpt>
      <trkpt lat="50.77995" lon="2.72594">
        <ele>122</ele>
        <time>2026-03-02T13:38:48+00:00</time>
      </trkpt>
      <trkpt lat="50.78002" lon="2.72563">
        <ele>122</ele>
        <time>2026-03-02T13:38:51+00:00</time>
      </trkpt>
      <trkpt lat="50.78007" lon="2.72515">
        <ele>118</ele>
        <time>2026-03-02T13:38:54+00:00</time>
      </trkpt>
      <trkpt lat="50.78009" lon="2.7247">
        <ele>119</ele>
        <time>2026-03-02T13:38:57+00:00</time>
      </trkpt>
      <trkpt lat="50.78014" lon="2.72471">
        <ele>117</ele>
        <time>2026-03-02T13:39:00+00:00</time>
      </trkpt>
      <trkpt lat="50.78025" lon="2.72498">
        <ele>120</ele>
        <time>2026-03-02T13:39:03+00:00</time>
      </trkpt>
      <trkpt lat="50.78028" lon="2.7254">
        <ele>123</ele>
        <time>2026-03-02T13:39:06+00:00</time>
      </trkpt>
      <trkpt lat="50.78033" lon="2.72608">
        <ele>127</ele>
        <time>2026-03-02T13:39:09+00:00</time>
      </trkpt>
      <trkpt lat="50.78041" lon="2.72607">
        <ele>127</ele>
        <time>2026-03-02T13:39:12+00:00</time>
      </trkpt>
      <trkpt lat="50.78049" lon="2.72581">
        <ele>127</ele>
        <time>2026-03-02T13:39:15+00:00</time>
      </trkpt>
      <trkpt lat="50.78057" lon="2.72553">
        <ele>126</ele>
        <time>2026-03-02T13:39:18+00:00</time>
      </trkpt>
      <trkpt lat="50.78067" lon="2.72516">
        <ele>126</ele>
        <time>2026-03-02T13:39:21+00:00</time>
      </trkpt>
      <trkpt lat="50.78083" lon="2.7249">
        <ele>125</ele>
        <time>2026-03-02T13:39:24+00:00</time>
      </trkpt>
      <trkpt lat="50.78101" lon="2.72461">
        <ele>123</ele>
        <time>2026-03-02T13:39:27+00:00</time>
      </trkpt>
      <trkpt lat="50.78121" lon="2.72422">
        <ele>121</ele>
        <time>2026-03-02T13:39:30+00:00</time>
      </trkpt>
      <trkpt lat="50.7814" lon="2.72392">
        <ele>120</ele>
        <time>2026-03-02T13:39:33+00:00</time>
      </trkpt>
      <trkpt lat="50.7816" lon="2.72367">
        <ele>117</ele>
        <time>2026-03-02T13:39:36+00:00</time>
      </trkpt>
      <trkpt lat="50.78192" lon="2.72328">
        <ele>113</ele>
        <time>2026-03-02T13:39:39+00:00</time>
      </trkpt>
      <trkpt lat="50.78209" lon="2.72306">
        <ele>112</ele>
        <time>2026-03-02T13:39:42+00:00</time>
      </trkpt>
      <trkpt lat="50.78228" lon="2.72281">
        <ele>109</ele>
        <time>2026-03-02T13:39:45+00:00</time>
      </trkpt>
      <trkpt lat="50.78245" lon="2.72259">
        <ele>107</ele>
        <time>2026-03-02T13:39:48+00:00</time>
      </trkpt>
      <trkpt lat="50.78261" lon="2.72237">
        <ele>105</ele>
        <time>2026-03-02T13:39:51+00:00</time>
      </trkpt>
      <trkpt lat="50.78289" lon="2.72195">
        <ele>102</ele>
        <time>2026-03-02T13:39:54+00:00</time>
      </trkpt>
      <trkpt lat="50.78296" lon="2.7214">
        <ele>101</ele>
        <time>2026-03-02T13:39:57+00:00</time>
      </trkpt>
      <trkpt lat="50.78271" lon="2.72142">
        <ele>100</ele>
        <time>2026-03-02T13:40:00+00:00</time>
      </trkpt>
      <trkpt lat="50.78256" lon="2.72138">
        <ele>99</ele>
        <time>2026-03-02T13:40:03+00:00</time>
      </trkpt>
      <trkpt lat="50.78243" lon="2.72129">
        <ele>100</ele>
        <time>2026-03-02T13:40:06+00:00</time>
      </trkpt>
      <trkpt lat="50.78229" lon="2.7212">
        <ele>102</ele>
        <time>2026-03-02T13:40:09+00:00</time>
      </trkpt>
      <trkpt lat="50.78207" lon="2.72099">
        <ele>103</ele>
        <time>2026-03-02T13:40:12+00:00</time>
      </trkpt>
      <trkpt lat="50.78183" lon="2.7208">
        <ele>103</ele>
        <time>2026-03-02T13:40:15+00:00</time>
      </trkpt>
      <trkpt lat="50.7816" lon="2.7206">
        <ele>103</ele>
        <time>2026-03-02T13:40:18+00:00</time>
      </trkpt>
      <trkpt lat="50.78134" lon="2.72041">
        <ele>100</ele>
        <time>2026-03-02T13:40:21+00:00</time>
      </trkpt>
      <trkpt lat="50.78109" lon="2.72024">
        <ele>98</ele>
        <time>2026-03-02T13:40:24+00:00</time>
      </trkpt>
      <trkpt lat="50.78085" lon="2.72012">
        <ele>96</ele>
        <time>2026-03-02T13:40:27+00:00</time>
      </trkpt>
      <trkpt lat="50.78053" lon="2.71994">
        <ele>94</ele>
        <time>2026-03-02T13:40:30+00:00</time>
      </trkpt>
      <trkpt lat="50.78035" lon="2.71982">
        <ele>92</ele>
        <time>2026-03-02T13:40:33+00:00</time>
      </trkpt>
      <trkpt lat="50.7801" lon="2.71969">
        <ele>90</ele>
        <time>2026-03-02T13:40:36+00:00</time>
      </trkpt>
      <trkpt lat="50.77992" lon="2.71963">
        <ele>90</ele>
        <time>2026-03-02T13:40:39+00:00</time>
      </trkpt>
      <trkpt lat="50.77987" lon="2.71955">
        <ele>89</ele>
        <time>2026-03-02T13:40:42+00:00</time>
      </trkpt>
      <trkpt lat="50.77989" lon="2.71949">
        <ele>88</ele>
        <time>2026-03-02T13:40:45+00:00</time>
      </trkpt>
      <trkpt lat="50.77988" lon="2.71936">
        <ele>88</ele>
        <time>2026-03-02T13:40:48+00:00</time>
      </trkpt>
      <trkpt lat="50.77985" lon="2.71916">
        <ele>88</ele>
        <time>2026-03-02T13:40:51+00:00</time>
      </trkpt>
      <trkpt lat="50.77976" lon="2.71885">
        <ele>86</ele>
        <time>2026-03-02T13:40:54+00:00</time>
      </trkpt>
      <trkpt lat="50.77972" lon="2.71848">
        <ele>85</ele>
        <time>2026-03-02T13:40:57+00:00</time>
      </trkpt>
      <trkpt lat="50.77966" lon="2.71799">
        <ele>81</ele>
        <time>2026-03-02T13:41:00+00:00</time>
      </trkpt>
      <trkpt lat="50.77956" lon="2.71753">
        <ele>78</ele>
        <time>2026-03-02T13:41:03+00:00</time>
      </trkpt>
      <trkpt lat="50.77946" lon="2.71708">
        <ele>77</ele>
        <time>2026-03-02T13:41:06+00:00</time>
      </trkpt>
      <trkpt lat="50.77932" lon="2.71641">
        <ele>76</ele>
        <time>2026-03-02T13:41:09+00:00</time>
      </trkpt>
      <trkpt lat="50.77965" lon="2.71609">
        <ele>75</ele>
        <time>2026-03-02T13:41:12+00:00</time>
      </trkpt>
      <trkpt lat="50.77987" lon="2.716">
        <ele>73</ele>
        <time>2026-03-02T13:41:15+00:00</time>
      </trkpt>
      <trkpt lat="50.78013" lon="2.71589">
        <ele>70</ele>
        <time>2026-03-02T13:41:18+00:00</time>
      </trkpt>
      <trkpt lat="50.78025" lon="2.71567">
        <ele>70</ele>
        <time>2026-03-02T13:41:21+00:00</time>
      </trkpt>
      <trkpt lat="50.78035" lon="2.71526">
        <ele>69</ele>
        <time>2026-03-02T13:41:24+00:00</time>
      </trkpt>
      <trkpt lat="50.78053" lon="2.71452">
        <ele>65</ele>
        <time>2026-03-02T13:41:27+00:00</time>
      </trkpt>
      <trkpt lat="50.78041" lon="2.71396">
        <ele>63</ele>
        <time>2026-03-02T13:41:30+00:00</time>
      </trkpt>
      <trkpt lat="50.78039" lon="2.71366">
        <ele>61</ele>
        <time>2026-03-02T13:41:33+00:00</time>
      </trkpt>
      <trkpt lat="50.78039" lon="2.71334">
        <ele>59</ele>
        <time>2026-03-02T13:41:36+00:00</time>
      </trkpt>
      <trkpt lat="50.78042" lon="2.713">
        <ele>56</ele>
        <time>2026-03-02T13:41:39+00:00</time>
      </trkpt>
      <trkpt lat="50.78045" lon="2.71266">
        <ele>54</ele>
        <time>2026-03-02T13:41:42+00:00</time>
      </trkpt>
      <trkpt lat="50.78046" lon="2.71221">
        <ele>52</ele>
        <time>2026-03-02T13:41:45+00:00</time>
      </trkpt>
      <trkpt lat="50.78043" lon="2.71185">
        <ele>52</ele>
        <time>2026-03-02T13:41:48+00:00</time>
      </trkpt>
      <trkpt lat="50.78041" lon="2.71154">
        <ele>52</ele>
        <time>2026-03-02T13:41:51+00:00</time>
      </trkpt>
      <trkpt lat="50.78044" lon="2.71118">
        <ele>52</ele>
        <time>2026-03-02T13:41:54+00:00</time>
      </trkpt>
      <trkpt lat="50.78044" lon="2.71085">
        <ele>51</ele>
        <time>2026-03-02T13:41:57+00:00</time>
      </trkpt>
      <trkpt lat="50.78043" lon="2.71042">
        <ele>51</ele>
        <time>2026-03-02T13:42:00+00:00</time>
      </trkpt>
      <trkpt lat="50.78039" lon="2.71019">
        <ele>51</ele>
        <time>2026-03-02T13:42:03+00:00</time>
      </trkpt>
      <trkpt lat="50.78035" lon="2.70997">
        <ele>51</ele>
        <time>2026-03-02T13:42:06+00:00</time>
      </trkpt>
      <trkpt lat="50.7803" lon="2.70975">
        <ele>50</ele>
        <time>2026-03-02T13:42:09+00:00</time>
      </trkpt>
      <trkpt lat="50.78024" lon="2.70924">
        <ele>50</ele>
        <time>2026-03-02T13:42:12+00:00</time>
      </trkpt>
      <trkpt lat="50.78017" lon="2.70883">
        <ele>49</ele>
        <time>2026-03-02T13:42:15+00:00</time>
      </trkpt>
      <trkpt lat="50.78012" lon="2.70833">
        <ele>47</ele>
        <time>2026-03-02T13:42:18+00:00</time>
      </trkpt>
      <trkpt lat="50.78006" lon="2.70796">
        <ele>46</ele>
        <time>2026-03-02T13:42:21+00:00</time>
      </trkpt>
      <trkpt lat="50.77999" lon="2.70745">
        <ele>44</ele>
        <time>2026-03-02T13:42:24+00:00</time>
      </trkpt>
      <trkpt lat="50.77992" lon="2.70695">
        <ele>42</ele>
        <time>2026-03-02T13:42:27+00:00</time>
      </trkpt>
      <trkpt lat="50.77985" lon="2.70645">
        <ele>41</ele>
        <time>2026-03-02T13:42:30+00:00</time>
      </trkpt>
      <trkpt lat="50.77978" lon="2.70595">
        <ele>41</ele>
        <time>2026-03-02T13:42:33+00:00</time>
      </trkpt>
      <trkpt lat="50.7797" lon="2.7054">
        <ele>41</ele>
        <time>2026-03-02T13:42:36+00:00</time>
      </trkpt>
      <trkpt lat="50.7797" lon="2.70513">
        <ele>41</ele>
        <time>2026-03-02T13:42:39+00:00</time>
      </trkpt>
      <trkpt lat="50.77976" lon="2.70497">
        <ele>42</ele>
        <time>2026-03-02T13:42:42+00:00</time>
      </trkpt>
      <trkpt lat="50.77988" lon="2.70483">
        <ele>42</ele>
        <time>2026-03-02T13:42:45+00:00</time>
      </trkpt>
      <trkpt lat="50.78011" lon="2.70463">
        <ele>43</ele>
        <time>2026-03-02T13:42:48+00:00</time>
      </trkpt>
      <trkpt lat="50.78027" lon="2.70434">
        <ele>43</ele>
        <time>2026-03-02T13:42:51+00:00</time>
      </trkpt>
      <trkpt lat="50.78046" lon="2.70396">
        <ele>43</ele>
        <time>2026-03-02T13:42:54+00:00</time>
      </trkpt>
      <trkpt lat="50.78065" lon="2.70357">
        <ele>44</ele>
        <time>2026-03-02T13:42:57+00:00</time>
      </trkpt>
      <trkpt lat="50.78087" lon="2.70317">
        <ele>44</ele>
        <time>2026-03-02T13:43:00+00:00</time>
      </trkpt>
      <trkpt lat="50.7811" lon="2.70273">
        <ele>44</ele>
        <time>2026-03-02T13:43:03+00:00</time>
      </trkpt>
      <trkpt lat="50.78126" lon="2.70247">
        <ele>44</ele>
        <time>2026-03-02T13:43:06+00:00</time>
      </trkpt>
      <trkpt lat="50.78137" lon="2.70223">
        <ele>44</ele>
        <time>2026-03-02T13:43:09+00:00</time>
      </trkpt>
      <trkpt lat="50.78154" lon="2.70191">
        <ele>44</ele>
        <time>2026-03-02T13:43:12+00:00</time>
      </trkpt>
      <trkpt lat="50.7817" lon="2.70164">
        <ele>45</ele>
        <time>2026-03-02T13:43:15+00:00</time>
      </trkpt>
      <trkpt lat="50.78186" lon="2.70135">
        <ele>45</ele>
        <time>2026-03-02T13:43:18+00:00</time>
      </trkpt>
      <trkpt lat="50.782" lon="2.70107">
        <ele>45</ele>
        <time>2026-03-02T13:43:21+00:00</time>
      </trkpt>
      <trkpt lat="50.78215" lon="2.70077">
        <ele>45</ele>
        <time>2026-03-02T13:43:24+00:00</time>
      </trkpt>
      <trkpt lat="50.78223" lon="2.70049">
        <ele>45</ele>
        <time>2026-03-02T13:43:27+00:00</time>
      </trkpt>
      <trkpt lat="50.78233" lon="2.70011">
        <ele>46</ele>
        <time>2026-03-02T13:43:30+00:00</time>
      </trkpt>
      <trkpt lat="50.78238" lon="2.69984">
        <ele>46</ele>
        <time>2026-03-02T13:43:33+00:00</time>
      </trkpt>
      <trkpt lat="50.78241" lon="2.69959">
        <ele>46</ele>
        <time>2026-03-02T13:43:36+00:00</time>
      </trkpt>
      <trkpt lat="50.78245" lon="2.69933">
        <ele>46</ele>
        <time>2026-03-02T13:43:39+00:00</time>
      </trkpt>
      <trkpt lat="50.78252" lon="2.69904">
        <ele>46</ele>
        <time>2026-03-02T13:43:42+00:00</time>
      </trkpt>
      <trkpt lat="50.78276" lon="2.69921">
        <ele>46</ele>
        <time>2026-03-02T13:43:45+00:00</time>
      </trkpt>
      <trkpt lat="50.78313" lon="2.69948">
        <ele>47</ele>
        <time>2026-03-02T13:43:48+00:00</time>
      </trkpt>
      <trkpt lat="50.7833" lon="2.69955">
        <ele>49</ele>
        <time>2026-03-02T13:43:51+00:00</time>
      </trkpt>
      <trkpt lat="50.78338" lon="2.69966">
        <ele>49</ele>
        <time>2026-03-02T13:43:54+00:00</time>
      </trkpt>
      <trkpt lat="50.78348" lon="2.70002">
        <ele>50</ele>
        <time>2026-03-02T13:43:57+00:00</time>
      </trkpt>
      <trkpt lat="50.78366" lon="2.70068">
        <ele>53</ele>
        <time>2026-03-02T13:44:00+00:00</time>
      </trkpt>
      <trkpt lat="50.78377" lon="2.70106">
        <ele>55</ele>
        <time>2026-03-02T13:44:03+00:00</time>
      </trkpt>
      <trkpt lat="50.78393" lon="2.70163">
        <ele>59</ele>
        <time>2026-03-02T13:44:06+00:00</time>
      </trkpt>
      <trkpt lat="50.78406" lon="2.70215">
        <ele>58</ele>
        <time>2026-03-02T13:44:09+00:00</time>
      </trkpt>
      <trkpt lat="50.78392" lon="2.70215">
        <ele>60</ele>
        <time>2026-03-02T13:44:12+00:00</time>
      </trkpt>
      <trkpt lat="50.78379" lon="2.70221">
        <ele>58</ele>
        <time>2026-03-02T13:44:15+00:00</time>
      </trkpt>
      <trkpt lat="50.78361" lon="2.70232">
        <ele>57</ele>
        <time>2026-03-02T13:44:18+00:00</time>
      </trkpt>
      <trkpt lat="50.78339" lon="2.70252">
        <ele>53</ele>
        <time>2026-03-02T13:44:21+00:00</time>
      </trkpt>
      <trkpt lat="50.78325" lon="2.70263">
        <ele>53</ele>
        <time>2026-03-02T13:44:24+00:00</time>
      </trkpt>
      <trkpt lat="50.7831" lon="2.70282">
        <ele>51</ele>
        <time>2026-03-02T13:44:27+00:00</time>
      </trkpt>
      <trkpt lat="50.78298" lon="2.70297">
        <ele>50</ele>
        <time>2026-03-02T13:44:30+00:00</time>
      </trkpt>
      <trkpt lat="50.78307" lon="2.70326">
        <ele>51</ele>
        <time>2026-03-02T13:44:33+00:00</time>
      </trkpt>
      <trkpt lat="50.78321" lon="2.70373">
        <ele>51</ele>
        <time>2026-03-02T13:44:36+00:00</time>
      </trkpt>
      <trkpt lat="50.78333" lon="2.7042">
        <ele>51</ele>
        <time>2026-03-02T13:44:39+00:00</time>
      </trkpt>
      <trkpt lat="50.78344" lon="2.70467">
        <ele>51</ele>
        <time>2026-03-02T13:44:42+00:00</time>
      </trkpt>
      <trkpt lat="50.78367" lon="2.70559">
        <ele>49</ele>
        <time>2026-03-02T13:44:45+00:00</time>
      </trkpt>
      <trkpt lat="50.78374" lon="2.70589">
        <ele>49</ele>
        <time>2026-03-02T13:44:48+00:00</time>
      </trkpt>
      <trkpt lat="50.78376" lon="2.70608">
        <ele>49</ele>
        <time>2026-03-02T13:44:51+00:00</time>
      </trkpt>
      <trkpt lat="50.78376" lon="2.70632">
        <ele>49</ele>
        <time>2026-03-02T13:44:54+00:00</time>
      </trkpt>
      <trkpt lat="50.78372" lon="2.70662">
        <ele>51</ele>
        <time>2026-03-02T13:44:57+00:00</time>
      </trkpt>
      <trkpt lat="50.7837" lon="2.70692">
        <ele>53</ele>
        <time>2026-03-02T13:45:00+00:00</time>
      </trkpt>
      <trkpt lat="50.78367" lon="2.70729">
        <ele>53</ele>
        <time>2026-03-02T13:45:03+00:00</time>
      </trkpt>
      <trkpt lat="50.78365" lon="2.7076">
        <ele>55</ele>
        <time>2026-03-02T13:45:06+00:00</time>
      </trkpt>
      <trkpt lat="50.78364" lon="2.70787">
        <ele>57</ele>
        <time>2026-03-02T13:45:09+00:00</time>
      </trkpt>
      <trkpt lat="50.78366" lon="2.70828">
        <ele>59</ele>
        <time>2026-03-02T13:45:12+00:00</time>
      </trkpt>
      <trkpt lat="50.78369" lon="2.70894">
        <ele>64</ele>
        <time>2026-03-02T13:45:15+00:00</time>
      </trkpt>
      <trkpt lat="50.78371" lon="2.70937">
        <ele>68</ele>
        <time>2026-03-02T13:45:18+00:00</time>
      </trkpt>
      <trkpt lat="50.78375" lon="2.70953">
        <ele>68</ele>
        <time>2026-03-02T13:45:21+00:00</time>
      </trkpt>
      <trkpt lat="50.78385" lon="2.7098">
        <ele>70</ele>
        <time>2026-03-02T13:45:24+00:00</time>
      </trkpt>
      <trkpt lat="50.78394" lon="2.71017">
        <ele>71</ele>
        <time>2026-03-02T13:45:27+00:00</time>
      </trkpt>
      <trkpt lat="50.78399" lon="2.71054">
        <ele>71</ele>
        <time>2026-03-02T13:45:30+00:00</time>
      </trkpt>
      <trkpt lat="50.78406" lon="2.71089">
        <ele>71</ele>
        <time>2026-03-02T13:45:33+00:00</time>
      </trkpt>
      <trkpt lat="50.78411" lon="2.71131">
        <ele>72</ele>
        <time>2026-03-02T13:45:36+00:00</time>
      </trkpt>
      <trkpt lat="50.78418" lon="2.71166">
        <ele>72</ele>
        <time>2026-03-02T13:45:39+00:00</time>
      </trkpt>
      <trkpt lat="50.78427" lon="2.71203">
        <ele>72</ele>
        <time>2026-03-02T13:45:42+00:00</time>
      </trkpt>
      <trkpt lat="50.78438" lon="2.71255">
        <ele>73</ele>
        <time>2026-03-02T13:45:45+00:00</time>
      </trkpt>
      <trkpt lat="50.78444" lon="2.71316">
        <ele>76</ele>
        <time>2026-03-02T13:45:48+00:00</time>
      </trkpt>
      <trkpt lat="50.78451" lon="2.71364">
        <ele>78</ele>
        <time>2026-03-02T13:45:51+00:00</time>
      </trkpt>
      <trkpt lat="50.78459" lon="2.71389">
        <ele>78</ele>
        <time>2026-03-02T13:45:54+00:00</time>
      </trkpt>
      <trkpt lat="50.78475" lon="2.71432">
        <ele>80</ele>
        <time>2026-03-02T13:45:57+00:00</time>
      </trkpt>
      <trkpt lat="50.78484" lon="2.71442">
        <ele>80</ele>
        <time>2026-03-02T13:46:00+00:00</time>
      </trkpt>
      <trkpt lat="50.78483" lon="2.71455">
        <ele>80</ele>
        <time>2026-03-02T13:46:03+00:00</time>
      </trkpt>
      <trkpt lat="50.78474" lon="2.71478">
        <ele>78</ele>
        <time>2026-03-02T13:46:06+00:00</time>
      </trkpt>
      <trkpt lat="50.78459" lon="2.71508">
        <ele>75</ele>
        <time>2026-03-02T13:46:09+00:00</time>
      </trkpt>
      <trkpt lat="50.78446" lon="2.71538">
        <ele>74</ele>
        <time>2026-03-02T13:46:12+00:00</time>
      </trkpt>
      <trkpt lat="50.78428" lon="2.7158">
        <ele>74</ele>
        <time>2026-03-02T13:46:15+00:00</time>
      </trkpt>
      <trkpt lat="50.78423" lon="2.71594">
        <ele>74</ele>
        <time>2026-03-02T13:46:18+00:00</time>
      </trkpt>
      <trkpt lat="50.78422" lon="2.71619">
        <ele>74</ele>
        <time>2026-03-02T13:46:21+00:00</time>
      </trkpt>
      <trkpt lat="50.78432" lon="2.7166">
        <ele>74</ele>
        <time>2026-03-02T13:46:24+00:00</time>
      </trkpt>
      <trkpt lat="50.78451" lon="2.71736">
        <ele>77</ele>
        <time>2026-03-02T13:46:27+00:00</time>
      </trkpt>
      <trkpt lat="50.78461" lon="2.71783">
        <ele>78</ele>
        <time>2026-03-02T13:46:30+00:00</time>
      </trkpt>
      <trkpt lat="50.78468" lon="2.71812">
        <ele>78</ele>
        <time>2026-03-02T13:46:33+00:00</time>
      </trkpt>
      <trkpt lat="50.78475" lon="2.71842">
        <ele>80</ele>
        <time>2026-03-02T13:46:36+00:00</time>
      </trkpt>
      <trkpt lat="50.78465" lon="2.71869">
        <ele>80</ele>
        <time>2026-03-02T13:46:39+00:00</time>
      </trkpt>
      <trkpt lat="50.78453" lon="2.71894">
        <ele>82</ele>
        <time>2026-03-02T13:46:42+00:00</time>
      </trkpt>
      <trkpt lat="50.78438" lon="2.71923">
        <ele>83</ele>
        <time>2026-03-02T13:46:45+00:00</time>
      </trkpt>
      <trkpt lat="50.78423" lon="2.71946">
        <ele>84</ele>
        <time>2026-03-02T13:46:48+00:00</time>
      </trkpt>
      <trkpt lat="50.78413" lon="2.71965">
        <ele>85</ele>
        <time>2026-03-02T13:46:51+00:00</time>
      </trkpt>
      <trkpt lat="50.78432" lon="2.71993">
        <ele>85</ele>
        <time>2026-03-02T13:46:54+00:00</time>
      </trkpt>
      <trkpt lat="50.78451" lon="2.72022">
        <ele>85</ele>
        <time>2026-03-02T13:46:57+00:00</time>
      </trkpt>
      <trkpt lat="50.7848" lon="2.72065">
        <ele>85</ele>
        <time>2026-03-02T13:47:00+00:00</time>
      </trkpt>
      <trkpt lat="50.7851" lon="2.72106">
        <ele>84</ele>
        <time>2026-03-02T13:47:03+00:00</time>
      </trkpt>
      <trkpt lat="50.78521" lon="2.72117">
        <ele>84</ele>
        <time>2026-03-02T13:47:06+00:00</time>
      </trkpt>
      <trkpt lat="50.78518" lon="2.72141">
        <ele>84</ele>
        <time>2026-03-02T13:47:09+00:00</time>
      </trkpt>
      <trkpt lat="50.78514" lon="2.72168">
        <ele>84</ele>
        <time>2026-03-02T13:47:12+00:00</time>
      </trkpt>
      <trkpt lat="50.78524" lon="2.72174">
        <ele>84</ele>
        <time>2026-03-02T13:47:15+00:00</time>
      </trkpt>
      <trkpt lat="50.78535" lon="2.72197">
        <ele>84</ele>
        <time>2026-03-02T13:47:18+00:00</time>
      </trkpt>
      <trkpt lat="50.78548" lon="2.72223">
        <ele>84</ele>
        <time>2026-03-02T13:47:21+00:00</time>
      </trkpt>
      <trkpt lat="50.78567" lon="2.72263">
        <ele>84</ele>
        <time>2026-03-02T13:47:24+00:00</time>
      </trkpt>
      <trkpt lat="50.78583" lon="2.72292">
        <ele>83</ele>
        <time>2026-03-02T13:47:27+00:00</time>
      </trkpt>
      <trkpt lat="50.78596" lon="2.72319">
        <ele>83</ele>
        <time>2026-03-02T13:47:30+00:00</time>
      </trkpt>
      <trkpt lat="50.78611" lon="2.72347">
        <ele>82</ele>
        <time>2026-03-02T13:47:33+00:00</time>
      </trkpt>
      <trkpt lat="50.78622" lon="2.72364">
        <ele>82</ele>
        <time>2026-03-02T13:47:36+00:00</time>
      </trkpt>
      <trkpt lat="50.78641" lon="2.72386">
        <ele>81</ele>
        <time>2026-03-02T13:47:39+00:00</time>
      </trkpt>
      <trkpt lat="50.78665" lon="2.72416">
        <ele>80</ele>
        <time>2026-03-02T13:47:42+00:00</time>
      </trkpt>
      <trkpt lat="50.78682" lon="2.72443">
        <ele>79</ele>
        <time>2026-03-02T13:47:45+00:00</time>
      </trkpt>
      <trkpt lat="50.78696" lon="2.72463">
        <ele>78</ele>
        <time>2026-03-02T13:47:48+00:00</time>
      </trkpt>
      <trkpt lat="50.787" lon="2.72467">
        <ele>78</ele>
        <time>2026-03-02T13:47:51+00:00</time>
      </trkpt>
      <trkpt lat="50.78703" lon="2.72475">
        <ele>78</ele>
        <time>2026-03-02T13:47:54+00:00</time>
      </trkpt>
      <trkpt lat="50.78716" lon="2.72496">
        <ele>77</ele>
        <time>2026-03-02T13:47:57+00:00</time>
      </trkpt>
      <trkpt lat="50.78733" lon="2.72523">
        <ele>76</ele>
        <time>2026-03-02T13:48:00+00:00</time>
      </trkpt>
      <trkpt lat="50.78753" lon="2.72556">
        <ele>75</ele>
        <time>2026-03-02T13:48:03+00:00</time>
      </trkpt>
      <trkpt lat="50.78774" lon="2.7259">
        <ele>74</ele>
        <time>2026-03-02T13:48:06+00:00</time>
      </trkpt>
      <trkpt lat="50.788" lon="2.72634">
        <ele>73</ele>
        <time>2026-03-02T13:48:09+00:00</time>
      </trkpt>
      <trkpt lat="50.78827" lon="2.72685">
        <ele>72</ele>
        <time>2026-03-02T13:48:12+00:00</time>
      </trkpt>
      <trkpt lat="50.78851" lon="2.72725">
        <ele>70</ele>
        <time>2026-03-02T13:48:15+00:00</time>
      </trkpt>
      <trkpt lat="50.78873" lon="2.72756">
        <ele>68</ele>
        <time>2026-03-02T13:48:18+00:00</time>
      </trkpt>
      <trkpt lat="50.78886" lon="2.72779">
        <ele>68</ele>
        <time>2026-03-02T13:48:21+00:00</time>
      </trkpt>
      <trkpt lat="50.78897" lon="2.72803">
        <ele>67</ele>
        <time>2026-03-02T13:48:24+00:00</time>
      </trkpt>
      <trkpt lat="50.78913" lon="2.72831">
        <ele>65</ele>
        <time>2026-03-02T13:48:27+00:00</time>
      </trkpt>
      <trkpt lat="50.78931" lon="2.72863">
        <ele>63</ele>
        <time>2026-03-02T13:48:30+00:00</time>
      </trkpt>
      <trkpt lat="50.78937" lon="2.72876">
        <ele>63</ele>
        <time>2026-03-02T13:48:33+00:00</time>
      </trkpt>
      <trkpt lat="50.78941" lon="2.7289">
        <ele>63</ele>
        <time>2026-03-02T13:48:36+00:00</time>
      </trkpt>
      <trkpt lat="50.78945" lon="2.7291">
        <ele>63</ele>
        <time>2026-03-02T13:48:39+00:00</time>
      </trkpt>
      <trkpt lat="50.78952" lon="2.72938">
        <ele>63</ele>
        <time>2026-03-02T13:48:42+00:00</time>
      </trkpt>
      <trkpt lat="50.78924" lon="2.72962">
        <ele>66</ele>
        <time>2026-03-02T13:48:45+00:00</time>
      </trkpt>
      <trkpt lat="50.789" lon="2.72977">
        <ele>68</ele>
        <time>2026-03-02T13:48:48+00:00</time>
      </trkpt>
      <trkpt lat="50.78875" lon="2.72995">
        <ele>70</ele>
        <time>2026-03-02T13:48:51+00:00</time>
      </trkpt>
      <trkpt lat="50.7883" lon="2.73026">
        <ele>73</ele>
        <time>2026-03-02T13:48:54+00:00</time>
      </trkpt>
      <trkpt lat="50.78812" lon="2.73038">
        <ele>74</ele>
        <time>2026-03-02T13:48:57+00:00</time>
      </trkpt>
      <trkpt lat="50.78801" lon="2.73046">
        <ele>74</ele>
        <time>2026-03-02T13:49:00+00:00</time>
      </trkpt>
      <trkpt lat="50.78795" lon="2.73059">
        <ele>75</ele>
        <time>2026-03-02T13:49:03+00:00</time>
      </trkpt>
      <trkpt lat="50.78781" lon="2.73079">
        <ele>76</ele>
        <time>2026-03-02T13:49:06+00:00</time>
      </trkpt>
      <trkpt lat="50.7876" lon="2.73112">
        <ele>79</ele>
        <time>2026-03-02T13:49:09+00:00</time>
      </trkpt>
      <trkpt lat="50.78744" lon="2.7313">
        <ele>80</ele>
        <time>2026-03-02T13:49:12+00:00</time>
      </trkpt>
      <trkpt lat="50.7873" lon="2.73149">
        <ele>81</ele>
        <time>2026-03-02T13:49:15+00:00</time>
      </trkpt>
      <trkpt lat="50.78715" lon="2.73167">
        <ele>82</ele>
        <time>2026-03-02T13:49:18+00:00</time>
      </trkpt>
      <trkpt lat="50.78686" lon="2.732">
        <ele>83</ele>
        <time>2026-03-02T13:49:21+00:00</time>
      </trkpt>
      <trkpt lat="50.78667" lon="2.73222">
        <ele>85</ele>
        <time>2026-03-02T13:49:24+00:00</time>
      </trkpt>
      <trkpt lat="50.78643" lon="2.73248">
        <ele>86</ele>
        <time>2026-03-02T13:49:27+00:00</time>
      </trkpt>
      <trkpt lat="50.7862" lon="2.73276">
        <ele>87</ele>
        <time>2026-03-02T13:49:30+00:00</time>
      </trkpt>
      <trkpt lat="50.786" lon="2.73299">
        <ele>89</ele>
        <time>2026-03-02T13:49:33+00:00</time>
      </trkpt>
      <trkpt lat="50.78572" lon="2.73329">
        <ele>89</ele>
        <time>2026-03-02T13:49:36+00:00</time>
      </trkpt>
      <trkpt lat="50.78555" lon="2.7335">
        <ele>90</ele>
        <time>2026-03-02T13:49:39+00:00</time>
      </trkpt>
      <trkpt lat="50.78543" lon="2.73361">
        <ele>90</ele>
        <time>2026-03-02T13:49:42+00:00</time>
      </trkpt>
      <trkpt lat="50.78538" lon="2.7337">
        <ele>90</ele>
        <time>2026-03-02T13:49:45+00:00</time>
      </trkpt>
      <trkpt lat="50.78505" lon="2.73411">
        <ele>89</ele>
        <time>2026-03-02T13:49:48+00:00</time>
      </trkpt>
      <trkpt lat="50.7849" lon="2.73433">
        <ele>88</ele>
        <time>2026-03-02T13:49:51+00:00</time>
      </trkpt>
      <trkpt lat="50.78461" lon="2.7347">
        <ele>88</ele>
        <time>2026-03-02T13:49:54+00:00</time>
      </trkpt>
      <trkpt lat="50.78449" lon="2.73486">
        <ele>89</ele>
        <time>2026-03-02T13:49:57+00:00</time>
      </trkpt>
      <trkpt lat="50.7844" lon="2.73497">
        <ele>88</ele>
        <time>2026-03-02T13:50:00+00:00</time>
      </trkpt>
      <trkpt lat="50.78424" lon="2.73519">
        <ele>88</ele>
        <time>2026-03-02T13:50:03+00:00</time>
      </trkpt>
      <trkpt lat="50.78405" lon="2.73548">
        <ele>91</ele>
        <time>2026-03-02T13:50:06+00:00</time>
      </trkpt>
      <trkpt lat="50.78388" lon="2.73579">
        <ele>92</ele>
        <time>2026-03-02T13:50:09+00:00</time>
      </trkpt>
      <trkpt lat="50.78376" lon="2.73593">
        <ele>93</ele>
        <time>2026-03-02T13:50:12+00:00</time>
      </trkpt>
      <trkpt lat="50.78368" lon="2.73609">
        <ele>94</ele>
        <time>2026-03-02T13:50:15+00:00</time>
      </trkpt>
      <trkpt lat="50.78349" lon="2.73634">
        <ele>96</ele>
        <time>2026-03-02T13:50:18+00:00</time>
      </trkpt>
      <trkpt lat="50.78332" lon="2.7366">
        <ele>96</ele>
        <time>2026-03-02T13:50:21+00:00</time>
      </trkpt>
      <trkpt lat="50.78324" lon="2.73667">
        <ele>96</ele>
        <time>2026-03-02T13:50:24+00:00</time>
      </trkpt>
      <trkpt lat="50.78324" lon="2.73636">
        <ele>98</ele>
        <time>2026-03-02T13:50:27+00:00</time>
      </trkpt>
      <trkpt lat="50.78319" lon="2.73574">
        <ele>98</ele>
        <time>2026-03-02T13:50:30+00:00</time>
      </trkpt>
      <trkpt lat="50.78316" lon="2.73525">
        <ele>98</ele>
        <time>2026-03-02T13:50:33+00:00</time>
      </trkpt>
      <trkpt lat="50.78314" lon="2.73499">
        <ele>98</ele>
        <time>2026-03-02T13:50:36+00:00</time>
      </trkpt>
      <trkpt lat="50.78307" lon="2.73466">
        <ele>98</ele>
        <time>2026-03-02T13:50:39+00:00</time>
      </trkpt>
      <trkpt lat="50.783" lon="2.73431">
        <ele>99</ele>
        <time>2026-03-02T13:50:42+00:00</time>
      </trkpt>
      <trkpt lat="50.78299" lon="2.73417">
        <ele>100</ele>
        <time>2026-03-02T13:50:45+00:00</time>
      </trkpt>
      <trkpt lat="50.78302" lon="2.73395">
        <ele>99</ele>
        <time>2026-03-02T13:50:48+00:00</time>
      </trkpt>
      <trkpt lat="50.7831" lon="2.73367">
        <ele>101</ele>
        <time>2026-03-02T13:50:51+00:00</time>
      </trkpt>
      <trkpt lat="50.7833" lon="2.73332">
        <ele>102</ele>
        <time>2026-03-02T13:50:54+00:00</time>
      </trkpt>
      <trkpt lat="50.78337" lon="2.73315">
        <ele>103</ele>
        <time>2026-03-02T13:50:57+00:00</time>
      </trkpt>
      <trkpt lat="50.78343" lon="2.73293">
        <ele>103</ele>
        <time>2026-03-02T13:51:00+00:00</time>
      </trkpt>
      <trkpt lat="50.78343" lon="2.73278">
        <ele>104</ele>
        <time>2026-03-02T13:51:03+00:00</time>
      </trkpt>
      <trkpt lat="50.78346" lon="2.73247">
        <ele>105</ele>
        <time>2026-03-02T13:51:06+00:00</time>
      </trkpt>
      <trkpt lat="50.78349" lon="2.73208">
        <ele>106</ele>
        <time>2026-03-02T13:51:09+00:00</time>
      </trkpt>
      <trkpt lat="50.78349" lon="2.73183">
        <ele>107</ele>
        <time>2026-03-02T13:51:12+00:00</time>
      </trkpt>
      <trkpt lat="50.78348" lon="2.73148">
        <ele>107</ele>
        <time>2026-03-02T13:51:15+00:00</time>
      </trkpt>
      <trkpt lat="50.78346" lon="2.73144">
        <ele>107</ele>
        <time>2026-03-02T13:51:18+00:00</time>
      </trkpt>
      <trkpt lat="50.78324" lon="2.73154">
        <ele>109</ele>
        <time>2026-03-02T13:51:21+00:00</time>
      </trkpt>
      <trkpt lat="50.78296" lon="2.73167">
        <ele>113</ele>
        <time>2026-03-02T13:51:24+00:00</time>
      </trkpt>
      <trkpt lat="50.78278" lon="2.73172">
        <ele>115</ele>
        <time>2026-03-02T13:51:27+00:00</time>
      </trkpt>
      <trkpt lat="50.78256" lon="2.7318">
        <ele>117</ele>
        <time>2026-03-02T13:51:30+00:00</time>
      </trkpt>
      <trkpt lat="50.78234" lon="2.73135">
        <ele>121</ele>
        <time>2026-03-02T13:51:33+00:00</time>
      </trkpt>
      <trkpt lat="50.78206" lon="2.73095">
        <ele>125</ele>
        <time>2026-03-02T13:51:36+00:00</time>
      </trkpt>
      <trkpt lat="50.78189" lon="2.73063">
        <ele>124</ele>
        <time>2026-03-02T13:51:39+00:00</time>
      </trkpt>
      <trkpt lat="50.7817" lon="2.73024">
        <ele>124</ele>
        <time>2026-03-02T13:51:42+00:00</time>
      </trkpt>
      <trkpt lat="50.78155" lon="2.73002">
        <ele>125</ele>
        <time>2026-03-02T13:51:45+00:00</time>
      </trkpt>
      <trkpt lat="50.78143" lon="2.72997">
        <ele>125</ele>
        <time>2026-03-02T13:51:48+00:00</time>
      </trkpt>
      <trkpt lat="50.78136" lon="2.72995">
        <ele>126</ele>
        <time>2026-03-02T13:51:51+00:00</time>
      </trkpt>
      <trkpt lat="50.78124" lon="2.72999">
        <ele>127</ele>
        <time>2026-03-02T13:51:54+00:00</time>
      </trkpt>
      <trkpt lat="50.78108" lon="2.72999">
        <ele>129</ele>
        <time>2026-03-02T13:51:57+00:00</time>
      </trkpt>
      <trkpt lat="50.78097" lon="2.72995">
        <ele>130</ele>
        <time>2026-03-02T13:52:00+00:00</time>
      </trkpt>
      <trkpt lat="50.78082" lon="2.72986">
        <ele>130</ele>
        <time>2026-03-02T13:52:03+00:00</time>
      </trkpt>
      <trkpt lat="50.78069" lon="2.72972">
        <ele>132</ele>
        <time>2026-03-02T13:52:06+00:00</time>
      </trkpt>
      <trkpt lat="50.78056" lon="2.72962">
        <ele>132</ele>
        <time>2026-03-02T13:52:09+00:00</time>
      </trkpt>
      <trkpt lat="50.78041" lon="2.72957">
        <ele>132</ele>
        <time>2026-03-02T13:52:12+00:00</time>
      </trkpt>
      <trkpt lat="50.78017" lon="2.72955">
        <ele>131</ele>
        <time>2026-03-02T13:52:15+00:00</time>
      </trkpt>
      <trkpt lat="50.78009" lon="2.72964">
        <ele>130</ele>
        <time>2026-03-02T13:52:18+00:00</time>
      </trkpt>
      <trkpt lat="50.78" lon="2.72992">
        <ele>131</ele>
        <time>2026-03-02T13:52:21+00:00</time>
      </trkpt>
      <trkpt lat="50.77994" lon="2.73016">
        <ele>133</ele>
        <time>2026-03-02T13:52:24+00:00</time>
      </trkpt>
      <trkpt lat="50.77993" lon="2.7303">
        <ele>132</ele>
        <time>2026-03-02T13:52:27+00:00</time>
      </trkpt>
      <trkpt lat="50.77981" lon="2.73047">
        <ele>135</ele>
        <time>2026-03-02T13:52:30+00:00</time>
      </trkpt>
      <trkpt lat="50.77972" lon="2.73065">
        <ele>134</ele>
        <time>2026-03-02T13:52:33+00:00</time>
      </trkpt>
      <trkpt lat="50.77964" lon="2.7309">
        <ele>135</ele>
        <time>2026-03-02T13:52:36+00:00</time>
      </trkpt>
      <trkpt lat="50.77958" lon="2.73116">
        <ele>135</ele>
        <time>2026-03-02T13:52:39+00:00</time>
      </trkpt>
      <trkpt lat="50.77943" lon="2.73126">
        <ele>135</ele>
        <time>2026-03-02T13:52:42+00:00</time>
      </trkpt>
      <trkpt lat="50.77923" lon="2.73143">
        <ele>135</ele>
        <time>2026-03-02T13:52:45+00:00</time>
      </trkpt>
      <trkpt lat="50.77903" lon="2.73165">
        <ele>132</ele>
        <time>2026-03-02T13:52:48+00:00</time>
      </trkpt>
      <trkpt lat="50.77884" lon="2.73184">
        <ele>130</ele>
        <time>2026-03-02T13:52:51+00:00</time>
      </trkpt>
      <trkpt lat="50.77863" lon="2.73206">
        <ele>129</ele>
        <time>2026-03-02T13:52:54+00:00</time>
      </trkpt>
      <trkpt lat="50.77851" lon="2.73225">
        <ele>128</ele>
        <time>2026-03-02T13:52:57+00:00</time>
      </trkpt>
      <trkpt lat="50.77842" lon="2.73238">
        <ele>129</ele>
        <time>2026-03-02T13:53:00+00:00</time>
      </trkpt>
      <trkpt lat="50.77832" lon="2.73265">
        <ele>130</ele>
        <time>2026-03-02T13:53:03+00:00</time>
      </trkpt>
      <trkpt lat="50.77813" lon="2.73307">
        <ele>130</ele>
        <time>2026-03-02T13:53:06+00:00</time>
      </trkpt>
      <trkpt lat="50.77798" lon="2.73336">
        <ele>130</ele>
        <time>2026-03-02T13:53:09+00:00</time>
      </trkpt>
      <trkpt lat="50.77791" lon="2.73346">
        <ele>131</ele>
        <time>2026-03-02T13:53:12+00:00</time>
      </trkpt>
      <trkpt lat="50.77783" lon="2.73358">
        <ele>125</ele>
        <time>2026-03-02T13:53:15+00:00</time>
      </trkpt>
      <trkpt lat="50.77771" lon="2.73371">
        <ele>131</ele>
        <time>2026-03-02T13:53:18+00:00</time>
      </trkpt>
      <trkpt lat="50.77745" lon="2.73379">
        <ele>120</ele>
        <time>2026-03-02T13:53:21+00:00</time>
      </trkpt>
      <trkpt lat="50.77726" lon="2.73347">
        <ele>109</ele>
        <time>2026-03-02T13:53:24+00:00</time>
      </trkpt>
      <trkpt lat="50.77711" lon="2.73292">
        <ele>98</ele>
        <time>2026-03-02T13:53:27+00:00</time>
      </trkpt>
      <trkpt lat="50.77696" lon="2.73256">
        <ele>90</ele>
        <time>2026-03-02T13:53:30+00:00</time>
      </trkpt>
      <trkpt lat="50.7768" lon="2.73225">
        <ele>88</ele>
        <time>2026-03-02T13:53:33+00:00</time>
      </trkpt>
      <trkpt lat="50.77673" lon="2.73197">
        <ele>86</ele>
        <time>2026-03-02T13:53:36+00:00</time>
      </trkpt>
      <trkpt lat="50.77662" lon="2.7318">
        <ele>84</ele>
        <time>2026-03-02T13:53:39+00:00</time>
      </trkpt>
      <trkpt lat="50.77648" lon="2.73158">
        <ele>81</ele>
        <time>2026-03-02T13:53:42+00:00</time>
      </trkpt>
      <trkpt lat="50.77628" lon="2.73144">
        <ele>79</ele>
        <time>2026-03-02T13:53:45+00:00</time>
      </trkpt>
      <trkpt lat="50.77606" lon="2.7313">
        <ele>76</ele>
        <time>2026-03-02T13:53:48+00:00</time>
      </trkpt>
      <trkpt lat="50.77576" lon="2.73101">
        <ele>75</ele>
        <time>2026-03-02T13:53:51+00:00</time>
      </trkpt>
      <trkpt lat="50.77564" lon="2.73059">
        <ele>73</ele>
        <time>2026-03-02T13:53:54+00:00</time>
      </trkpt>
      <trkpt lat="50.77544" lon="2.73035">
        <ele>72</ele>
        <time>2026-03-02T13:53:57+00:00</time>
      </trkpt>
      <trkpt lat="50.77518" lon="2.73003">
        <ele>70</ele>
        <time>2026-03-02T13:54:00+00:00</time>
      </trkpt>
      <trkpt lat="50.77507" lon="2.72968">
        <ele>67</ele>
        <time>2026-03-02T13:54:03+00:00</time>
      </trkpt>
      <trkpt lat="50.77492" lon="2.72919">
        <ele>65</ele>
        <time>2026-03-02T13:54:06+00:00</time>
      </trkpt>
      <trkpt lat="50.77483" lon="2.72915">
        <ele>63</ele>
        <time>2026-03-02T13:54:09+00:00</time>
      </trkpt>
      <trkpt lat="50.77473" lon="2.72919">
        <ele>67</ele>
        <time>2026-03-02T13:54:12+00:00</time>
      </trkpt>
      <trkpt lat="50.77442" lon="2.72925">
        <ele>69</ele>
        <time>2026-03-02T13:54:15+00:00</time>
      </trkpt>
      <trkpt lat="50.77425" lon="2.72912">
        <ele>70</ele>
        <time>2026-03-02T13:54:18+00:00</time>
      </trkpt>
      <trkpt lat="50.7741" lon="2.72902">
        <ele>70</ele>
        <time>2026-03-02T13:54:21+00:00</time>
      </trkpt>
      <trkpt lat="50.77402" lon="2.72898">
        <ele>71</ele>
        <time>2026-03-02T13:54:24+00:00</time>
      </trkpt>
      <trkpt lat="50.7739" lon="2.72896">
        <ele>72</ele>
        <time>2026-03-02T13:54:27+00:00</time>
      </trkpt>
      <trkpt lat="50.7738" lon="2.72893">
        <ele>74</ele>
        <time>2026-03-02T13:54:30+00:00</time>
      </trkpt>
      <trkpt lat="50.77364" lon="2.72897">
        <ele>75</ele>
        <time>2026-03-02T13:54:33+00:00</time>
      </trkpt>
      <trkpt lat="50.77355" lon="2.7289">
        <ele>73</ele>
        <time>2026-03-02T13:54:36+00:00</time>
      </trkpt>
      <trkpt lat="50.77338" lon="2.72862">
        <ele>73</ele>
        <time>2026-03-02T13:54:39+00:00</time>
      </trkpt>
      <trkpt lat="50.77335" lon="2.72843">
        <ele>71</ele>
        <time>2026-03-02T13:54:42+00:00</time>
      </trkpt>
      <trkpt lat="50.77331" lon="2.72807">
        <ele>67</ele>
        <time>2026-03-02T13:54:45+00:00</time>
      </trkpt>
      <trkpt lat="50.77332" lon="2.72789">
        <ele>65</ele>
        <time>2026-03-02T13:54:48+00:00</time>
      </trkpt>
      <trkpt lat="50.77344" lon="2.72776">
        <ele>64</ele>
        <time>2026-03-02T13:54:51+00:00</time>
      </trkpt>
      <trkpt lat="50.77367" lon="2.72733">
        <ele>59</ele>
        <time>2026-03-02T13:54:54+00:00</time>
      </trkpt>
      <trkpt lat="50.77382" lon="2.72687">
        <ele>54</ele>
        <time>2026-03-02T13:54:57+00:00</time>
      </trkpt>
      <trkpt lat="50.77389" lon="2.72675">
        <ele>53</ele>
        <time>2026-03-02T13:55:00+00:00</time>
      </trkpt>
      <trkpt lat="50.77395" lon="2.72658">
        <ele>51</ele>
        <time>2026-03-02T13:55:03+00:00</time>
      </trkpt>
      <trkpt lat="50.77394" lon="2.72644">
        <ele>51</ele>
        <time>2026-03-02T13:55:06+00:00</time>
      </trkpt>
      <trkpt lat="50.77383" lon="2.72619">
        <ele>50</ele>
        <time>2026-03-02T13:55:09+00:00</time>
      </trkpt>
      <trkpt lat="50.77369" lon="2.72591">
        <ele>49</ele>
        <time>2026-03-02T13:55:12+00:00</time>
      </trkpt>
      <trkpt lat="50.77363" lon="2.72573">
        <ele>48</ele>
        <time>2026-03-02T13:55:15+00:00</time>
      </trkpt>
      <trkpt lat="50.7736" lon="2.72548">
        <ele>46</ele>
        <time>2026-03-02T13:55:18+00:00</time>
      </trkpt>
      <trkpt lat="50.77357" lon="2.72502">
        <ele>45</ele>
        <time>2026-03-02T13:55:21+00:00</time>
      </trkpt>
      <trkpt lat="50.77354" lon="2.72469">
        <ele>44</ele>
        <time>2026-03-02T13:55:24+00:00</time>
      </trkpt>
      <trkpt lat="50.77348" lon="2.72422">
        <ele>43</ele>
        <time>2026-03-02T13:55:27+00:00</time>
      </trkpt>
      <trkpt lat="50.77347" lon="2.72383">
        <ele>42</ele>
        <time>2026-03-02T13:55:30+00:00</time>
      </trkpt>
      <trkpt lat="50.77346" lon="2.72343">
        <ele>41</ele>
        <time>2026-03-02T13:55:33+00:00</time>
      </trkpt>
      <trkpt lat="50.77344" lon="2.72321">
        <ele>40</ele>
        <time>2026-03-02T13:55:36+00:00</time>
      </trkpt>
      <trkpt lat="50.7734" lon="2.72309">
        <ele>40</ele>
        <time>2026-03-02T13:55:39+00:00</time>
      </trkpt>
      <trkpt lat="50.77335" lon="2.72287">
        <ele>41</ele>
        <time>2026-03-02T13:55:42+00:00</time>
      </trkpt>
      <trkpt lat="50.77326" lon="2.72266">
        <ele>40</ele>
        <time>2026-03-02T13:55:45+00:00</time>
      </trkpt>
      <trkpt lat="50.77317" lon="2.72249">
        <ele>40</ele>
        <time>2026-03-02T13:55:48+00:00</time>
      </trkpt>
      <trkpt lat="50.7731" lon="2.72237">
        <ele>39</ele>
        <time>2026-03-02T13:55:51+00:00</time>
      </trkpt>
      <trkpt lat="50.77304" lon="2.72227">
        <ele>39</ele>
        <time>2026-03-02T13:55:54+00:00</time>
      </trkpt>
      <trkpt lat="50.77296" lon="2.72218">
        <ele>39</ele>
        <time>2026-03-02T13:55:57+00:00</time>
      </trkpt>
      <trkpt lat="50.77285" lon="2.72219">
        <ele>39</ele>
        <time>2026-03-02T13:56:00+00:00</time>
      </trkpt>
      <trkpt lat="50.77267" lon="2.72224">
        <ele>39</ele>
        <time>2026-03-02T13:56:03+00:00</time>
      </trkpt>
      <trkpt lat="50.77246" lon="2.72229">
        <ele>39</ele>
        <time>2026-03-02T13:56:06+00:00</time>
      </trkpt>
      <trkpt lat="50.77227" lon="2.72227">
        <ele>39</ele>
        <time>2026-03-02T13:56:09+00:00</time>
      </trkpt>
      <trkpt lat="50.77205" lon="2.72223">
        <ele>39</ele>
        <time>2026-03-02T13:56:12+00:00</time>
      </trkpt>
      <trkpt lat="50.77183" lon="2.72218">
        <ele>38</ele>
        <time>2026-03-02T13:56:15+00:00</time>
      </trkpt>
      <trkpt lat="50.77171" lon="2.72219">
        <ele>38</ele>
        <time>2026-03-02T13:56:18+00:00</time>
      </trkpt>
      <trkpt lat="50.77147" lon="2.72221">
        <ele>38</ele>
        <time>2026-03-02T13:56:21+00:00</time>
      </trkpt>
      <trkpt lat="50.7713" lon="2.72221">
        <ele>38</ele>
        <time>2026-03-02T13:56:24+00:00</time>
      </trkpt>
      <trkpt lat="50.7712" lon="2.72228">
        <ele>38</ele>
        <time>2026-03-02T13:56:27+00:00</time>
      </trkpt>
      <trkpt lat="50.77109" lon="2.72238">
        <ele>38</ele>
        <time>2026-03-02T13:56:30+00:00</time>
      </trkpt>
      <trkpt lat="50.77088" lon="2.72254">
        <ele>37</ele>
        <time>2026-03-02T13:56:33+00:00</time>
      </trkpt>
      <trkpt lat="50.7707" lon="2.72255">
        <ele>37</ele>
        <time>2026-03-02T13:56:36+00:00</time>
      </trkpt>
      <trkpt lat="50.77056" lon="2.72246">
        <ele>37</ele>
        <time>2026-03-02T13:56:39+00:00</time>
      </trkpt>
      <trkpt lat="50.77039" lon="2.72243">
        <ele>37</ele>
        <time>2026-03-02T13:56:42+00:00</time>
      </trkpt>
      <trkpt lat="50.77018" lon="2.72236">
        <ele>36</ele>
        <time>2026-03-02T13:56:45+00:00</time>
      </trkpt>
      <trkpt lat="50.76992" lon="2.72225">
        <ele>36</ele>
        <time>2026-03-02T13:56:48+00:00</time>
      </trkpt>
      <trkpt lat="50.76946" lon="2.72204">
        <ele>35</ele>
        <time>2026-03-02T13:56:51+00:00</time>
      </trkpt>
      <trkpt lat="50.76915" lon="2.72188">
        <ele>35</ele>
        <time>2026-03-02T13:56:54+00:00</time>
      </trkpt>
      <trkpt lat="50.76899" lon="2.72184">
        <ele>35</ele>
        <time>2026-03-02T13:56:57+00:00</time>
      </trkpt>
      <trkpt lat="50.76883" lon="2.72173">
        <ele>35</ele>
        <time>2026-03-02T13:57:00+00:00</time>
      </trkpt>
      <trkpt lat="50.76862" lon="2.72158">
        <ele>34</ele>
        <time>2026-03-02T13:57:03+00:00</time>
      </trkpt>
      <trkpt lat="50.76846" lon="2.7215">
        <ele>34</ele>
        <time>2026-03-02T13:57:06+00:00</time>
      </trkpt>
      <trkpt lat="50.76822" lon="2.7214">
        <ele>34</ele>
        <time>2026-03-02T13:57:09+00:00</time>
      </trkpt>
      <trkpt lat="50.76816" lon="2.72176">
        <ele>34</ele>
        <time>2026-03-02T13:57:12+00:00</time>
      </trkpt>
      <trkpt lat="50.76809" lon="2.72222">
        <ele>35</ele>
        <time>2026-03-02T13:57:15+00:00</time>
      </trkpt>
      <trkpt lat="50.76804" lon="2.72255">
        <ele>36</ele>
        <time>2026-03-02T13:57:18+00:00</time>
      </trkpt>
      <trkpt lat="50.76798" lon="2.72289">
        <ele>36</ele>
        <time>2026-03-02T13:57:21+00:00</time>
      </trkpt>
      <trkpt lat="50.76785" lon="2.72334">
        <ele>38</ele>
        <time>2026-03-02T13:57:24+00:00</time>
      </trkpt>
      <trkpt lat="50.76769" lon="2.72392">
        <ele>39</ele>
        <time>2026-03-02T13:57:27+00:00</time>
      </trkpt>
      <trkpt lat="50.76759" lon="2.72443">
        <ele>40</ele>
        <time>2026-03-02T13:57:30+00:00</time>
      </trkpt>
      <trkpt lat="50.76751" lon="2.72466">
        <ele>41</ele>
        <time>2026-03-02T13:57:33+00:00</time>
      </trkpt>
      <trkpt lat="50.76742" lon="2.72484">
        <ele>42</ele>
        <time>2026-03-02T13:57:36+00:00</time>
      </trkpt>
      <trkpt lat="50.76732" lon="2.72505">
        <ele>42</ele>
        <time>2026-03-02T13:57:39+00:00</time>
      </trkpt>
      <trkpt lat="50.76694" lon="2.7248">
        <ele>42</ele>
        <time>2026-03-02T13:57:42+00:00</time>
      </trkpt>
      <trkpt lat="50.76667" lon="2.72461">
        <ele>40</ele>
        <time>2026-03-02T13:57:45+00:00</time>
      </trkpt>
      <trkpt lat="50.7664" lon="2.72441">
        <ele>38</ele>
        <time>2026-03-02T13:57:48+00:00</time>
      </trkpt>
      <trkpt lat="50.76607" lon="2.72417">
        <ele>36</ele>
        <time>2026-03-02T13:57:51+00:00</time>
      </trkpt>
      <trkpt lat="50.76572" lon="2.7238">
        <ele>35</ele>
        <time>2026-03-02T13:57:54+00:00</time>
      </trkpt>
      <trkpt lat="50.76543" lon="2.72348">
        <ele>33</ele>
        <time>2026-03-02T13:57:57+00:00</time>
      </trkpt>
      <trkpt lat="50.76514" lon="2.72313">
        <ele>32</ele>
        <time>2026-03-02T13:58:00+00:00</time>
      </trkpt>
      <trkpt lat="50.76499" lon="2.72305">
        <ele>32</ele>
        <time>2026-03-02T13:58:03+00:00</time>
      </trkpt>
      <trkpt lat="50.76484" lon="2.723">
        <ele>31</ele>
        <time>2026-03-02T13:58:06+00:00</time>
      </trkpt>
      <trkpt lat="50.76472" lon="2.72288">
        <ele>31</ele>
        <time>2026-03-02T13:58:09+00:00</time>
      </trkpt>
      <trkpt lat="50.76466" lon="2.72269">
        <ele>31</ele>
        <time>2026-03-02T13:58:12+00:00</time>
      </trkpt>
      <trkpt lat="50.76452" lon="2.72241">
        <ele>31</ele>
        <time>2026-03-02T13:58:15+00:00</time>
      </trkpt>
      <trkpt lat="50.76436" lon="2.72209">
        <ele>31</ele>
        <time>2026-03-02T13:58:18+00:00</time>
      </trkpt>
      <trkpt lat="50.76411" lon="2.72166">
        <ele>31</ele>
        <time>2026-03-02T13:58:21+00:00</time>
      </trkpt>
      <trkpt lat="50.76401" lon="2.72163">
        <ele>31</ele>
        <time>2026-03-02T13:58:24+00:00</time>
      </trkpt>
      <trkpt lat="50.76385" lon="2.72179">
        <ele>31</ele>
        <time>2026-03-02T13:58:27+00:00</time>
      </trkpt>
      <trkpt lat="50.76366" lon="2.72186">
        <ele>31</ele>
        <time>2026-03-02T13:58:30+00:00</time>
      </trkpt>
      <trkpt lat="50.76357" lon="2.72125">
        <ele>31</ele>
        <time>2026-03-02T13:58:33+00:00</time>
      </trkpt>
      <trkpt lat="50.76373" lon="2.72102">
        <ele>31</ele>
        <time>2026-03-02T13:58:36+00:00</time>
      </trkpt>
      <trkpt lat="50.76367" lon="2.72079">
        <ele>31</ele>
        <time>2026-03-02T13:58:39+00:00</time>
      </trkpt>
      <trkpt lat="50.76358" lon="2.72075">
        <ele>31</ele>
        <time>2026-03-02T13:58:42+00:00</time>
      </trkpt>
      <trkpt lat="50.7635" lon="2.72042">
        <ele>31</ele>
        <time>2026-03-02T13:58:45+00:00</time>
      </trkpt>
      <trkpt lat="50.7634" lon="2.72006">
        <ele>32</ele>
        <time>2026-03-02T13:58:48+00:00</time>
      </trkpt>
      <trkpt lat="50.76326" lon="2.71985">
        <ele>32</ele>
        <time>2026-03-02T13:58:51+00:00</time>
      </trkpt>
      <trkpt lat="50.76335" lon="2.71942">
        <ele>32</ele>
        <time>2026-03-02T13:58:54+00:00</time>
      </trkpt>
      <trkpt lat="50.76343" lon="2.71906">
        <ele>32</ele>
        <time>2026-03-02T13:58:57+00:00</time>
      </trkpt>
      <trkpt lat="50.76353" lon="2.71861">
        <ele>33</ele>
        <time>2026-03-02T13:59:00+00:00</time>
      </trkpt>
      <trkpt lat="50.76355" lon="2.71845">
        <ele>33</ele>
        <time>2026-03-02T13:59:03+00:00</time>
      </trkpt>
      <trkpt lat="50.76347" lon="2.71835">
        <ele>33</ele>
        <time>2026-03-02T13:59:06+00:00</time>
      </trkpt>
      <trkpt lat="50.76353" lon="2.71802">
        <ele>33</ele>
        <time>2026-03-02T13:59:09+00:00</time>
      </trkpt>
      <trkpt lat="50.76359" lon="2.71768">
        <ele>33</ele>
        <time>2026-03-02T13:59:12+00:00</time>
      </trkpt>
    </trkseg>
  </trk>
</gpx>
