<?xml version="1.0" encoding="UTF-8"?>
<gpx xmlns="http://www.topografix.com/GPX/1/1" xmlns:xsi="http://www.w3.org/2001/XMLSchema-instance" version="1.1" creator="Trace de Trail" xsi:schemaLocation="http://www.topografix.com/GPX/1/1 http://www.topografix.com/GPX/1/1/gpx.xsd">
  <metadata>
    <name>ntmf25 km 2026</name>
    <desc>Parcours créé sur Trace de Trail</desc>
    <link href="https://tracedetrail.fr/fr/trace/331868">
      <text>Cartographie du parcours</text>
    </link>
    <time>2026-03-02T13:34:49+00:00</time>
  </metadata>
  <trk>
    <name>ntmf25 km 2026 sur TraceDeTrail.fr</name>
    <src>Trace de Trail</src>
    <trkseg>
      <trkpt lat="50.76813" lon="2.72006">
        <ele>34</ele>
        <time>2026-03-02T13:34:49+00:00</time>
      </trkpt>
      <trkpt lat="50.76838" lon="2.72014">
        <ele>34</ele>
        <time>2026-03-02T13:34:52+00:00</time>
      </trkpt>
      <trkpt lat="50.76873" lon="2.72025">
        <ele>35</ele>
        <time>2026-03-02T13:34:55+00:00</time>
      </trkpt>
      <trkpt lat="50.76909" lon="2.7203">
        <ele>35</ele>
        <time>2026-03-02T13:34:58+00:00</time>
      </trkpt>
      <trkpt lat="50.76939" lon="2.72033">
        <ele>36</ele>
        <time>2026-03-02T13:35:01+00:00</time>
      </trkpt>
      <trkpt lat="50.7697" lon="2.72037">
        <ele>37</ele>
        <time>2026-03-02T13:35:04+00:00</time>
      </trkpt>
      <trkpt lat="50.77017" lon="2.72042">
        <ele>37</ele>
        <time>2026-03-02T13:35:07+00:00</time>
      </trkpt>
      <trkpt lat="50.77053" lon="2.72047">
        <ele>37</ele>
        <time>2026-03-02T13:35:10+00:00</time>
      </trkpt>
      <trkpt lat="50.77077" lon="2.72049">
        <ele>37</ele>
        <time>2026-03-02T13:35:13+00:00</time>
      </trkpt>
      <trkpt lat="50.77104" lon="2.72052">
        <ele>37</ele>
        <time>2026-03-02T13:35:16+00:00</time>
      </trkpt>
      <trkpt lat="50.77149" lon="2.72057">
        <ele>38</ele>
        <time>2026-03-02T13:35:19+00:00</time>
      </trkpt>
      <trkpt lat="50.77184" lon="2.72062">
        <ele>38</ele>
        <time>2026-03-02T13:35:22+00:00</time>
      </trkpt>
      <trkpt lat="50.77215" lon="2.72066">
        <ele>39</ele>
        <time>2026-03-02T13:35:25+00:00</time>
      </trkpt>
      <trkpt lat="50.77247" lon="2.72069">
        <ele>39</ele>
        <time>2026-03-02T13:35:28+00:00</time>
      </trkpt>
      <trkpt lat="50.77305" lon="2.72076">
        <ele>40</ele>
        <time>2026-03-02T13:35:31+00:00</time>
      </trkpt>
      <trkpt lat="50.77337" lon="2.72067">
        <ele>41</ele>
        <time>2026-03-02T13:35:34+00:00</time>
      </trkpt>
      <trkpt lat="50.77368" lon="2.72058">
        <ele>41</ele>
        <time>2026-03-02T13:35:37+00:00</time>
      </trkpt>
      <trkpt lat="50.774" lon="2.72049">
        <ele>42</ele>
        <time>2026-03-02T13:35:40+00:00</time>
      </trkpt>
      <trkpt lat="50.77433" lon="2.7204">
        <ele>43</ele>
        <time>2026-03-02T13:35:43+00:00</time>
      </trkpt>
      <trkpt lat="50.77436" lon="2.72082">
        <ele>44</ele>
        <time>2026-03-02T13:35:46+00:00</time>
      </trkpt>
      <trkpt lat="50.77439" lon="2.72116">
        <ele>44</ele>
        <time>2026-03-02T13:35:49+00:00</time>
      </trkpt>
      <trkpt lat="50.77442" lon="2.72153">
        <ele>44</ele>
        <time>2026-03-02T13:35:52+00:00</time>
      </trkpt>
      <trkpt lat="50.77469" lon="2.72149">
        <ele>45</ele>
        <time>2026-03-02T13:35:55+00:00</time>
      </trkpt>
      <trkpt lat="50.77513" lon="2.72143">
        <ele>49</ele>
        <time>2026-03-02T13:35:58+00:00</time>
      </trkpt>
      <trkpt lat="50.7754" lon="2.72144">
        <ele>52</ele>
        <time>2026-03-02T13:36:01+00:00</time>
      </trkpt>
      <trkpt lat="50.77589" lon="2.72145">
        <ele>56</ele>
        <time>2026-03-02T13:36:04+00:00</time>
      </trkpt>
      <trkpt lat="50.77616" lon="2.72144">
        <ele>59</ele>
        <time>2026-03-02T13:36:07+00:00</time>
      </trkpt>
      <trkpt lat="50.7766" lon="2.72142">
        <ele>63</ele>
        <time>2026-03-02T13:36:10+00:00</time>
      </trkpt>
      <trkpt lat="50.77689" lon="2.72166">
        <ele>66</ele>
        <time>2026-03-02T13:36:13+00:00</time>
      </trkpt>
      <trkpt lat="50.77718" lon="2.7219">
        <ele>70</ele>
        <time>2026-03-02T13:36:16+00:00</time>
      </trkpt>
      <trkpt lat="50.77747" lon="2.72214">
        <ele>75</ele>
        <time>2026-03-02T13:36:19+00:00</time>
      </trkpt>
      <trkpt lat="50.77784" lon="2.72245">
        <ele>81</ele>
        <time>2026-03-02T13:36:22+00:00</time>
      </trkpt>
      <trkpt lat="50.77806" lon="2.72263">
        <ele>83</ele>
        <time>2026-03-02T13:36:25+00:00</time>
      </trkpt>
      <trkpt lat="50.77837" lon="2.72288">
        <ele>85</ele>
        <time>2026-03-02T13:36:28+00:00</time>
      </trkpt>
      <trkpt lat="50.77867" lon="2.72286">
        <ele>88</ele>
        <time>2026-03-02T13:36:31+00:00</time>
      </trkpt>
      <trkpt lat="50.77896" lon="2.72284">
        <ele>90</ele>
        <time>2026-03-02T13:36:34+00:00</time>
      </trkpt>
      <trkpt lat="50.77936" lon="2.72282">
        <ele>94</ele>
        <time>2026-03-02T13:36:37+00:00</time>
      </trkpt>
      <trkpt lat="50.77958" lon="2.72281">
        <ele>96</ele>
        <time>2026-03-02T13:36:40+00:00</time>
      </trkpt>
      <trkpt lat="50.77982" lon="2.7228">
        <ele>101</ele>
        <time>2026-03-02T13:36:43+00:00</time>
      </trkpt>
      <trkpt lat="50.77999" lon="2.72262">
        <ele>103</ele>
        <time>2026-03-02T13:36:46+00:00</time>
      </trkpt>
      <trkpt lat="50.78032" lon="2.72261">
        <ele>105</ele>
        <time>2026-03-02T13:36:49+00:00</time>
      </trkpt>
      <trkpt lat="50.78033" lon="2.72275">
        <ele>109</ele>
        <time>2026-03-02T13:36:52+00:00</time>
      </trkpt>
      <trkpt lat="50.78015" lon="2.72276">
        <ele>104</ele>
        <time>2026-03-02T13:36:55+00:00</time>
      </trkpt>
      <trkpt lat="50.77996" lon="2.72277">
        <ele>103</ele>
        <time>2026-03-02T13:36:58+00:00</time>
      </trkpt>
      <trkpt lat="50.77978" lon="2.72298">
        <ele>100</ele>
        <time>2026-03-02T13:37:01+00:00</time>
      </trkpt>
      <trkpt lat="50.77957" lon="2.72322">
        <ele>99</ele>
        <time>2026-03-02T13:37:04+00:00</time>
      </trkpt>
      <trkpt lat="50.77946" lon="2.72324">
        <ele>97</ele>
        <time>2026-03-02T13:37:07+00:00</time>
      </trkpt>
      <trkpt lat="50.77947" lon="2.72356">
        <ele>97</ele>
        <time>2026-03-02T13:37:10+00:00</time>
      </trkpt>
      <trkpt lat="50.77937" lon="2.72386">
        <ele>97</ele>
        <time>2026-03-02T13:37:13+00:00</time>
      </trkpt>
      <trkpt lat="50.7793" lon="2.72404">
        <ele>97</ele>
        <time>2026-03-02T13:37:16+00:00</time>
      </trkpt>
      <trkpt lat="50.77924" lon="2.72428">
        <ele>98</ele>
        <time>2026-03-02T13:37:19+00:00</time>
      </trkpt>
      <trkpt lat="50.77917" lon="2.72457">
        <ele>99</ele>
        <time>2026-03-02T13:37:22+00:00</time>
      </trkpt>
      <trkpt lat="50.77901" lon="2.72493">
        <ele>101</ele>
        <time>2026-03-02T13:37:25+00:00</time>
      </trkpt>
      <trkpt lat="50.77897" lon="2.7252">
        <ele>101</ele>
        <time>2026-03-02T13:37:28+00:00</time>
      </trkpt>
      <trkpt lat="50.77909" lon="2.72558">
        <ele>103</ele>
        <time>2026-03-02T13:37:31+00:00</time>
      </trkpt>
      <trkpt lat="50.77912" lon="2.72619">
        <ele>106</ele>
        <time>2026-03-02T13:37:34+00:00</time>
      </trkpt>
      <trkpt lat="50.77923" lon="2.7266">
        <ele>106</ele>
        <time>2026-03-02T13:37:37+00:00</time>
      </trkpt>
      <trkpt lat="50.77899" lon="2.72672">
        <ele>107</ele>
        <time>2026-03-02T13:37:40+00:00</time>
      </trkpt>
      <trkpt lat="50.7789" lon="2.72699">
        <ele>107</ele>
        <time>2026-03-02T13:37:43+00:00</time>
      </trkpt>
      <trkpt lat="50.7787" lon="2.72742">
        <ele>105</ele>
        <time>2026-03-02T13:37:46+00:00</time>
      </trkpt>
      <trkpt lat="50.77847" lon="2.72767">
        <ele>104</ele>
        <time>2026-03-02T13:37:49+00:00</time>
      </trkpt>
      <trkpt lat="50.77846" lon="2.72786">
        <ele>102</ele>
        <time>2026-03-02T13:37:52+00:00</time>
      </trkpt>
      <trkpt lat="50.77862" lon="2.72799">
        <ele>104</ele>
        <time>2026-03-02T13:37:55+00:00</time>
      </trkpt>
      <trkpt lat="50.77882" lon="2.72815">
        <ele>106</ele>
        <time>2026-03-02T13:37:58+00:00</time>
      </trkpt>
      <trkpt lat="50.77905" lon="2.72834">
        <ele>108</ele>
        <time>2026-03-02T13:38:01+00:00</time>
      </trkpt>
      <trkpt lat="50.77941" lon="2.72864">
        <ele>111</ele>
        <time>2026-03-02T13:38:04+00:00</time>
      </trkpt>
      <trkpt lat="50.7797" lon="2.72913">
        <ele>116</ele>
        <time>2026-03-02T13:38:07+00:00</time>
      </trkpt>
      <trkpt lat="50.77977" lon="2.72945">
        <ele>121</ele>
        <time>2026-03-02T13:38:10+00:00</time>
      </trkpt>
      <trkpt lat="50.77988" lon="2.72932">
        <ele>122</ele>
        <time>2026-03-02T13:38:13+00:00</time>
      </trkpt>
      <trkpt lat="50.77992" lon="2.72906">
        <ele>123</ele>
        <time>2026-03-02T13:38:16+00:00</time>
      </trkpt>
      <trkpt lat="50.77996" lon="2.72874">
        <ele>123</ele>
        <time>2026-03-02T13:38:19+00:00</time>
      </trkpt>
      <trkpt lat="50.77999" lon="2.72812">
        <ele>123</ele>
        <time>2026-03-02T13:38:22+00:00</time>
      </trkpt>
      <trkpt lat="50.78002" lon="2.72775">
        <ele>125</ele>
        <time>2026-03-02T13:38:25+00:00</time>
      </trkpt>
      <trkpt lat="50.78005" lon="2.72731">
        <ele>126</ele>
        <time>2026-03-02T13:38:28+00:00</time>
      </trkpt>
      <trkpt lat="50.77992" lon="2.72695">
        <ele>126</ele>
        <time>2026-03-02T13:38:31+00:00</time>
      </trkpt>
      <trkpt lat="50.77974" lon="2.72676">
        <ele>124</ele>
        <time>2026-03-02T13:38:34+00:00</time>
      </trkpt>
      <trkpt lat="50.77985" lon="2.72635">
        <ele>122</ele>
        <time>2026-03-02T13:38:37+00:00</time>
      </trkpt>
      <trkpt lat="50.78007" lon="2.72556">
        <ele>121</ele>
        <time>2026-03-02T13:38:40+00:00</time>
      </trkpt>
      <trkpt lat="50.78005" lon="2.72521">
        <ele>119</ele>
        <time>2026-03-02T13:38:43+00:00</time>
      </trkpt>
      <trkpt lat="50.78003" lon="2.72482">
        <ele>116</ele>
        <time>2026-03-02T13:38:46+00:00</time>
      </trkpt>
      <trkpt lat="50.7801" lon="2.72436">
        <ele>117</ele>
        <time>2026-03-02T13:38:49+00:00</time>
      </trkpt>
      <trkpt lat="50.78026" lon="2.72457">
        <ele>118</ele>
        <time>2026-03-02T13:38:52+00:00</time>
      </trkpt>
      <trkpt lat="50.78028" lon="2.725">
        <ele>120</ele>
        <time>2026-03-02T13:38:55+00:00</time>
      </trkpt>
      <trkpt lat="50.78032" lon="2.72575">
        <ele>125</ele>
        <time>2026-03-02T13:38:58+00:00</time>
      </trkpt>
      <trkpt lat="50.7804" lon="2.72601">
        <ele>127</ele>
        <time>2026-03-02T13:39:01+00:00</time>
      </trkpt>
      <trkpt lat="50.78053" lon="2.7257">
        <ele>127</ele>
        <time>2026-03-02T13:39:04+00:00</time>
      </trkpt>
      <trkpt lat="50.78065" lon="2.72535">
        <ele>126</ele>
        <time>2026-03-02T13:39:07+00:00</time>
      </trkpt>
      <trkpt lat="50.78082" lon="2.72487">
        <ele>124</ele>
        <time>2026-03-02T13:39:10+00:00</time>
      </trkpt>
      <trkpt lat="50.78101" lon="2.72454">
        <ele>123</ele>
        <time>2026-03-02T13:39:13+00:00</time>
      </trkpt>
      <trkpt lat="50.78116" lon="2.72426">
        <ele>122</ele>
        <time>2026-03-02T13:39:16+00:00</time>
      </trkpt>
      <trkpt lat="50.78136" lon="2.72392">
        <ele>120</ele>
        <time>2026-03-02T13:39:19+00:00</time>
      </trkpt>
      <trkpt lat="50.78159" lon="2.72363">
        <ele>117</ele>
        <time>2026-03-02T13:39:22+00:00</time>
      </trkpt>
      <trkpt lat="50.78183" lon="2.72335">
        <ele>115</ele>
        <time>2026-03-02T13:39:25+00:00</time>
      </trkpt>
      <trkpt lat="50.78214" lon="2.72297">
        <ele>111</ele>
        <time>2026-03-02T13:39:28+00:00</time>
      </trkpt>
      <trkpt lat="50.78231" lon="2.72275">
        <ele>108</ele>
        <time>2026-03-02T13:39:31+00:00</time>
      </trkpt>
      <trkpt lat="50.7825" lon="2.72253">
        <ele>107</ele>
        <time>2026-03-02T13:39:34+00:00</time>
      </trkpt>
      <trkpt lat="50.78269" lon="2.72223">
        <ele>104</ele>
        <time>2026-03-02T13:39:37+00:00</time>
      </trkpt>
      <trkpt lat="50.78285" lon="2.72199">
        <ele>102</ele>
        <time>2026-03-02T13:39:40+00:00</time>
      </trkpt>
      <trkpt lat="50.78302" lon="2.72173">
        <ele>100</ele>
        <time>2026-03-02T13:39:43+00:00</time>
      </trkpt>
      <trkpt lat="50.78296" lon="2.72148">
        <ele>97</ele>
        <time>2026-03-02T13:39:46+00:00</time>
      </trkpt>
      <trkpt lat="50.78279" lon="2.72144">
        <ele>100</ele>
        <time>2026-03-02T13:39:49+00:00</time>
      </trkpt>
      <trkpt lat="50.78256" lon="2.72139">
        <ele>100</ele>
        <time>2026-03-02T13:39:52+00:00</time>
      </trkpt>
      <trkpt lat="50.78233" lon="2.72121">
        <ele>101</ele>
        <time>2026-03-02T13:39:55+00:00</time>
      </trkpt>
      <trkpt lat="50.78201" lon="2.72095">
        <ele>103</ele>
        <time>2026-03-02T13:39:58+00:00</time>
      </trkpt>
      <trkpt lat="50.7818" lon="2.72079">
        <ele>103</ele>
        <time>2026-03-02T13:40:01+00:00</time>
      </trkpt>
      <trkpt lat="50.78156" lon="2.7206">
        <ele>102</ele>
        <time>2026-03-02T13:40:04+00:00</time>
      </trkpt>
      <trkpt lat="50.78134" lon="2.72047">
        <ele>100</ele>
        <time>2026-03-02T13:40:07+00:00</time>
      </trkpt>
      <trkpt lat="50.78107" lon="2.72031">
        <ele>99</ele>
        <time>2026-03-02T13:40:10+00:00</time>
      </trkpt>
      <trkpt lat="50.78077" lon="2.72014">
        <ele>96</ele>
        <time>2026-03-02T13:40:13+00:00</time>
      </trkpt>
      <trkpt lat="50.78046" lon="2.71997">
        <ele>93</ele>
        <time>2026-03-02T13:40:16+00:00</time>
      </trkpt>
      <trkpt lat="50.78016" lon="2.7198">
        <ele>91</ele>
        <time>2026-03-02T13:40:19+00:00</time>
      </trkpt>
      <trkpt lat="50.77983" lon="2.71961">
        <ele>89</ele>
        <time>2026-03-02T13:40:22+00:00</time>
      </trkpt>
      <trkpt lat="50.77981" lon="2.71926">
        <ele>88</ele>
        <time>2026-03-02T13:40:25+00:00</time>
      </trkpt>
      <trkpt lat="50.77979" lon="2.7189">
        <ele>86</ele>
        <time>2026-03-02T13:40:28+00:00</time>
      </trkpt>
      <trkpt lat="50.7797" lon="2.71844">
        <ele>84</ele>
        <time>2026-03-02T13:40:31+00:00</time>
      </trkpt>
      <trkpt lat="50.77962" lon="2.71798">
        <ele>81</ele>
        <time>2026-03-02T13:40:34+00:00</time>
      </trkpt>
      <trkpt lat="50.77957" lon="2.71766">
        <ele>79</ele>
        <time>2026-03-02T13:40:37+00:00</time>
      </trkpt>
      <trkpt lat="50.77951" lon="2.71733">
        <ele>78</ele>
        <time>2026-03-02T13:40:40+00:00</time>
      </trkpt>
      <trkpt lat="50.77942" lon="2.71695">
        <ele>77</ele>
        <time>2026-03-02T13:40:43+00:00</time>
      </trkpt>
      <trkpt lat="50.77928" lon="2.71639">
        <ele>76</ele>
        <time>2026-03-02T13:40:46+00:00</time>
      </trkpt>
      <trkpt lat="50.77927" lon="2.71629">
        <ele>76</ele>
        <time>2026-03-02T13:40:49+00:00</time>
      </trkpt>
      <trkpt lat="50.77943" lon="2.71621">
        <ele>76</ele>
        <time>2026-03-02T13:40:52+00:00</time>
      </trkpt>
      <trkpt lat="50.77969" lon="2.71608">
        <ele>75</ele>
        <time>2026-03-02T13:40:55+00:00</time>
      </trkpt>
      <trkpt lat="50.78018" lon="2.71585">
        <ele>70</ele>
        <time>2026-03-02T13:40:58+00:00</time>
      </trkpt>
      <trkpt lat="50.7803" lon="2.71544">
        <ele>70</ele>
        <time>2026-03-02T13:41:01+00:00</time>
      </trkpt>
      <trkpt lat="50.78041" lon="2.71502">
        <ele>67</ele>
        <time>2026-03-02T13:41:04+00:00</time>
      </trkpt>
      <trkpt lat="50.78054" lon="2.71457">
        <ele>65</ele>
        <time>2026-03-02T13:41:07+00:00</time>
      </trkpt>
      <trkpt lat="50.78046" lon="2.7142">
        <ele>65</ele>
        <time>2026-03-02T13:41:10+00:00</time>
      </trkpt>
      <trkpt lat="50.78037" lon="2.71372">
        <ele>62</ele>
        <time>2026-03-02T13:41:13+00:00</time>
      </trkpt>
      <trkpt lat="50.78038" lon="2.71339">
        <ele>59</ele>
        <time>2026-03-02T13:41:16+00:00</time>
      </trkpt>
      <trkpt lat="50.7804" lon="2.71293">
        <ele>56</ele>
        <time>2026-03-02T13:41:19+00:00</time>
      </trkpt>
      <trkpt lat="50.78042" lon="2.71248">
        <ele>53</ele>
        <time>2026-03-02T13:41:22+00:00</time>
      </trkpt>
      <trkpt lat="50.78044" lon="2.71198">
        <ele>52</ele>
        <time>2026-03-02T13:41:25+00:00</time>
      </trkpt>
      <trkpt lat="50.78043" lon="2.71163">
        <ele>52</ele>
        <time>2026-03-02T13:41:28+00:00</time>
      </trkpt>
      <trkpt lat="50.78042" lon="2.71125">
        <ele>52</ele>
        <time>2026-03-02T13:41:31+00:00</time>
      </trkpt>
      <trkpt lat="50.78042" lon="2.7109">
        <ele>51</ele>
        <time>2026-03-02T13:41:34+00:00</time>
      </trkpt>
      <trkpt lat="50.78043" lon="2.71051">
        <ele>51</ele>
        <time>2026-03-02T13:41:37+00:00</time>
      </trkpt>
      <trkpt lat="50.78036" lon="2.70999">
        <ele>51</ele>
        <time>2026-03-02T13:41:40+00:00</time>
      </trkpt>
      <trkpt lat="50.78028" lon="2.70947">
        <ele>50</ele>
        <time>2026-03-02T13:41:43+00:00</time>
      </trkpt>
      <trkpt lat="50.78021" lon="2.70895">
        <ele>49</ele>
        <time>2026-03-02T13:41:46+00:00</time>
      </trkpt>
      <trkpt lat="50.78015" lon="2.70857">
        <ele>48</ele>
        <time>2026-03-02T13:41:49+00:00</time>
      </trkpt>
      <trkpt lat="50.78008" lon="2.70804">
        <ele>47</ele>
        <time>2026-03-02T13:41:52+00:00</time>
      </trkpt>
      <trkpt lat="50.78" lon="2.70754">
        <ele>45</ele>
        <time>2026-03-02T13:41:55+00:00</time>
      </trkpt>
      <trkpt lat="50.77993" lon="2.70704">
        <ele>43</ele>
        <time>2026-03-02T13:41:58+00:00</time>
      </trkpt>
      <trkpt lat="50.77986" lon="2.70662">
        <ele>42</ele>
        <time>2026-03-02T13:42:01+00:00</time>
      </trkpt>
      <trkpt lat="50.77981" lon="2.70627">
        <ele>41</ele>
        <time>2026-03-02T13:42:04+00:00</time>
      </trkpt>
      <trkpt lat="50.77975" lon="2.70588">
        <ele>41</ele>
        <time>2026-03-02T13:42:07+00:00</time>
      </trkpt>
      <trkpt lat="50.77972" lon="2.70552">
        <ele>41</ele>
        <time>2026-03-02T13:42:10+00:00</time>
      </trkpt>
      <trkpt lat="50.77969" lon="2.7051">
        <ele>41</ele>
        <time>2026-03-02T13:42:13+00:00</time>
      </trkpt>
      <trkpt lat="50.77993" lon="2.70484">
        <ele>42</ele>
        <time>2026-03-02T13:42:16+00:00</time>
      </trkpt>
      <trkpt lat="50.78009" lon="2.70454">
        <ele>43</ele>
        <time>2026-03-02T13:42:19+00:00</time>
      </trkpt>
      <trkpt lat="50.78032" lon="2.70413">
        <ele>43</ele>
        <time>2026-03-02T13:42:22+00:00</time>
      </trkpt>
      <trkpt lat="50.7806" lon="2.70365">
        <ele>44</ele>
        <time>2026-03-02T13:42:25+00:00</time>
      </trkpt>
      <trkpt lat="50.78075" lon="2.70337">
        <ele>44</ele>
        <time>2026-03-02T13:42:28+00:00</time>
      </trkpt>
      <trkpt lat="50.78096" lon="2.703">
        <ele>44</ele>
        <time>2026-03-02T13:42:31+00:00</time>
      </trkpt>
      <trkpt lat="50.78117" lon="2.70261">
        <ele>44</ele>
        <time>2026-03-02T13:42:34+00:00</time>
      </trkpt>
      <trkpt lat="50.78137" lon="2.70222">
        <ele>44</ele>
        <time>2026-03-02T13:42:37+00:00</time>
      </trkpt>
      <trkpt lat="50.78154" lon="2.7019">
        <ele>44</ele>
        <time>2026-03-02T13:42:40+00:00</time>
      </trkpt>
      <trkpt lat="50.78182" lon="2.70138">
        <ele>45</ele>
        <time>2026-03-02T13:42:43+00:00</time>
      </trkpt>
      <trkpt lat="50.78198" lon="2.70104">
        <ele>45</ele>
        <time>2026-03-02T13:42:46+00:00</time>
      </trkpt>
      <trkpt lat="50.78226" lon="2.70045">
        <ele>45</ele>
        <time>2026-03-02T13:42:49+00:00</time>
      </trkpt>
      <trkpt lat="50.78232" lon="2.7001">
        <ele>46</ele>
        <time>2026-03-02T13:42:52+00:00</time>
      </trkpt>
      <trkpt lat="50.78239" lon="2.69969">
        <ele>46</ele>
        <time>2026-03-02T13:42:55+00:00</time>
      </trkpt>
      <trkpt lat="50.78245" lon="2.6993">
        <ele>47</ele>
        <time>2026-03-02T13:42:58+00:00</time>
      </trkpt>
      <trkpt lat="50.78251" lon="2.69885">
        <ele>47</ele>
        <time>2026-03-02T13:43:01+00:00</time>
      </trkpt>
      <trkpt lat="50.78257" lon="2.6984">
        <ele>48</ele>
        <time>2026-03-02T13:43:04+00:00</time>
      </trkpt>
      <trkpt lat="50.78264" lon="2.69788">
        <ele>48</ele>
        <time>2026-03-02T13:43:07+00:00</time>
      </trkpt>
      <trkpt lat="50.78265" lon="2.69745">
        <ele>49</ele>
        <time>2026-03-02T13:43:10+00:00</time>
      </trkpt>
      <trkpt lat="50.78265" lon="2.6971">
        <ele>51</ele>
        <time>2026-03-02T13:43:13+00:00</time>
      </trkpt>
      <trkpt lat="50.78266" lon="2.6967">
        <ele>52</ele>
        <time>2026-03-02T13:43:16+00:00</time>
      </trkpt>
      <trkpt lat="50.78264" lon="2.69628">
        <ele>53</ele>
        <time>2026-03-02T13:43:19+00:00</time>
      </trkpt>
      <trkpt lat="50.78261" lon="2.69592">
        <ele>55</ele>
        <time>2026-03-02T13:43:22+00:00</time>
      </trkpt>
      <trkpt lat="50.78259" lon="2.69552">
        <ele>57</ele>
        <time>2026-03-02T13:43:25+00:00</time>
      </trkpt>
      <trkpt lat="50.78237" lon="2.69495">
        <ele>59</ele>
        <time>2026-03-02T13:43:28+00:00</time>
      </trkpt>
      <trkpt lat="50.78223" lon="2.69462">
        <ele>59</ele>
        <time>2026-03-02T13:43:31+00:00</time>
      </trkpt>
      <trkpt lat="50.78201" lon="2.69412">
        <ele>60</ele>
        <time>2026-03-02T13:43:34+00:00</time>
      </trkpt>
      <trkpt lat="50.78182" lon="2.69371">
        <ele>61</ele>
        <time>2026-03-02T13:43:37+00:00</time>
      </trkpt>
      <trkpt lat="50.78164" lon="2.69328">
        <ele>62</ele>
        <time>2026-03-02T13:43:40+00:00</time>
      </trkpt>
      <trkpt lat="50.78147" lon="2.69287">
        <ele>63</ele>
        <time>2026-03-02T13:43:43+00:00</time>
      </trkpt>
      <trkpt lat="50.78135" lon="2.69255">
        <ele>63</ele>
        <time>2026-03-02T13:43:46+00:00</time>
      </trkpt>
      <trkpt lat="50.78119" lon="2.69215">
        <ele>63</ele>
        <time>2026-03-02T13:43:49+00:00</time>
      </trkpt>
      <trkpt lat="50.78104" lon="2.69179">
        <ele>61</ele>
        <time>2026-03-02T13:43:52+00:00</time>
      </trkpt>
      <trkpt lat="50.78095" lon="2.69145">
        <ele>60</ele>
        <time>2026-03-02T13:43:55+00:00</time>
      </trkpt>
      <trkpt lat="50.78085" lon="2.69105">
        <ele>57</ele>
        <time>2026-03-02T13:43:58+00:00</time>
      </trkpt>
      <trkpt lat="50.78074" lon="2.69066">
        <ele>56</ele>
        <time>2026-03-02T13:44:01+00:00</time>
      </trkpt>
      <trkpt lat="50.78052" lon="2.69021">
        <ele>56</ele>
        <time>2026-03-02T13:44:04+00:00</time>
      </trkpt>
      <trkpt lat="50.78056" lon="2.6898">
        <ele>57</ele>
        <time>2026-03-02T13:44:07+00:00</time>
      </trkpt>
      <trkpt lat="50.78062" lon="2.68917">
        <ele>59</ele>
        <time>2026-03-02T13:44:10+00:00</time>
      </trkpt>
      <trkpt lat="50.78068" lon="2.68864">
        <ele>60</ele>
        <time>2026-03-02T13:44:13+00:00</time>
      </trkpt>
      <trkpt lat="50.78071" lon="2.68826">
        <ele>61</ele>
        <time>2026-03-02T13:44:16+00:00</time>
      </trkpt>
      <trkpt lat="50.78076" lon="2.68776">
        <ele>63</ele>
        <time>2026-03-02T13:44:19+00:00</time>
      </trkpt>
      <trkpt lat="50.78077" lon="2.68736">
        <ele>65</ele>
        <time>2026-03-02T13:44:22+00:00</time>
      </trkpt>
      <trkpt lat="50.78078" lon="2.6868">
        <ele>65</ele>
        <time>2026-03-02T13:44:25+00:00</time>
      </trkpt>
      <trkpt lat="50.78079" lon="2.68645">
        <ele>65</ele>
        <time>2026-03-02T13:44:28+00:00</time>
      </trkpt>
      <trkpt lat="50.7808" lon="2.68609">
        <ele>66</ele>
        <time>2026-03-02T13:44:31+00:00</time>
      </trkpt>
      <trkpt lat="50.78075" lon="2.68555">
        <ele>68</ele>
        <time>2026-03-02T13:44:34+00:00</time>
      </trkpt>
      <trkpt lat="50.78071" lon="2.68516">
        <ele>68</ele>
        <time>2026-03-02T13:44:37+00:00</time>
      </trkpt>
      <trkpt lat="50.78065" lon="2.68459">
        <ele>71</ele>
        <time>2026-03-02T13:44:40+00:00</time>
      </trkpt>
      <trkpt lat="50.78061" lon="2.68418">
        <ele>72</ele>
        <time>2026-03-02T13:44:43+00:00</time>
      </trkpt>
      <trkpt lat="50.78056" lon="2.68354">
        <ele>75</ele>
        <time>2026-03-02T13:44:46+00:00</time>
      </trkpt>
      <trkpt lat="50.78051" lon="2.68307">
        <ele>76</ele>
        <time>2026-03-02T13:44:49+00:00</time>
      </trkpt>
      <trkpt lat="50.78048" lon="2.68267">
        <ele>78</ele>
        <time>2026-03-02T13:44:52+00:00</time>
      </trkpt>
      <trkpt lat="50.78043" lon="2.68207">
        <ele>81</ele>
        <time>2026-03-02T13:44:55+00:00</time>
      </trkpt>
      <trkpt lat="50.7804" lon="2.68168">
        <ele>82</ele>
        <time>2026-03-02T13:44:58+00:00</time>
      </trkpt>
      <trkpt lat="50.78036" lon="2.68112">
        <ele>85</ele>
        <time>2026-03-02T13:45:01+00:00</time>
      </trkpt>
      <trkpt lat="50.78033" lon="2.68064">
        <ele>87</ele>
        <time>2026-03-02T13:45:04+00:00</time>
      </trkpt>
      <trkpt lat="50.78061" lon="2.6806">
        <ele>87</ele>
        <time>2026-03-02T13:45:07+00:00</time>
      </trkpt>
      <trkpt lat="50.7809" lon="2.68056">
        <ele>84</ele>
        <time>2026-03-02T13:45:10+00:00</time>
      </trkpt>
      <trkpt lat="50.78118" lon="2.68052">
        <ele>79</ele>
        <time>2026-03-02T13:45:13+00:00</time>
      </trkpt>
      <trkpt lat="50.78141" lon="2.68058">
        <ele>79</ele>
        <time>2026-03-02T13:45:16+00:00</time>
      </trkpt>
      <trkpt lat="50.78167" lon="2.68065">
        <ele>80</ele>
        <time>2026-03-02T13:45:19+00:00</time>
      </trkpt>
      <trkpt lat="50.78198" lon="2.68048">
        <ele>84</ele>
        <time>2026-03-02T13:45:22+00:00</time>
      </trkpt>
      <trkpt lat="50.78225" lon="2.68045">
        <ele>87</ele>
        <time>2026-03-02T13:45:25+00:00</time>
      </trkpt>
      <trkpt lat="50.78269" lon="2.68039">
        <ele>88</ele>
        <time>2026-03-02T13:45:28+00:00</time>
      </trkpt>
      <trkpt lat="50.78274" lon="2.68009">
        <ele>89</ele>
        <time>2026-03-02T13:45:31+00:00</time>
      </trkpt>
      <trkpt lat="50.78306" lon="2.67978">
        <ele>91</ele>
        <time>2026-03-02T13:45:34+00:00</time>
      </trkpt>
      <trkpt lat="50.78331" lon="2.67953">
        <ele>97</ele>
        <time>2026-03-02T13:45:37+00:00</time>
      </trkpt>
      <trkpt lat="50.78357" lon="2.67927">
        <ele>100</ele>
        <time>2026-03-02T13:45:40+00:00</time>
      </trkpt>
      <trkpt lat="50.78392" lon="2.67892">
        <ele>100</ele>
        <time>2026-03-02T13:45:43+00:00</time>
      </trkpt>
      <trkpt lat="50.78411" lon="2.67874">
        <ele>100</ele>
        <time>2026-03-02T13:45:46+00:00</time>
      </trkpt>
      <trkpt lat="50.78433" lon="2.67853">
        <ele>100</ele>
        <time>2026-03-02T13:45:49+00:00</time>
      </trkpt>
      <trkpt lat="50.78455" lon="2.67831">
        <ele>100</ele>
        <time>2026-03-02T13:45:52+00:00</time>
      </trkpt>
      <trkpt lat="50.78488" lon="2.67797">
        <ele>99</ele>
        <time>2026-03-02T13:45:55+00:00</time>
      </trkpt>
      <trkpt lat="50.78509" lon="2.67777">
        <ele>98</ele>
        <time>2026-03-02T13:45:58+00:00</time>
      </trkpt>
      <trkpt lat="50.78537" lon="2.6775">
        <ele>97</ele>
        <time>2026-03-02T13:46:01+00:00</time>
      </trkpt>
      <trkpt lat="50.78543" lon="2.67712">
        <ele>97</ele>
        <time>2026-03-02T13:46:04+00:00</time>
      </trkpt>
      <trkpt lat="50.78551" lon="2.67662">
        <ele>98</ele>
        <time>2026-03-02T13:46:07+00:00</time>
      </trkpt>
      <trkpt lat="50.78558" lon="2.67622">
        <ele>98</ele>
        <time>2026-03-02T13:46:10+00:00</time>
      </trkpt>
      <trkpt lat="50.78567" lon="2.6756">
        <ele>98</ele>
        <time>2026-03-02T13:46:13+00:00</time>
      </trkpt>
      <trkpt lat="50.78581" lon="2.67524">
        <ele>99</ele>
        <time>2026-03-02T13:46:16+00:00</time>
      </trkpt>
      <trkpt lat="50.78603" lon="2.67467">
        <ele>101</ele>
        <time>2026-03-02T13:46:19+00:00</time>
      </trkpt>
      <trkpt lat="50.78608" lon="2.67424">
        <ele>103</ele>
        <time>2026-03-02T13:46:22+00:00</time>
      </trkpt>
      <trkpt lat="50.78611" lon="2.67389">
        <ele>104</ele>
        <time>2026-03-02T13:46:25+00:00</time>
      </trkpt>
      <trkpt lat="50.78615" lon="2.6735">
        <ele>105</ele>
        <time>2026-03-02T13:46:28+00:00</time>
      </trkpt>
      <trkpt lat="50.7861" lon="2.67319">
        <ele>106</ele>
        <time>2026-03-02T13:46:31+00:00</time>
      </trkpt>
      <trkpt lat="50.78582" lon="2.67302">
        <ele>108</ele>
        <time>2026-03-02T13:46:34+00:00</time>
      </trkpt>
      <trkpt lat="50.78554" lon="2.67284">
        <ele>111</ele>
        <time>2026-03-02T13:46:37+00:00</time>
      </trkpt>
      <trkpt lat="50.78517" lon="2.67262">
        <ele>117</ele>
        <time>2026-03-02T13:46:40+00:00</time>
      </trkpt>
      <trkpt lat="50.78487" lon="2.67252">
        <ele>122</ele>
        <time>2026-03-02T13:46:43+00:00</time>
      </trkpt>
      <trkpt lat="50.78449" lon="2.67251">
        <ele>127</ele>
        <time>2026-03-02T13:46:46+00:00</time>
      </trkpt>
      <trkpt lat="50.78423" lon="2.67244">
        <ele>130</ele>
        <time>2026-03-02T13:46:49+00:00</time>
      </trkpt>
      <trkpt lat="50.78404" lon="2.67226">
        <ele>133</ele>
        <time>2026-03-02T13:46:52+00:00</time>
      </trkpt>
      <trkpt lat="50.78384" lon="2.67207">
        <ele>136</ele>
        <time>2026-03-02T13:46:55+00:00</time>
      </trkpt>
      <trkpt lat="50.78363" lon="2.67174">
        <ele>142</ele>
        <time>2026-03-02T13:46:58+00:00</time>
      </trkpt>
      <trkpt lat="50.78328" lon="2.67144">
        <ele>147</ele>
        <time>2026-03-02T13:47:01+00:00</time>
      </trkpt>
      <trkpt lat="50.78306" lon="2.67127">
        <ele>151</ele>
        <time>2026-03-02T13:47:04+00:00</time>
      </trkpt>
      <trkpt lat="50.78278" lon="2.67104">
        <ele>152</ele>
        <time>2026-03-02T13:47:07+00:00</time>
      </trkpt>
      <trkpt lat="50.78307" lon="2.67104">
        <ele>153</ele>
        <time>2026-03-02T13:47:10+00:00</time>
      </trkpt>
      <trkpt lat="50.78337" lon="2.67105">
        <ele>153</ele>
        <time>2026-03-02T13:47:13+00:00</time>
      </trkpt>
      <trkpt lat="50.78372" lon="2.67105">
        <ele>153</ele>
        <time>2026-03-02T13:47:16+00:00</time>
      </trkpt>
      <trkpt lat="50.78373" lon="2.67064">
        <ele>154</ele>
        <time>2026-03-02T13:47:19+00:00</time>
      </trkpt>
      <trkpt lat="50.78378" lon="2.67024">
        <ele>156</ele>
        <time>2026-03-02T13:47:22+00:00</time>
      </trkpt>
      <trkpt lat="50.78385" lon="2.66966">
        <ele>157</ele>
        <time>2026-03-02T13:47:25+00:00</time>
      </trkpt>
      <trkpt lat="50.78389" lon="2.66927">
        <ele>159</ele>
        <time>2026-03-02T13:47:28+00:00</time>
      </trkpt>
      <trkpt lat="50.78396" lon="2.66871">
        <ele>159</ele>
        <time>2026-03-02T13:47:31+00:00</time>
      </trkpt>
      <trkpt lat="50.78407" lon="2.66835">
        <ele>159</ele>
        <time>2026-03-02T13:47:34+00:00</time>
      </trkpt>
      <trkpt lat="50.78422" lon="2.66782">
        <ele>159</ele>
        <time>2026-03-02T13:47:37+00:00</time>
      </trkpt>
      <trkpt lat="50.78437" lon="2.66735">
        <ele>159</ele>
        <time>2026-03-02T13:47:40+00:00</time>
      </trkpt>
      <trkpt lat="50.78449" lon="2.66695">
        <ele>159</ele>
        <time>2026-03-02T13:47:43+00:00</time>
      </trkpt>
      <trkpt lat="50.78471" lon="2.66622">
        <ele>158</ele>
        <time>2026-03-02T13:47:46+00:00</time>
      </trkpt>
      <trkpt lat="50.78497" lon="2.66618">
        <ele>158</ele>
        <time>2026-03-02T13:47:49+00:00</time>
      </trkpt>
      <trkpt lat="50.78536" lon="2.66613">
        <ele>157</ele>
        <time>2026-03-02T13:47:52+00:00</time>
      </trkpt>
      <trkpt lat="50.78562" lon="2.66619">
        <ele>155</ele>
        <time>2026-03-02T13:47:55+00:00</time>
      </trkpt>
      <trkpt lat="50.78593" lon="2.66631">
        <ele>154</ele>
        <time>2026-03-02T13:47:58+00:00</time>
      </trkpt>
      <trkpt lat="50.78592" lon="2.66689">
        <ele>145</ele>
        <time>2026-03-02T13:48:01+00:00</time>
      </trkpt>
      <trkpt lat="50.78579" lon="2.66703">
        <ele>142</ele>
        <time>2026-03-02T13:48:04+00:00</time>
      </trkpt>
      <trkpt lat="50.78589" lon="2.6672">
        <ele>140</ele>
        <time>2026-03-02T13:48:07+00:00</time>
      </trkpt>
      <trkpt lat="50.786" lon="2.66739">
        <ele>139</ele>
        <time>2026-03-02T13:48:10+00:00</time>
      </trkpt>
      <trkpt lat="50.78603" lon="2.66769">
        <ele>135</ele>
        <time>2026-03-02T13:48:13+00:00</time>
      </trkpt>
      <trkpt lat="50.78587" lon="2.66799">
        <ele>132</ele>
        <time>2026-03-02T13:48:16+00:00</time>
      </trkpt>
      <trkpt lat="50.78579" lon="2.6683">
        <ele>129</ele>
        <time>2026-03-02T13:48:19+00:00</time>
      </trkpt>
      <trkpt lat="50.78595" lon="2.6684">
        <ele>126</ele>
        <time>2026-03-02T13:48:22+00:00</time>
      </trkpt>
      <trkpt lat="50.78605" lon="2.66863">
        <ele>121</ele>
        <time>2026-03-02T13:48:25+00:00</time>
      </trkpt>
      <trkpt lat="50.7862" lon="2.66879">
        <ele>121</ele>
        <time>2026-03-02T13:48:28+00:00</time>
      </trkpt>
      <trkpt lat="50.78629" lon="2.66902">
        <ele>121</ele>
        <time>2026-03-02T13:48:31+00:00</time>
      </trkpt>
      <trkpt lat="50.78642" lon="2.66922">
        <ele>125</ele>
        <time>2026-03-02T13:48:34+00:00</time>
      </trkpt>
      <trkpt lat="50.78675" lon="2.66913">
        <ele>125</ele>
        <time>2026-03-02T13:48:37+00:00</time>
      </trkpt>
      <trkpt lat="50.78686" lon="2.66952">
        <ele>125</ele>
        <time>2026-03-02T13:48:40+00:00</time>
      </trkpt>
      <trkpt lat="50.78705" lon="2.67019">
        <ele>122</ele>
        <time>2026-03-02T13:48:43+00:00</time>
      </trkpt>
      <trkpt lat="50.78716" lon="2.67071">
        <ele>119</ele>
        <time>2026-03-02T13:48:46+00:00</time>
      </trkpt>
      <trkpt lat="50.78728" lon="2.67124">
        <ele>117</ele>
        <time>2026-03-02T13:48:49+00:00</time>
      </trkpt>
      <trkpt lat="50.78738" lon="2.67171">
        <ele>115</ele>
        <time>2026-03-02T13:48:52+00:00</time>
      </trkpt>
      <trkpt lat="50.78748" lon="2.67218">
        <ele>114</ele>
        <time>2026-03-02T13:48:55+00:00</time>
      </trkpt>
      <trkpt lat="50.78767" lon="2.67306">
        <ele>112</ele>
        <time>2026-03-02T13:48:58+00:00</time>
      </trkpt>
      <trkpt lat="50.78781" lon="2.67347">
        <ele>112</ele>
        <time>2026-03-02T13:49:01+00:00</time>
      </trkpt>
      <trkpt lat="50.78794" lon="2.67389">
        <ele>111</ele>
        <time>2026-03-02T13:49:04+00:00</time>
      </trkpt>
      <trkpt lat="50.78812" lon="2.67444">
        <ele>110</ele>
        <time>2026-03-02T13:49:07+00:00</time>
      </trkpt>
      <trkpt lat="50.78838" lon="2.67479">
        <ele>108</ele>
        <time>2026-03-02T13:49:10+00:00</time>
      </trkpt>
      <trkpt lat="50.78869" lon="2.67469">
        <ele>107</ele>
        <time>2026-03-02T13:49:13+00:00</time>
      </trkpt>
      <trkpt lat="50.78892" lon="2.6746">
        <ele>107</ele>
        <time>2026-03-02T13:49:16+00:00</time>
      </trkpt>
      <trkpt lat="50.78917" lon="2.67451">
        <ele>108</ele>
        <time>2026-03-02T13:49:19+00:00</time>
      </trkpt>
      <trkpt lat="50.78955" lon="2.67438">
        <ele>112</ele>
        <time>2026-03-02T13:49:22+00:00</time>
      </trkpt>
      <trkpt lat="50.78981" lon="2.67423">
        <ele>115</ele>
        <time>2026-03-02T13:49:25+00:00</time>
      </trkpt>
      <trkpt lat="50.79003" lon="2.67411">
        <ele>114</ele>
        <time>2026-03-02T13:49:28+00:00</time>
      </trkpt>
      <trkpt lat="50.79029" lon="2.67397">
        <ele>114</ele>
        <time>2026-03-02T13:49:31+00:00</time>
      </trkpt>
      <trkpt lat="50.79057" lon="2.67407">
        <ele>116</ele>
        <time>2026-03-02T13:49:34+00:00</time>
      </trkpt>
      <trkpt lat="50.79111" lon="2.67427">
        <ele>117</ele>
        <time>2026-03-02T13:49:37+00:00</time>
      </trkpt>
      <trkpt lat="50.79136" lon="2.67437">
        <ele>117</ele>
        <time>2026-03-02T13:49:40+00:00</time>
      </trkpt>
      <trkpt lat="50.79144" lon="2.67483">
        <ele>121</ele>
        <time>2026-03-02T13:49:43+00:00</time>
      </trkpt>
      <trkpt lat="50.79152" lon="2.6753">
        <ele>123</ele>
        <time>2026-03-02T13:49:46+00:00</time>
      </trkpt>
      <trkpt lat="50.79163" lon="2.67597">
        <ele>125</ele>
        <time>2026-03-02T13:49:49+00:00</time>
      </trkpt>
      <trkpt lat="50.7917" lon="2.67631">
        <ele>126</ele>
        <time>2026-03-02T13:49:52+00:00</time>
      </trkpt>
      <trkpt lat="50.79177" lon="2.67669">
        <ele>127</ele>
        <time>2026-03-02T13:49:55+00:00</time>
      </trkpt>
      <trkpt lat="50.79185" lon="2.67713">
        <ele>128</ele>
        <time>2026-03-02T13:49:58+00:00</time>
      </trkpt>
      <trkpt lat="50.79186" lon="2.67753">
        <ele>129</ele>
        <time>2026-03-02T13:50:01+00:00</time>
      </trkpt>
      <trkpt lat="50.79189" lon="2.67815">
        <ele>130</ele>
        <time>2026-03-02T13:50:04+00:00</time>
      </trkpt>
      <trkpt lat="50.79219" lon="2.67831">
        <ele>130</ele>
        <time>2026-03-02T13:50:07+00:00</time>
      </trkpt>
      <trkpt lat="50.79241" lon="2.67821">
        <ele>128</ele>
        <time>2026-03-02T13:50:10+00:00</time>
      </trkpt>
      <trkpt lat="50.79265" lon="2.6781">
        <ele>125</ele>
        <time>2026-03-02T13:50:13+00:00</time>
      </trkpt>
      <trkpt lat="50.79289" lon="2.67789">
        <ele>123</ele>
        <time>2026-03-02T13:50:16+00:00</time>
      </trkpt>
      <trkpt lat="50.79316" lon="2.67773">
        <ele>122</ele>
        <time>2026-03-02T13:50:19+00:00</time>
      </trkpt>
      <trkpt lat="50.79339" lon="2.67753">
        <ele>120</ele>
        <time>2026-03-02T13:50:22+00:00</time>
      </trkpt>
      <trkpt lat="50.79375" lon="2.67723">
        <ele>114</ele>
        <time>2026-03-02T13:50:25+00:00</time>
      </trkpt>
      <trkpt lat="50.79396" lon="2.67716">
        <ele>112</ele>
        <time>2026-03-02T13:50:28+00:00</time>
      </trkpt>
      <trkpt lat="50.79417" lon="2.67708">
        <ele>111</ele>
        <time>2026-03-02T13:50:31+00:00</time>
      </trkpt>
      <trkpt lat="50.79454" lon="2.67701">
        <ele>107</ele>
        <time>2026-03-02T13:50:34+00:00</time>
      </trkpt>
      <trkpt lat="50.79485" lon="2.67676">
        <ele>102</ele>
        <time>2026-03-02T13:50:37+00:00</time>
      </trkpt>
      <trkpt lat="50.79517" lon="2.67654">
        <ele>99</ele>
        <time>2026-03-02T13:50:40+00:00</time>
      </trkpt>
      <trkpt lat="50.7955" lon="2.67632">
        <ele>96</ele>
        <time>2026-03-02T13:50:43+00:00</time>
      </trkpt>
      <trkpt lat="50.79578" lon="2.67617">
        <ele>93</ele>
        <time>2026-03-02T13:50:46+00:00</time>
      </trkpt>
      <trkpt lat="50.79606" lon="2.67603">
        <ele>90</ele>
        <time>2026-03-02T13:50:49+00:00</time>
      </trkpt>
      <trkpt lat="50.79641" lon="2.67586">
        <ele>86</ele>
        <time>2026-03-02T13:50:52+00:00</time>
      </trkpt>
      <trkpt lat="50.7967" lon="2.67552">
        <ele>84</ele>
        <time>2026-03-02T13:50:55+00:00</time>
      </trkpt>
      <trkpt lat="50.79684" lon="2.67522">
        <ele>82</ele>
        <time>2026-03-02T13:50:58+00:00</time>
      </trkpt>
      <trkpt lat="50.79702" lon="2.67485">
        <ele>79</ele>
        <time>2026-03-02T13:51:01+00:00</time>
      </trkpt>
      <trkpt lat="50.79736" lon="2.67445">
        <ele>76</ele>
        <time>2026-03-02T13:51:04+00:00</time>
      </trkpt>
      <trkpt lat="50.79755" lon="2.67426">
        <ele>74</ele>
        <time>2026-03-02T13:51:07+00:00</time>
      </trkpt>
      <trkpt lat="50.79774" lon="2.67409">
        <ele>73</ele>
        <time>2026-03-02T13:51:10+00:00</time>
      </trkpt>
      <trkpt lat="50.79794" lon="2.67392">
        <ele>72</ele>
        <time>2026-03-02T13:51:13+00:00</time>
      </trkpt>
      <trkpt lat="50.79815" lon="2.67356">
        <ele>69</ele>
        <time>2026-03-02T13:51:16+00:00</time>
      </trkpt>
      <trkpt lat="50.79832" lon="2.67336">
        <ele>67</ele>
        <time>2026-03-02T13:51:19+00:00</time>
      </trkpt>
      <trkpt lat="50.7985" lon="2.67316">
        <ele>66</ele>
        <time>2026-03-02T13:51:22+00:00</time>
      </trkpt>
      <trkpt lat="50.79872" lon="2.67294">
        <ele>64</ele>
        <time>2026-03-02T13:51:25+00:00</time>
      </trkpt>
      <trkpt lat="50.79907" lon="2.67258">
        <ele>62</ele>
        <time>2026-03-02T13:51:28+00:00</time>
      </trkpt>
      <trkpt lat="50.79933" lon="2.67228">
        <ele>59</ele>
        <time>2026-03-02T13:51:31+00:00</time>
      </trkpt>
      <trkpt lat="50.79966" lon="2.672">
        <ele>57</ele>
        <time>2026-03-02T13:51:34+00:00</time>
      </trkpt>
      <trkpt lat="50.79987" lon="2.67184">
        <ele>56</ele>
        <time>2026-03-02T13:51:37+00:00</time>
      </trkpt>
      <trkpt lat="50.80012" lon="2.67165">
        <ele>54</ele>
        <time>2026-03-02T13:51:40+00:00</time>
      </trkpt>
      <trkpt lat="50.80043" lon="2.67137">
        <ele>53</ele>
        <time>2026-03-02T13:51:43+00:00</time>
      </trkpt>
      <trkpt lat="50.80063" lon="2.67121">
        <ele>52</ele>
        <time>2026-03-02T13:51:46+00:00</time>
      </trkpt>
      <trkpt lat="50.80084" lon="2.67104">
        <ele>51</ele>
        <time>2026-03-02T13:51:49+00:00</time>
      </trkpt>
      <trkpt lat="50.80104" lon="2.67092">
        <ele>50</ele>
        <time>2026-03-02T13:51:52+00:00</time>
      </trkpt>
      <trkpt lat="50.80126" lon="2.6708">
        <ele>49</ele>
        <time>2026-03-02T13:51:55+00:00</time>
      </trkpt>
      <trkpt lat="50.80147" lon="2.67066">
        <ele>49</ele>
        <time>2026-03-02T13:51:58+00:00</time>
      </trkpt>
      <trkpt lat="50.80173" lon="2.6705">
        <ele>47</ele>
        <time>2026-03-02T13:52:01+00:00</time>
      </trkpt>
      <trkpt lat="50.80194" lon="2.67039">
        <ele>46</ele>
        <time>2026-03-02T13:52:04+00:00</time>
      </trkpt>
      <trkpt lat="50.80217" lon="2.67027">
        <ele>46</ele>
        <time>2026-03-02T13:52:07+00:00</time>
      </trkpt>
      <trkpt lat="50.80245" lon="2.67026">
        <ele>46</ele>
        <time>2026-03-02T13:52:10+00:00</time>
      </trkpt>
      <trkpt lat="50.80239" lon="2.67058">
        <ele>46</ele>
        <time>2026-03-02T13:52:13+00:00</time>
      </trkpt>
      <trkpt lat="50.80233" lon="2.67091">
        <ele>46</ele>
        <time>2026-03-02T13:52:16+00:00</time>
      </trkpt>
      <trkpt lat="50.80225" lon="2.67125">
        <ele>46</ele>
        <time>2026-03-02T13:52:19+00:00</time>
      </trkpt>
      <trkpt lat="50.80216" lon="2.67166">
        <ele>47</ele>
        <time>2026-03-02T13:52:22+00:00</time>
      </trkpt>
      <trkpt lat="50.80209" lon="2.67201">
        <ele>47</ele>
        <time>2026-03-02T13:52:25+00:00</time>
      </trkpt>
      <trkpt lat="50.802" lon="2.67244">
        <ele>48</ele>
        <time>2026-03-02T13:52:28+00:00</time>
      </trkpt>
      <trkpt lat="50.80192" lon="2.67278">
        <ele>49</ele>
        <time>2026-03-02T13:52:31+00:00</time>
      </trkpt>
      <trkpt lat="50.80182" lon="2.67318">
        <ele>50</ele>
        <time>2026-03-02T13:52:34+00:00</time>
      </trkpt>
      <trkpt lat="50.80157" lon="2.67369">
        <ele>51</ele>
        <time>2026-03-02T13:52:37+00:00</time>
      </trkpt>
      <trkpt lat="50.80144" lon="2.67398">
        <ele>51</ele>
        <time>2026-03-02T13:52:40+00:00</time>
      </trkpt>
      <trkpt lat="50.80131" lon="2.6743">
        <ele>52</ele>
        <time>2026-03-02T13:52:43+00:00</time>
      </trkpt>
      <trkpt lat="50.80114" lon="2.67478">
        <ele>53</ele>
        <time>2026-03-02T13:52:46+00:00</time>
      </trkpt>
      <trkpt lat="50.801" lon="2.67512">
        <ele>54</ele>
        <time>2026-03-02T13:52:49+00:00</time>
      </trkpt>
      <trkpt lat="50.80079" lon="2.67566">
        <ele>56</ele>
        <time>2026-03-02T13:52:52+00:00</time>
      </trkpt>
      <trkpt lat="50.80044" lon="2.67581">
        <ele>60</ele>
        <time>2026-03-02T13:52:55+00:00</time>
      </trkpt>
      <trkpt lat="50.80023" lon="2.6758">
        <ele>61</ele>
        <time>2026-03-02T13:52:58+00:00</time>
      </trkpt>
      <trkpt lat="50.80001" lon="2.67579">
        <ele>62</ele>
        <time>2026-03-02T13:53:01+00:00</time>
      </trkpt>
      <trkpt lat="50.79962" lon="2.676">
        <ele>65</ele>
        <time>2026-03-02T13:53:04+00:00</time>
      </trkpt>
      <trkpt lat="50.79941" lon="2.67618">
        <ele>66</ele>
        <time>2026-03-02T13:53:07+00:00</time>
      </trkpt>
      <trkpt lat="50.79913" lon="2.67641">
        <ele>69</ele>
        <time>2026-03-02T13:53:10+00:00</time>
      </trkpt>
      <trkpt lat="50.7989" lon="2.67656">
        <ele>71</ele>
        <time>2026-03-02T13:53:13+00:00</time>
      </trkpt>
      <trkpt lat="50.7986" lon="2.67677">
        <ele>74</ele>
        <time>2026-03-02T13:53:16+00:00</time>
      </trkpt>
      <trkpt lat="50.79824" lon="2.67669">
        <ele>76</ele>
        <time>2026-03-02T13:53:19+00:00</time>
      </trkpt>
      <trkpt lat="50.79803" lon="2.6766">
        <ele>77</ele>
        <time>2026-03-02T13:53:22+00:00</time>
      </trkpt>
      <trkpt lat="50.7978" lon="2.67652">
        <ele>80</ele>
        <time>2026-03-02T13:53:25+00:00</time>
      </trkpt>
      <trkpt lat="50.79791" lon="2.67691">
        <ele>80</ele>
        <time>2026-03-02T13:53:28+00:00</time>
      </trkpt>
      <trkpt lat="50.798" lon="2.67726">
        <ele>80</ele>
        <time>2026-03-02T13:53:31+00:00</time>
      </trkpt>
      <trkpt lat="50.79816" lon="2.67769">
        <ele>77</ele>
        <time>2026-03-02T13:53:34+00:00</time>
      </trkpt>
      <trkpt lat="50.79833" lon="2.67812">
        <ele>75</ele>
        <time>2026-03-02T13:53:37+00:00</time>
      </trkpt>
      <trkpt lat="50.79845" lon="2.67845">
        <ele>74</ele>
        <time>2026-03-02T13:53:40+00:00</time>
      </trkpt>
      <trkpt lat="50.79861" lon="2.67888">
        <ele>71</ele>
        <time>2026-03-02T13:53:43+00:00</time>
      </trkpt>
      <trkpt lat="50.79867" lon="2.67932">
        <ele>70</ele>
        <time>2026-03-02T13:53:46+00:00</time>
      </trkpt>
      <trkpt lat="50.79874" lon="2.67976">
        <ele>68</ele>
        <time>2026-03-02T13:53:49+00:00</time>
      </trkpt>
      <trkpt lat="50.7988" lon="2.6802">
        <ele>68</ele>
        <time>2026-03-02T13:53:52+00:00</time>
      </trkpt>
      <trkpt lat="50.79887" lon="2.68063">
        <ele>65</ele>
        <time>2026-03-02T13:53:55+00:00</time>
      </trkpt>
      <trkpt lat="50.79896" lon="2.68095">
        <ele>64</ele>
        <time>2026-03-02T13:53:58+00:00</time>
      </trkpt>
      <trkpt lat="50.79907" lon="2.68132">
        <ele>62</ele>
        <time>2026-03-02T13:54:01+00:00</time>
      </trkpt>
      <trkpt lat="50.79917" lon="2.68163">
        <ele>61</ele>
        <time>2026-03-02T13:54:04+00:00</time>
      </trkpt>
      <trkpt lat="50.79931" lon="2.68204">
        <ele>60</ele>
        <time>2026-03-02T13:54:07+00:00</time>
      </trkpt>
      <trkpt lat="50.79944" lon="2.6824">
        <ele>59</ele>
        <time>2026-03-02T13:54:10+00:00</time>
      </trkpt>
      <trkpt lat="50.79965" lon="2.683">
        <ele>57</ele>
        <time>2026-03-02T13:54:13+00:00</time>
      </trkpt>
      <trkpt lat="50.79977" lon="2.6834">
        <ele>56</ele>
        <time>2026-03-02T13:54:16+00:00</time>
      </trkpt>
      <trkpt lat="50.79999" lon="2.68415">
        <ele>53</ele>
        <time>2026-03-02T13:54:19+00:00</time>
      </trkpt>
      <trkpt lat="50.80005" lon="2.68468">
        <ele>53</ele>
        <time>2026-03-02T13:54:22+00:00</time>
      </trkpt>
      <trkpt lat="50.8001" lon="2.68521">
        <ele>54</ele>
        <time>2026-03-02T13:54:25+00:00</time>
      </trkpt>
      <trkpt lat="50.80015" lon="2.68567">
        <ele>56</ele>
        <time>2026-03-02T13:54:28+00:00</time>
      </trkpt>
      <trkpt lat="50.8002" lon="2.68614">
        <ele>59</ele>
        <time>2026-03-02T13:54:31+00:00</time>
      </trkpt>
      <trkpt lat="50.80027" lon="2.68674">
        <ele>63</ele>
        <time>2026-03-02T13:54:34+00:00</time>
      </trkpt>
      <trkpt lat="50.80034" lon="2.68732">
        <ele>66</ele>
        <time>2026-03-02T13:54:37+00:00</time>
      </trkpt>
      <trkpt lat="50.80041" lon="2.68764">
        <ele>67</ele>
        <time>2026-03-02T13:54:40+00:00</time>
      </trkpt>
      <trkpt lat="50.80048" lon="2.68799">
        <ele>67</ele>
        <time>2026-03-02T13:54:43+00:00</time>
      </trkpt>
      <trkpt lat="50.80067" lon="2.68763">
        <ele>68</ele>
        <time>2026-03-02T13:54:46+00:00</time>
      </trkpt>
      <trkpt lat="50.80087" lon="2.68728">
        <ele>70</ele>
        <time>2026-03-02T13:54:49+00:00</time>
      </trkpt>
      <trkpt lat="50.80112" lon="2.6868">
        <ele>72</ele>
        <time>2026-03-02T13:54:52+00:00</time>
      </trkpt>
      <trkpt lat="50.80135" lon="2.68679">
        <ele>72</ele>
        <time>2026-03-02T13:54:55+00:00</time>
      </trkpt>
      <trkpt lat="50.80162" lon="2.68677">
        <ele>72</ele>
        <time>2026-03-02T13:54:58+00:00</time>
      </trkpt>
      <trkpt lat="50.80173" lon="2.68647">
        <ele>72</ele>
        <time>2026-03-02T13:55:01+00:00</time>
      </trkpt>
      <trkpt lat="50.80175" lon="2.68606">
        <ele>72</ele>
        <time>2026-03-02T13:55:04+00:00</time>
      </trkpt>
      <trkpt lat="50.80154" lon="2.68595">
        <ele>72</ele>
        <time>2026-03-02T13:55:07+00:00</time>
      </trkpt>
      <trkpt lat="50.80133" lon="2.68585">
        <ele>72</ele>
        <time>2026-03-02T13:55:10+00:00</time>
      </trkpt>
      <trkpt lat="50.80107" lon="2.68602">
        <ele>72</ele>
        <time>2026-03-02T13:55:13+00:00</time>
      </trkpt>
      <trkpt lat="50.80101" lon="2.68637">
        <ele>72</ele>
        <time>2026-03-02T13:55:16+00:00</time>
      </trkpt>
      <trkpt lat="50.80093" lon="2.68678">
        <ele>71</ele>
        <time>2026-03-02T13:55:19+00:00</time>
      </trkpt>
      <trkpt lat="50.80095" lon="2.68713">
        <ele>71</ele>
        <time>2026-03-02T13:55:22+00:00</time>
      </trkpt>
      <trkpt lat="50.80077" lon="2.68745">
        <ele>69</ele>
        <time>2026-03-02T13:55:25+00:00</time>
      </trkpt>
      <trkpt lat="50.80063" lon="2.68771">
        <ele>68</ele>
        <time>2026-03-02T13:55:28+00:00</time>
      </trkpt>
      <trkpt lat="50.80048" lon="2.68799">
        <ele>67</ele>
        <time>2026-03-02T13:55:31+00:00</time>
      </trkpt>
      <trkpt lat="50.80026" lon="2.68813">
        <ele>67</ele>
        <time>2026-03-02T13:55:34+00:00</time>
      </trkpt>
      <trkpt lat="50.79999" lon="2.6883">
        <ele>67</ele>
        <time>2026-03-02T13:55:37+00:00</time>
      </trkpt>
      <trkpt lat="50.79989" lon="2.68866">
        <ele>71</ele>
        <time>2026-03-02T13:55:40+00:00</time>
      </trkpt>
      <trkpt lat="50.79975" lon="2.68915">
        <ele>73</ele>
        <time>2026-03-02T13:55:43+00:00</time>
      </trkpt>
      <trkpt lat="50.79956" lon="2.68889">
        <ele>76</ele>
        <time>2026-03-02T13:55:46+00:00</time>
      </trkpt>
      <trkpt lat="50.79927" lon="2.68888">
        <ele>77</ele>
        <time>2026-03-02T13:55:49+00:00</time>
      </trkpt>
      <trkpt lat="50.79931" lon="2.6892">
        <ele>77</ele>
        <time>2026-03-02T13:55:52+00:00</time>
      </trkpt>
      <trkpt lat="50.79908" lon="2.68903">
        <ele>79</ele>
        <time>2026-03-02T13:55:55+00:00</time>
      </trkpt>
      <trkpt lat="50.79905" lon="2.68873">
        <ele>79</ele>
        <time>2026-03-02T13:55:58+00:00</time>
      </trkpt>
      <trkpt lat="50.799" lon="2.68843">
        <ele>79</ele>
        <time>2026-03-02T13:56:01+00:00</time>
      </trkpt>
      <trkpt lat="50.79883" lon="2.68834">
        <ele>80</ele>
        <time>2026-03-02T13:56:04+00:00</time>
      </trkpt>
      <trkpt lat="50.79859" lon="2.68806">
        <ele>80</ele>
        <time>2026-03-02T13:56:07+00:00</time>
      </trkpt>
      <trkpt lat="50.79833" lon="2.68821">
        <ele>80</ele>
        <time>2026-03-02T13:56:10+00:00</time>
      </trkpt>
      <trkpt lat="50.79814" lon="2.68841">
        <ele>81</ele>
        <time>2026-03-02T13:56:13+00:00</time>
      </trkpt>
      <trkpt lat="50.79792" lon="2.68894">
        <ele>83</ele>
        <time>2026-03-02T13:56:16+00:00</time>
      </trkpt>
      <trkpt lat="50.79768" lon="2.68908">
        <ele>83</ele>
        <time>2026-03-02T13:56:19+00:00</time>
      </trkpt>
      <trkpt lat="50.79749" lon="2.68927">
        <ele>83</ele>
        <time>2026-03-02T13:56:22+00:00</time>
      </trkpt>
      <trkpt lat="50.79729" lon="2.68949">
        <ele>83</ele>
        <time>2026-03-02T13:56:25+00:00</time>
      </trkpt>
      <trkpt lat="50.79722" lon="2.68995">
        <ele>82</ele>
        <time>2026-03-02T13:56:28+00:00</time>
      </trkpt>
      <trkpt lat="50.79697" lon="2.68988">
        <ele>82</ele>
        <time>2026-03-02T13:56:31+00:00</time>
      </trkpt>
      <trkpt lat="50.79659" lon="2.68977">
        <ele>85</ele>
        <time>2026-03-02T13:56:34+00:00</time>
      </trkpt>
      <trkpt lat="50.79646" lon="2.6895">
        <ele>87</ele>
        <time>2026-03-02T13:56:37+00:00</time>
      </trkpt>
      <trkpt lat="50.79633" lon="2.68923">
        <ele>89</ele>
        <time>2026-03-02T13:56:40+00:00</time>
      </trkpt>
      <trkpt lat="50.79611" lon="2.68891">
        <ele>91</ele>
        <time>2026-03-02T13:56:43+00:00</time>
      </trkpt>
      <trkpt lat="50.79591" lon="2.68864">
        <ele>93</ele>
        <time>2026-03-02T13:56:46+00:00</time>
      </trkpt>
      <trkpt lat="50.7956" lon="2.6882">
        <ele>97</ele>
        <time>2026-03-02T13:56:49+00:00</time>
      </trkpt>
      <trkpt lat="50.79549" lon="2.68809">
        <ele>99</ele>
        <time>2026-03-02T13:56:52+00:00</time>
      </trkpt>
      <trkpt lat="50.79538" lon="2.68847">
        <ele>101</ele>
        <time>2026-03-02T13:56:55+00:00</time>
      </trkpt>
      <trkpt lat="50.79528" lon="2.68883">
        <ele>101</ele>
        <time>2026-03-02T13:56:58+00:00</time>
      </trkpt>
      <trkpt lat="50.79514" lon="2.68935">
        <ele>102</ele>
        <time>2026-03-02T13:57:01+00:00</time>
      </trkpt>
      <trkpt lat="50.79501" lon="2.68965">
        <ele>103</ele>
        <time>2026-03-02T13:57:04+00:00</time>
      </trkpt>
      <trkpt lat="50.79488" lon="2.68999">
        <ele>103</ele>
        <time>2026-03-02T13:57:07+00:00</time>
      </trkpt>
      <trkpt lat="50.79476" lon="2.69033">
        <ele>103</ele>
        <time>2026-03-02T13:57:10+00:00</time>
      </trkpt>
      <trkpt lat="50.79461" lon="2.6908">
        <ele>102</ele>
        <time>2026-03-02T13:57:13+00:00</time>
      </trkpt>
      <trkpt lat="50.79438" lon="2.6912">
        <ele>101</ele>
        <time>2026-03-02T13:57:16+00:00</time>
      </trkpt>
      <trkpt lat="50.79438" lon="2.6914">
        <ele>102</ele>
        <time>2026-03-02T13:57:19+00:00</time>
      </trkpt>
      <trkpt lat="50.79427" lon="2.6917">
        <ele>101</ele>
        <time>2026-03-02T13:57:22+00:00</time>
      </trkpt>
      <trkpt lat="50.79408" lon="2.69222">
        <ele>97</ele>
        <time>2026-03-02T13:57:25+00:00</time>
      </trkpt>
      <trkpt lat="50.79395" lon="2.69259">
        <ele>94</ele>
        <time>2026-03-02T13:57:28+00:00</time>
      </trkpt>
      <trkpt lat="50.79373" lon="2.69321">
        <ele>92</ele>
        <time>2026-03-02T13:57:31+00:00</time>
      </trkpt>
      <trkpt lat="50.79359" lon="2.69351">
        <ele>90</ele>
        <time>2026-03-02T13:57:34+00:00</time>
      </trkpt>
      <trkpt lat="50.79343" lon="2.69388">
        <ele>89</ele>
        <time>2026-03-02T13:57:37+00:00</time>
      </trkpt>
      <trkpt lat="50.79323" lon="2.69431">
        <ele>88</ele>
        <time>2026-03-02T13:57:40+00:00</time>
      </trkpt>
      <trkpt lat="50.79296" lon="2.69475">
        <ele>88</ele>
        <time>2026-03-02T13:57:43+00:00</time>
      </trkpt>
      <trkpt lat="50.7929" lon="2.69511">
        <ele>87</ele>
        <time>2026-03-02T13:57:46+00:00</time>
      </trkpt>
      <trkpt lat="50.79283" lon="2.69555">
        <ele>87</ele>
        <time>2026-03-02T13:57:49+00:00</time>
      </trkpt>
      <trkpt lat="50.79276" lon="2.69602">
        <ele>88</ele>
        <time>2026-03-02T13:57:52+00:00</time>
      </trkpt>
      <trkpt lat="50.79277" lon="2.69638">
        <ele>88</ele>
        <time>2026-03-02T13:57:55+00:00</time>
      </trkpt>
      <trkpt lat="50.79278" lon="2.69679">
        <ele>89</ele>
        <time>2026-03-02T13:57:58+00:00</time>
      </trkpt>
      <trkpt lat="50.79261" lon="2.69731">
        <ele>90</ele>
        <time>2026-03-02T13:58:01+00:00</time>
      </trkpt>
      <trkpt lat="50.79243" lon="2.6975">
        <ele>92</ele>
        <time>2026-03-02T13:58:04+00:00</time>
      </trkpt>
      <trkpt lat="50.79222" lon="2.69771">
        <ele>94</ele>
        <time>2026-03-02T13:58:07+00:00</time>
      </trkpt>
      <trkpt lat="50.79204" lon="2.69792">
        <ele>96</ele>
        <time>2026-03-02T13:58:10+00:00</time>
      </trkpt>
      <trkpt lat="50.79184" lon="2.69816">
        <ele>97</ele>
        <time>2026-03-02T13:58:13+00:00</time>
      </trkpt>
      <trkpt lat="50.79172" lon="2.69848">
        <ele>99</ele>
        <time>2026-03-02T13:58:16+00:00</time>
      </trkpt>
      <trkpt lat="50.79156" lon="2.69889">
        <ele>101</ele>
        <time>2026-03-02T13:58:19+00:00</time>
      </trkpt>
      <trkpt lat="50.79138" lon="2.69922">
        <ele>104</ele>
        <time>2026-03-02T13:58:22+00:00</time>
      </trkpt>
      <trkpt lat="50.79123" lon="2.6995">
        <ele>105</ele>
        <time>2026-03-02T13:58:25+00:00</time>
      </trkpt>
      <trkpt lat="50.79106" lon="2.69984">
        <ele>108</ele>
        <time>2026-03-02T13:58:28+00:00</time>
      </trkpt>
      <trkpt lat="50.79098" lon="2.7002">
        <ele>110</ele>
        <time>2026-03-02T13:58:31+00:00</time>
      </trkpt>
      <trkpt lat="50.79088" lon="2.70067">
        <ele>110</ele>
        <time>2026-03-02T13:58:34+00:00</time>
      </trkpt>
      <trkpt lat="50.79077" lon="2.70104">
        <ele>110</ele>
        <time>2026-03-02T13:58:37+00:00</time>
      </trkpt>
      <trkpt lat="50.79061" lon="2.70161">
        <ele>108</ele>
        <time>2026-03-02T13:58:40+00:00</time>
      </trkpt>
      <trkpt lat="50.79046" lon="2.70194">
        <ele>107</ele>
        <time>2026-03-02T13:58:43+00:00</time>
      </trkpt>
      <trkpt lat="50.79023" lon="2.70244">
        <ele>107</ele>
        <time>2026-03-02T13:58:46+00:00</time>
      </trkpt>
      <trkpt lat="50.78989" lon="2.7022">
        <ele>110</ele>
        <time>2026-03-02T13:58:49+00:00</time>
      </trkpt>
      <trkpt lat="50.78968" lon="2.70193">
        <ele>109</ele>
        <time>2026-03-02T13:58:52+00:00</time>
      </trkpt>
      <trkpt lat="50.78929" lon="2.70143">
        <ele>109</ele>
        <time>2026-03-02T13:58:55+00:00</time>
      </trkpt>
      <trkpt lat="50.78912" lon="2.70107">
        <ele>106</ele>
        <time>2026-03-02T13:58:58+00:00</time>
      </trkpt>
      <trkpt lat="50.78895" lon="2.7007">
        <ele>104</ele>
        <time>2026-03-02T13:59:01+00:00</time>
      </trkpt>
      <trkpt lat="50.78878" lon="2.70033">
        <ele>102</ele>
        <time>2026-03-02T13:59:04+00:00</time>
      </trkpt>
      <trkpt lat="50.78857" lon="2.69985">
        <ele>100</ele>
        <time>2026-03-02T13:59:07+00:00</time>
      </trkpt>
      <trkpt lat="50.78835" lon="2.69997">
        <ele>98</ele>
        <time>2026-03-02T13:59:10+00:00</time>
      </trkpt>
      <trkpt lat="50.78809" lon="2.70011">
        <ele>96</ele>
        <time>2026-03-02T13:59:13+00:00</time>
      </trkpt>
      <trkpt lat="50.78789" lon="2.70034">
        <ele>94</ele>
        <time>2026-03-02T13:59:16+00:00</time>
      </trkpt>
      <trkpt lat="50.78761" lon="2.70066">
        <ele>92</ele>
        <time>2026-03-02T13:59:19+00:00</time>
      </trkpt>
      <trkpt lat="50.78735" lon="2.70087">
        <ele>90</ele>
        <time>2026-03-02T13:59:22+00:00</time>
      </trkpt>
      <trkpt lat="50.78708" lon="2.70107">
        <ele>87</ele>
        <time>2026-03-02T13:59:25+00:00</time>
      </trkpt>
      <trkpt lat="50.78675" lon="2.70133">
        <ele>84</ele>
        <time>2026-03-02T13:59:28+00:00</time>
      </trkpt>
      <trkpt lat="50.78654" lon="2.70153">
        <ele>82</ele>
        <time>2026-03-02T13:59:31+00:00</time>
      </trkpt>
      <trkpt lat="50.78627" lon="2.70181">
        <ele>78</ele>
        <time>2026-03-02T13:59:34+00:00</time>
      </trkpt>
      <trkpt lat="50.78601" lon="2.70206">
        <ele>75</ele>
        <time>2026-03-02T13:59:37+00:00</time>
      </trkpt>
      <trkpt lat="50.78576" lon="2.70222">
        <ele>73</ele>
        <time>2026-03-02T13:59:40+00:00</time>
      </trkpt>
      <trkpt lat="50.78535" lon="2.70249">
        <ele>70</ele>
        <time>2026-03-02T13:59:43+00:00</time>
      </trkpt>
      <trkpt lat="50.78506" lon="2.70243">
        <ele>68</ele>
        <time>2026-03-02T13:59:46+00:00</time>
      </trkpt>
      <trkpt lat="50.78476" lon="2.70237">
        <ele>65</ele>
        <time>2026-03-02T13:59:49+00:00</time>
      </trkpt>
      <trkpt lat="50.7844" lon="2.70229">
        <ele>62</ele>
        <time>2026-03-02T13:59:52+00:00</time>
      </trkpt>
      <trkpt lat="50.78415" lon="2.70227">
        <ele>61</ele>
        <time>2026-03-02T13:59:55+00:00</time>
      </trkpt>
      <trkpt lat="50.78382" lon="2.70223">
        <ele>59</ele>
        <time>2026-03-02T13:59:58+00:00</time>
      </trkpt>
      <trkpt lat="50.7836" lon="2.70239">
        <ele>57</ele>
        <time>2026-03-02T14:00:01+00:00</time>
      </trkpt>
      <trkpt lat="50.78331" lon="2.70261">
        <ele>53</ele>
        <time>2026-03-02T14:00:04+00:00</time>
      </trkpt>
      <trkpt lat="50.78314" lon="2.70282">
        <ele>51</ele>
        <time>2026-03-02T14:00:07+00:00</time>
      </trkpt>
      <trkpt lat="50.78295" lon="2.70303">
        <ele>50</ele>
        <time>2026-03-02T14:00:10+00:00</time>
      </trkpt>
      <trkpt lat="50.7831" lon="2.70354">
        <ele>50</ele>
        <time>2026-03-02T14:00:13+00:00</time>
      </trkpt>
      <trkpt lat="50.78323" lon="2.704">
        <ele>51</ele>
        <time>2026-03-02T14:00:16+00:00</time>
      </trkpt>
      <trkpt lat="50.78336" lon="2.70446">
        <ele>51</ele>
        <time>2026-03-02T14:00:19+00:00</time>
      </trkpt>
      <trkpt lat="50.78361" lon="2.70537">
        <ele>49</ele>
        <time>2026-03-02T14:00:22+00:00</time>
      </trkpt>
      <trkpt lat="50.78371" lon="2.70575">
        <ele>49</ele>
        <time>2026-03-02T14:00:25+00:00</time>
      </trkpt>
      <trkpt lat="50.78379" lon="2.70618">
        <ele>49</ele>
        <time>2026-03-02T14:00:28+00:00</time>
      </trkpt>
      <trkpt lat="50.78367" lon="2.70666">
        <ele>50</ele>
        <time>2026-03-02T14:00:31+00:00</time>
      </trkpt>
      <trkpt lat="50.78365" lon="2.70703">
        <ele>52</ele>
        <time>2026-03-02T14:00:34+00:00</time>
      </trkpt>
      <trkpt lat="50.78363" lon="2.7075">
        <ele>54</ele>
        <time>2026-03-02T14:00:37+00:00</time>
      </trkpt>
      <trkpt lat="50.78363" lon="2.70794">
        <ele>58</ele>
        <time>2026-03-02T14:00:40+00:00</time>
      </trkpt>
      <trkpt lat="50.78363" lon="2.70881">
        <ele>64</ele>
        <time>2026-03-02T14:00:43+00:00</time>
      </trkpt>
      <trkpt lat="50.78369" lon="2.70919">
        <ele>66</ele>
        <time>2026-03-02T14:00:46+00:00</time>
      </trkpt>
      <trkpt lat="50.78377" lon="2.70971">
        <ele>69</ele>
        <time>2026-03-02T14:00:49+00:00</time>
      </trkpt>
      <trkpt lat="50.78388" lon="2.71003">
        <ele>70</ele>
        <time>2026-03-02T14:00:52+00:00</time>
      </trkpt>
      <trkpt lat="50.78401" lon="2.71043">
        <ele>70</ele>
        <time>2026-03-02T14:00:55+00:00</time>
      </trkpt>
      <trkpt lat="50.78406" lon="2.71083">
        <ele>71</ele>
        <time>2026-03-02T14:00:58+00:00</time>
      </trkpt>
      <trkpt lat="50.78412" lon="2.71147">
        <ele>71</ele>
        <time>2026-03-02T14:01:01+00:00</time>
      </trkpt>
      <trkpt lat="50.7842" lon="2.71181">
        <ele>71</ele>
        <time>2026-03-02T14:01:04+00:00</time>
      </trkpt>
      <trkpt lat="50.78428" lon="2.7123">
        <ele>72</ele>
        <time>2026-03-02T14:01:07+00:00</time>
      </trkpt>
      <trkpt lat="50.78436" lon="2.71279">
        <ele>74</ele>
        <time>2026-03-02T14:01:10+00:00</time>
      </trkpt>
      <trkpt lat="50.78451" lon="2.71374">
        <ele>78</ele>
        <time>2026-03-02T14:01:13+00:00</time>
      </trkpt>
      <trkpt lat="50.78465" lon="2.71405">
        <ele>79</ele>
        <time>2026-03-02T14:01:16+00:00</time>
      </trkpt>
      <trkpt lat="50.78481" lon="2.71445">
        <ele>78</ele>
        <time>2026-03-02T14:01:19+00:00</time>
      </trkpt>
      <trkpt lat="50.78469" lon="2.71474">
        <ele>77</ele>
        <time>2026-03-02T14:01:22+00:00</time>
      </trkpt>
      <trkpt lat="50.78456" lon="2.71504">
        <ele>75</ele>
        <time>2026-03-02T14:01:25+00:00</time>
      </trkpt>
      <trkpt lat="50.78446" lon="2.71537">
        <ele>74</ele>
        <time>2026-03-02T14:01:28+00:00</time>
      </trkpt>
      <trkpt lat="50.78434" lon="2.71575">
        <ele>74</ele>
        <time>2026-03-02T14:01:31+00:00</time>
      </trkpt>
      <trkpt lat="50.78424" lon="2.71612">
        <ele>74</ele>
        <time>2026-03-02T14:01:34+00:00</time>
      </trkpt>
      <trkpt lat="50.78434" lon="2.71662">
        <ele>74</ele>
        <time>2026-03-02T14:01:37+00:00</time>
      </trkpt>
      <trkpt lat="50.78444" lon="2.71709">
        <ele>76</ele>
        <time>2026-03-02T14:01:40+00:00</time>
      </trkpt>
      <trkpt lat="50.78455" lon="2.71756">
        <ele>77</ele>
        <time>2026-03-02T14:01:43+00:00</time>
      </trkpt>
      <trkpt lat="50.78463" lon="2.71793">
        <ele>78</ele>
        <time>2026-03-02T14:01:46+00:00</time>
      </trkpt>
      <trkpt lat="50.78474" lon="2.71845">
        <ele>80</ele>
        <time>2026-03-02T14:01:49+00:00</time>
      </trkpt>
      <trkpt lat="50.78458" lon="2.71875">
        <ele>81</ele>
        <time>2026-03-02T14:01:52+00:00</time>
      </trkpt>
      <trkpt lat="50.78436" lon="2.71917">
        <ele>83</ele>
        <time>2026-03-02T14:01:55+00:00</time>
      </trkpt>
      <trkpt lat="50.78412" lon="2.71964">
        <ele>85</ele>
        <time>2026-03-02T14:01:58+00:00</time>
      </trkpt>
      <trkpt lat="50.78432" lon="2.71991">
        <ele>85</ele>
        <time>2026-03-02T14:02:01+00:00</time>
      </trkpt>
      <trkpt lat="50.78462" lon="2.72032">
        <ele>85</ele>
        <time>2026-03-02T14:02:04+00:00</time>
      </trkpt>
      <trkpt lat="50.78487" lon="2.72065">
        <ele>85</ele>
        <time>2026-03-02T14:02:07+00:00</time>
      </trkpt>
      <trkpt lat="50.78503" lon="2.72088">
        <ele>84</ele>
        <time>2026-03-02T14:02:10+00:00</time>
      </trkpt>
      <trkpt lat="50.78521" lon="2.72111">
        <ele>84</ele>
        <time>2026-03-02T14:02:13+00:00</time>
      </trkpt>
      <trkpt lat="50.78521" lon="2.7217">
        <ele>84</ele>
        <time>2026-03-02T14:02:16+00:00</time>
      </trkpt>
      <trkpt lat="50.78539" lon="2.72206">
        <ele>84</ele>
        <time>2026-03-02T14:02:19+00:00</time>
      </trkpt>
      <trkpt lat="50.78557" lon="2.72242">
        <ele>84</ele>
        <time>2026-03-02T14:02:22+00:00</time>
      </trkpt>
      <trkpt lat="50.78578" lon="2.72283">
        <ele>84</ele>
        <time>2026-03-02T14:02:25+00:00</time>
      </trkpt>
      <trkpt lat="50.78593" lon="2.72308">
        <ele>83</ele>
        <time>2026-03-02T14:02:28+00:00</time>
      </trkpt>
      <trkpt lat="50.7861" lon="2.72336">
        <ele>83</ele>
        <time>2026-03-02T14:02:31+00:00</time>
      </trkpt>
      <trkpt lat="50.78636" lon="2.72377">
        <ele>82</ele>
        <time>2026-03-02T14:02:34+00:00</time>
      </trkpt>
      <trkpt lat="50.78661" lon="2.72419">
        <ele>80</ele>
        <time>2026-03-02T14:02:37+00:00</time>
      </trkpt>
      <trkpt lat="50.78677" lon="2.72443">
        <ele>80</ele>
        <time>2026-03-02T14:02:40+00:00</time>
      </trkpt>
      <trkpt lat="50.78694" lon="2.72471">
        <ele>78</ele>
        <time>2026-03-02T14:02:43+00:00</time>
      </trkpt>
      <trkpt lat="50.78718" lon="2.7251">
        <ele>77</ele>
        <time>2026-03-02T14:02:46+00:00</time>
      </trkpt>
      <trkpt lat="50.78744" lon="2.7255">
        <ele>76</ele>
        <time>2026-03-02T14:02:49+00:00</time>
      </trkpt>
      <trkpt lat="50.78769" lon="2.7259">
        <ele>75</ele>
        <time>2026-03-02T14:02:52+00:00</time>
      </trkpt>
      <trkpt lat="50.7879" lon="2.72622">
        <ele>73</ele>
        <time>2026-03-02T14:02:55+00:00</time>
      </trkpt>
      <trkpt lat="50.78811" lon="2.72655">
        <ele>72</ele>
        <time>2026-03-02T14:02:58+00:00</time>
      </trkpt>
      <trkpt lat="50.78837" lon="2.72695">
        <ele>71</ele>
        <time>2026-03-02T14:03:01+00:00</time>
      </trkpt>
      <trkpt lat="50.78856" lon="2.72726">
        <ele>70</ele>
        <time>2026-03-02T14:03:04+00:00</time>
      </trkpt>
      <trkpt lat="50.78877" lon="2.72762">
        <ele>68</ele>
        <time>2026-03-02T14:03:07+00:00</time>
      </trkpt>
      <trkpt lat="50.78896" lon="2.72795">
        <ele>67</ele>
        <time>2026-03-02T14:03:10+00:00</time>
      </trkpt>
      <trkpt lat="50.78934" lon="2.72862">
        <ele>63</ele>
        <time>2026-03-02T14:03:13+00:00</time>
      </trkpt>
      <trkpt lat="50.78941" lon="2.72897">
        <ele>63</ele>
        <time>2026-03-02T14:03:16+00:00</time>
      </trkpt>
      <trkpt lat="50.78948" lon="2.72939">
        <ele>64</ele>
        <time>2026-03-02T14:03:19+00:00</time>
      </trkpt>
      <trkpt lat="50.78921" lon="2.72959">
        <ele>66</ele>
        <time>2026-03-02T14:03:22+00:00</time>
      </trkpt>
      <trkpt lat="50.78897" lon="2.72976">
        <ele>68</ele>
        <time>2026-03-02T14:03:25+00:00</time>
      </trkpt>
      <trkpt lat="50.78857" lon="2.73004">
        <ele>71</ele>
        <time>2026-03-02T14:03:28+00:00</time>
      </trkpt>
      <trkpt lat="50.78833" lon="2.73024">
        <ele>73</ele>
        <time>2026-03-02T14:03:31+00:00</time>
      </trkpt>
      <trkpt lat="50.78789" lon="2.7306">
        <ele>76</ele>
        <time>2026-03-02T14:03:34+00:00</time>
      </trkpt>
      <trkpt lat="50.78767" lon="2.73088">
        <ele>79</ele>
        <time>2026-03-02T14:03:37+00:00</time>
      </trkpt>
      <trkpt lat="50.78724" lon="2.73144">
        <ele>82</ele>
        <time>2026-03-02T14:03:40+00:00</time>
      </trkpt>
      <trkpt lat="50.78698" lon="2.73176">
        <ele>83</ele>
        <time>2026-03-02T14:03:43+00:00</time>
      </trkpt>
      <trkpt lat="50.78671" lon="2.73207">
        <ele>84</ele>
        <time>2026-03-02T14:03:46+00:00</time>
      </trkpt>
      <trkpt lat="50.78645" lon="2.73239">
        <ele>87</ele>
        <time>2026-03-02T14:03:49+00:00</time>
      </trkpt>
      <trkpt lat="50.78608" lon="2.73284">
        <ele>89</ele>
        <time>2026-03-02T14:03:52+00:00</time>
      </trkpt>
      <trkpt lat="50.78579" lon="2.7332">
        <ele>90</ele>
        <time>2026-03-02T14:03:55+00:00</time>
      </trkpt>
      <trkpt lat="50.78558" lon="2.73346">
        <ele>90</ele>
        <time>2026-03-02T14:03:58+00:00</time>
      </trkpt>
      <trkpt lat="50.78522" lon="2.73389">
        <ele>89</ele>
        <time>2026-03-02T14:04:01+00:00</time>
      </trkpt>
      <trkpt lat="50.78502" lon="2.73415">
        <ele>89</ele>
        <time>2026-03-02T14:04:04+00:00</time>
      </trkpt>
      <trkpt lat="50.78472" lon="2.73455">
        <ele>89</ele>
        <time>2026-03-02T14:04:07+00:00</time>
      </trkpt>
      <trkpt lat="50.7845" lon="2.73485">
        <ele>89</ele>
        <time>2026-03-02T14:04:10+00:00</time>
      </trkpt>
      <trkpt lat="50.78428" lon="2.73515">
        <ele>90</ele>
        <time>2026-03-02T14:04:13+00:00</time>
      </trkpt>
      <trkpt lat="50.78403" lon="2.73549">
        <ele>91</ele>
        <time>2026-03-02T14:04:16+00:00</time>
      </trkpt>
      <trkpt lat="50.78381" lon="2.73582">
        <ele>92</ele>
        <time>2026-03-02T14:04:19+00:00</time>
      </trkpt>
      <trkpt lat="50.7836" lon="2.73616">
        <ele>95</ele>
        <time>2026-03-02T14:04:22+00:00</time>
      </trkpt>
      <trkpt lat="50.78331" lon="2.73661">
        <ele>95</ele>
        <time>2026-03-02T14:04:25+00:00</time>
      </trkpt>
      <trkpt lat="50.78323" lon="2.73668">
        <ele>96</ele>
        <time>2026-03-02T14:04:28+00:00</time>
      </trkpt>
      <trkpt lat="50.78319" lon="2.73621">
        <ele>99</ele>
        <time>2026-03-02T14:04:31+00:00</time>
      </trkpt>
      <trkpt lat="50.78315" lon="2.73573">
        <ele>98</ele>
        <time>2026-03-02T14:04:34+00:00</time>
      </trkpt>
      <trkpt lat="50.78311" lon="2.73526">
        <ele>98</ele>
        <time>2026-03-02T14:04:37+00:00</time>
      </trkpt>
      <trkpt lat="50.78306" lon="2.7347">
        <ele>98</ele>
        <time>2026-03-02T14:04:40+00:00</time>
      </trkpt>
      <trkpt lat="50.78297" lon="2.73412">
        <ele>100</ele>
        <time>2026-03-02T14:04:43+00:00</time>
      </trkpt>
      <trkpt lat="50.78316" lon="2.73357">
        <ele>101</ele>
        <time>2026-03-02T14:04:46+00:00</time>
      </trkpt>
      <trkpt lat="50.78339" lon="2.73312">
        <ele>103</ele>
        <time>2026-03-02T14:04:49+00:00</time>
      </trkpt>
      <trkpt lat="50.78344" lon="2.73281">
        <ele>104</ele>
        <time>2026-03-02T14:04:52+00:00</time>
      </trkpt>
      <trkpt lat="50.78345" lon="2.73235">
        <ele>105</ele>
        <time>2026-03-02T14:04:55+00:00</time>
      </trkpt>
      <trkpt lat="50.78346" lon="2.7319">
        <ele>107</ele>
        <time>2026-03-02T14:04:58+00:00</time>
      </trkpt>
      <trkpt lat="50.78347" lon="2.7314">
        <ele>107</ele>
        <time>2026-03-02T14:05:01+00:00</time>
      </trkpt>
      <trkpt lat="50.78319" lon="2.73152">
        <ele>111</ele>
        <time>2026-03-02T14:05:04+00:00</time>
      </trkpt>
      <trkpt lat="50.78295" lon="2.73163">
        <ele>113</ele>
        <time>2026-03-02T14:05:07+00:00</time>
      </trkpt>
      <trkpt lat="50.78263" lon="2.73178">
        <ele>116</ele>
        <time>2026-03-02T14:05:10+00:00</time>
      </trkpt>
      <trkpt lat="50.7825" lon="2.73127">
        <ele>121</ele>
        <time>2026-03-02T14:05:13+00:00</time>
      </trkpt>
      <trkpt lat="50.78216" lon="2.73111">
        <ele>125</ele>
        <time>2026-03-02T14:05:16+00:00</time>
      </trkpt>
      <trkpt lat="50.782" lon="2.7309">
        <ele>125</ele>
        <time>2026-03-02T14:05:19+00:00</time>
      </trkpt>
      <trkpt lat="50.78188" lon="2.7306">
        <ele>125</ele>
        <time>2026-03-02T14:05:22+00:00</time>
      </trkpt>
      <trkpt lat="50.78174" lon="2.73027">
        <ele>125</ele>
        <time>2026-03-02T14:05:25+00:00</time>
      </trkpt>
      <trkpt lat="50.78147" lon="2.72995">
        <ele>125</ele>
        <time>2026-03-02T14:05:28+00:00</time>
      </trkpt>
      <trkpt lat="50.78125" lon="2.72996">
        <ele>127</ele>
        <time>2026-03-02T14:05:31+00:00</time>
      </trkpt>
      <trkpt lat="50.78102" lon="2.72997">
        <ele>129</ele>
        <time>2026-03-02T14:05:34+00:00</time>
      </trkpt>
      <trkpt lat="50.78075" lon="2.72981">
        <ele>131</ele>
        <time>2026-03-02T14:05:37+00:00</time>
      </trkpt>
      <trkpt lat="50.78045" lon="2.72951">
        <ele>132</ele>
        <time>2026-03-02T14:05:40+00:00</time>
      </trkpt>
      <trkpt lat="50.78026" lon="2.72953">
        <ele>132</ele>
        <time>2026-03-02T14:05:43+00:00</time>
      </trkpt>
      <trkpt lat="50.78019" lon="2.72951">
        <ele>133</ele>
        <time>2026-03-02T14:05:46+00:00</time>
      </trkpt>
      <trkpt lat="50.78001" lon="2.72988">
        <ele>132</ele>
        <time>2026-03-02T14:05:49+00:00</time>
      </trkpt>
      <trkpt lat="50.77998" lon="2.7303">
        <ele>133</ele>
        <time>2026-03-02T14:05:52+00:00</time>
      </trkpt>
      <trkpt lat="50.77975" lon="2.73064">
        <ele>134</ele>
        <time>2026-03-02T14:05:55+00:00</time>
      </trkpt>
      <trkpt lat="50.77954" lon="2.7311">
        <ele>135</ele>
        <time>2026-03-02T14:05:58+00:00</time>
      </trkpt>
      <trkpt lat="50.77931" lon="2.73153">
        <ele>133</ele>
        <time>2026-03-02T14:06:01+00:00</time>
      </trkpt>
      <trkpt lat="50.77909" lon="2.73168">
        <ele>132</ele>
        <time>2026-03-02T14:06:04+00:00</time>
      </trkpt>
      <trkpt lat="50.7788" lon="2.73188">
        <ele>128</ele>
        <time>2026-03-02T14:06:07+00:00</time>
      </trkpt>
      <trkpt lat="50.77858" lon="2.73223">
        <ele>128</ele>
        <time>2026-03-02T14:06:10+00:00</time>
      </trkpt>
      <trkpt lat="50.77839" lon="2.73255">
        <ele>128</ele>
        <time>2026-03-02T14:06:13+00:00</time>
      </trkpt>
      <trkpt lat="50.77801" lon="2.73319">
        <ele>130</ele>
        <time>2026-03-02T14:06:16+00:00</time>
      </trkpt>
      <trkpt lat="50.77783" lon="2.73357">
        <ele>126</ele>
        <time>2026-03-02T14:06:19+00:00</time>
      </trkpt>
      <trkpt lat="50.77753" lon="2.73369">
        <ele>122</ele>
        <time>2026-03-02T14:06:22+00:00</time>
      </trkpt>
      <trkpt lat="50.77739" lon="2.73391">
        <ele>119</ele>
        <time>2026-03-02T14:06:25+00:00</time>
      </trkpt>
      <trkpt lat="50.7773" lon="2.73352">
        <ele>111</ele>
        <time>2026-03-02T14:06:28+00:00</time>
      </trkpt>
      <trkpt lat="50.77716" lon="2.73293">
        <ele>98</ele>
        <time>2026-03-02T14:06:31+00:00</time>
      </trkpt>
      <trkpt lat="50.77706" lon="2.73246">
        <ele>90</ele>
        <time>2026-03-02T14:06:34+00:00</time>
      </trkpt>
      <trkpt lat="50.77697" lon="2.73208">
        <ele>88</ele>
        <time>2026-03-02T14:06:37+00:00</time>
      </trkpt>
      <trkpt lat="50.77684" lon="2.7315">
        <ele>84</ele>
        <time>2026-03-02T14:06:40+00:00</time>
      </trkpt>
      <trkpt lat="50.77661" lon="2.73151">
        <ele>83</ele>
        <time>2026-03-02T14:06:43+00:00</time>
      </trkpt>
      <trkpt lat="50.7763" lon="2.73134">
        <ele>78</ele>
        <time>2026-03-02T14:06:46+00:00</time>
      </trkpt>
      <trkpt lat="50.77605" lon="2.73114">
        <ele>76</ele>
        <time>2026-03-02T14:06:49+00:00</time>
      </trkpt>
      <trkpt lat="50.7759" lon="2.73088">
        <ele>74</ele>
        <time>2026-03-02T14:06:52+00:00</time>
      </trkpt>
      <trkpt lat="50.77576" lon="2.73063">
        <ele>73</ele>
        <time>2026-03-02T14:06:55+00:00</time>
      </trkpt>
      <trkpt lat="50.77572" lon="2.7304">
        <ele>71</ele>
        <time>2026-03-02T14:06:58+00:00</time>
      </trkpt>
      <trkpt lat="50.77551" lon="2.73018">
        <ele>69</ele>
        <time>2026-03-02T14:07:01+00:00</time>
      </trkpt>
      <trkpt lat="50.7753" lon="2.72996">
        <ele>68</ele>
        <time>2026-03-02T14:07:04+00:00</time>
      </trkpt>
      <trkpt lat="50.77504" lon="2.72969">
        <ele>67</ele>
        <time>2026-03-02T14:07:07+00:00</time>
      </trkpt>
      <trkpt lat="50.7749" lon="2.72906">
        <ele>66</ele>
        <time>2026-03-02T14:07:10+00:00</time>
      </trkpt>
      <trkpt lat="50.77475" lon="2.72912">
        <ele>64</ele>
        <time>2026-03-02T14:07:13+00:00</time>
      </trkpt>
      <trkpt lat="50.77452" lon="2.72903">
        <ele>66</ele>
        <time>2026-03-02T14:07:16+00:00</time>
      </trkpt>
      <trkpt lat="50.77429" lon="2.72893">
        <ele>68</ele>
        <time>2026-03-02T14:07:19+00:00</time>
      </trkpt>
      <trkpt lat="50.77405" lon="2.72884">
        <ele>70</ele>
        <time>2026-03-02T14:07:22+00:00</time>
      </trkpt>
      <trkpt lat="50.7737" lon="2.72897">
        <ele>71</ele>
        <time>2026-03-02T14:07:25+00:00</time>
      </trkpt>
      <trkpt lat="50.77339" lon="2.72855">
        <ele>68</ele>
        <time>2026-03-02T14:07:28+00:00</time>
      </trkpt>
      <trkpt lat="50.77331" lon="2.72799">
        <ele>66</ele>
        <time>2026-03-02T14:07:31+00:00</time>
      </trkpt>
      <trkpt lat="50.77357" lon="2.72759">
        <ele>61</ele>
        <time>2026-03-02T14:07:34+00:00</time>
      </trkpt>
      <trkpt lat="50.77376" lon="2.72717">
        <ele>57</ele>
        <time>2026-03-02T14:07:37+00:00</time>
      </trkpt>
      <trkpt lat="50.7739" lon="2.72656">
        <ele>52</ele>
        <time>2026-03-02T14:07:40+00:00</time>
      </trkpt>
      <trkpt lat="50.77385" lon="2.7263">
        <ele>51</ele>
        <time>2026-03-02T14:07:43+00:00</time>
      </trkpt>
      <trkpt lat="50.77369" lon="2.72593">
        <ele>49</ele>
        <time>2026-03-02T14:07:46+00:00</time>
      </trkpt>
      <trkpt lat="50.7736" lon="2.72553">
        <ele>47</ele>
        <time>2026-03-02T14:07:49+00:00</time>
      </trkpt>
      <trkpt lat="50.7736" lon="2.72501">
        <ele>45</ele>
        <time>2026-03-02T14:07:52+00:00</time>
      </trkpt>
      <trkpt lat="50.77355" lon="2.72465">
        <ele>44</ele>
        <time>2026-03-02T14:07:55+00:00</time>
      </trkpt>
      <trkpt lat="50.77348" lon="2.72421">
        <ele>43</ele>
        <time>2026-03-02T14:07:58+00:00</time>
      </trkpt>
      <trkpt lat="50.77349" lon="2.72385">
        <ele>42</ele>
        <time>2026-03-02T14:08:01+00:00</time>
      </trkpt>
      <trkpt lat="50.77349" lon="2.72343">
        <ele>41</ele>
        <time>2026-03-02T14:08:04+00:00</time>
      </trkpt>
      <trkpt lat="50.77339" lon="2.72308">
        <ele>40</ele>
        <time>2026-03-02T14:08:07+00:00</time>
      </trkpt>
      <trkpt lat="50.77326" lon="2.72263">
        <ele>40</ele>
        <time>2026-03-02T14:08:10+00:00</time>
      </trkpt>
      <trkpt lat="50.77304" lon="2.72226">
        <ele>39</ele>
        <time>2026-03-02T14:08:13+00:00</time>
      </trkpt>
      <trkpt lat="50.77275" lon="2.72226">
        <ele>39</ele>
        <time>2026-03-02T14:08:16+00:00</time>
      </trkpt>
      <trkpt lat="50.77247" lon="2.72225">
        <ele>39</ele>
        <time>2026-03-02T14:08:19+00:00</time>
      </trkpt>
      <trkpt lat="50.77217" lon="2.72225">
        <ele>39</ele>
        <time>2026-03-02T14:08:22+00:00</time>
      </trkpt>
      <trkpt lat="50.7719" lon="2.72223">
        <ele>38</ele>
        <time>2026-03-02T14:08:25+00:00</time>
      </trkpt>
      <trkpt lat="50.77169" lon="2.72222">
        <ele>38</ele>
        <time>2026-03-02T14:08:28+00:00</time>
      </trkpt>
      <trkpt lat="50.77147" lon="2.72221">
        <ele>38</ele>
        <time>2026-03-02T14:08:31+00:00</time>
      </trkpt>
      <trkpt lat="50.77119" lon="2.72231">
        <ele>38</ele>
        <time>2026-03-02T14:08:34+00:00</time>
      </trkpt>
      <trkpt lat="50.77085" lon="2.72257">
        <ele>37</ele>
        <time>2026-03-02T14:08:37+00:00</time>
      </trkpt>
      <trkpt lat="50.77063" lon="2.72249">
        <ele>37</ele>
        <time>2026-03-02T14:08:40+00:00</time>
      </trkpt>
      <trkpt lat="50.77038" lon="2.72241">
        <ele>37</ele>
        <time>2026-03-02T14:08:43+00:00</time>
      </trkpt>
      <trkpt lat="50.77006" lon="2.72229">
        <ele>36</ele>
        <time>2026-03-02T14:08:46+00:00</time>
      </trkpt>
      <trkpt lat="50.76974" lon="2.72217">
        <ele>36</ele>
        <time>2026-03-02T14:08:49+00:00</time>
      </trkpt>
      <trkpt lat="50.76943" lon="2.72206">
        <ele>35</ele>
        <time>2026-03-02T14:08:52+00:00</time>
      </trkpt>
      <trkpt lat="50.76903" lon="2.72191">
        <ele>35</ele>
        <time>2026-03-02T14:08:55+00:00</time>
      </trkpt>
      <trkpt lat="50.76873" lon="2.72164">
        <ele>35</ele>
        <time>2026-03-02T14:08:58+00:00</time>
      </trkpt>
      <trkpt lat="50.76851" lon="2.72155">
        <ele>34</ele>
        <time>2026-03-02T14:09:01+00:00</time>
      </trkpt>
      <trkpt lat="50.76826" lon="2.72144">
        <ele>34</ele>
        <time>2026-03-02T14:09:04+00:00</time>
      </trkpt>
      <trkpt lat="50.76814" lon="2.72194">
        <ele>34</ele>
        <time>2026-03-02T14:09:07+00:00</time>
      </trkpt>
      <trkpt lat="50.76803" lon="2.72244">
        <ele>35</ele>
        <time>2026-03-02T14:09:10+00:00</time>
      </trkpt>
      <trkpt lat="50.76791" lon="2.72294">
        <ele>37</ele>
        <time>2026-03-02T14:09:13+00:00</time>
      </trkpt>
      <trkpt lat="50.76782" lon="2.72331">
        <ele>38</ele>
        <time>2026-03-02T14:09:16+00:00</time>
      </trkpt>
      <trkpt lat="50.7677" lon="2.72386">
        <ele>39</ele>
        <time>2026-03-02T14:09:19+00:00</time>
      </trkpt>
      <trkpt lat="50.76759" lon="2.7243">
        <ele>40</ele>
        <time>2026-03-02T14:09:22+00:00</time>
      </trkpt>
      <trkpt lat="50.76748" lon="2.72462">
        <ele>41</ele>
        <time>2026-03-02T14:09:25+00:00</time>
      </trkpt>
      <trkpt lat="50.76734" lon="2.72501">
        <ele>41</ele>
        <time>2026-03-02T14:09:28+00:00</time>
      </trkpt>
      <trkpt lat="50.76705" lon="2.72481">
        <ele>40</ele>
        <time>2026-03-02T14:09:31+00:00</time>
      </trkpt>
      <trkpt lat="50.76676" lon="2.72462">
        <ele>40</ele>
        <time>2026-03-02T14:09:34+00:00</time>
      </trkpt>
      <trkpt lat="50.76655" lon="2.72447">
        <ele>38</ele>
        <time>2026-03-02T14:09:37+00:00</time>
      </trkpt>
      <trkpt lat="50.76629" lon="2.7243">
        <ele>38</ele>
        <time>2026-03-02T14:09:40+00:00</time>
      </trkpt>
      <trkpt lat="50.7658" lon="2.72398">
        <ele>35</ele>
        <time>2026-03-02T14:09:43+00:00</time>
      </trkpt>
      <trkpt lat="50.76561" lon="2.72372">
        <ele>34</ele>
        <time>2026-03-02T14:09:46+00:00</time>
      </trkpt>
      <trkpt lat="50.76534" lon="2.72337">
        <ele>33</ele>
        <time>2026-03-02T14:09:49+00:00</time>
      </trkpt>
      <trkpt lat="50.76512" lon="2.7232">
        <ele>32</ele>
        <time>2026-03-02T14:09:52+00:00</time>
      </trkpt>
      <trkpt lat="50.76481" lon="2.72298">
        <ele>31</ele>
        <time>2026-03-02T14:09:55+00:00</time>
      </trkpt>
      <trkpt lat="50.7646" lon="2.7226">
        <ele>31</ele>
        <time>2026-03-02T14:09:58+00:00</time>
      </trkpt>
      <trkpt lat="50.76444" lon="2.72236">
        <ele>31</ele>
        <time>2026-03-02T14:10:01+00:00</time>
      </trkpt>
      <trkpt lat="50.76428" lon="2.72211">
        <ele>31</ele>
        <time>2026-03-02T14:10:04+00:00</time>
      </trkpt>
      <trkpt lat="50.76406" lon="2.72158">
        <ele>31</ele>
        <time>2026-03-02T14:10:07+00:00</time>
      </trkpt>
      <trkpt lat="50.76379" lon="2.72178">
        <ele>30</ele>
        <time>2026-03-02T14:10:10+00:00</time>
      </trkpt>
      <trkpt lat="50.7636" lon="2.72182">
        <ele>30</ele>
        <time>2026-03-02T14:10:13+00:00</time>
      </trkpt>
      <trkpt lat="50.76354" lon="2.72131">
        <ele>31</ele>
        <time>2026-03-02T14:10:16+00:00</time>
      </trkpt>
      <trkpt lat="50.76369" lon="2.72107">
        <ele>31</ele>
        <time>2026-03-02T14:10:19+00:00</time>
      </trkpt>
      <trkpt lat="50.76362" lon="2.72079">
        <ele>31</ele>
        <time>2026-03-02T14:10:22+00:00</time>
      </trkpt>
      <trkpt lat="50.76354" lon="2.72051">
        <ele>31</ele>
        <time>2026-03-02T14:10:25+00:00</time>
      </trkpt>
      <trkpt lat="50.76341" lon="2.7201">
        <ele>32</ele>
        <time>2026-03-02T14:10:28+00:00</time>
      </trkpt>
      <trkpt lat="50.7632" lon="2.71976">
        <ele>32</ele>
        <time>2026-03-02T14:10:31+00:00</time>
      </trkpt>
      <trkpt lat="50.76331" lon="2.71934">
        <ele>32</ele>
        <time>2026-03-02T14:10:34+00:00</time>
      </trkpt>
      <trkpt lat="50.76342" lon="2.71893">
        <ele>32</ele>
        <time>2026-03-02T14:10:37+00:00</time>
      </trkpt>
      <trkpt lat="50.76354" lon="2.71849">
        <ele>33</ele>
        <time>2026-03-02T14:10:40+00:00</time>
      </trkpt>
      <trkpt lat="50.76345" lon="2.71834">
        <ele>33</ele>
        <time>2026-03-02T14:10:43+00:00</time>
      </trkpt>
      <trkpt lat="50.76352" lon="2.71798">
        <ele>33</ele>
        <time>2026-03-02T14:10:46+00:00</time>
      </trkpt>
      <trkpt lat="50.76365" lon="2.71727">
        <ele>34</ele>
        <time>2026-03-02T14:10:49+00:00</time>
      </trkpt>
    </trkseg>
  </trk>
</gpx>
