<?xml version="1.0" encoding="UTF-8"?>
<gpx version="1.1" creator="TrailCompareMVP" xmlns="http://www.topografix.com/GPX/1/1">
  <trk>
    <trkseg>
      <trkpt lat="45.9302081" lon="6.8763334">
        <ele>0</ele>
      </trkpt>
      <trkpt lat="45.9305947" lon="6.8766057">
        <ele>0</ele>
      </trkpt>
      <trkpt lat="45.9308655" lon="6.8768264">
        <ele>0</ele>
      </trkpt>
      <trkpt lat="45.9310051" lon="6.8774715">
        <ele>0</ele>
      </trkpt>
      <trkpt lat="45.9311559" lon="6.8783252">
        <ele>0</ele>
      </trkpt>
      <trkpt lat="45.9313057" lon="6.879134">
        <ele>0</ele>
      </trkpt>
      <trkpt lat="45.9314452" lon="6.8799125">
        <ele>0</ele>
      </trkpt>
      <trkpt lat="45.9316745" lon="6.8805959">
        <ele>0</ele>
      </trkpt>
      <trkpt lat="45.9320853" lon="6.8816145">
        <ele>0</ele>
      </trkpt>
      <trkpt lat="45.9322468" lon="6.8822455">
        <ele>0</ele>
      </trkpt>
      <trkpt lat="45.9324488" lon="6.8828098">
        <ele>0</ele>
      </trkpt>
      <trkpt lat="45.9325008" lon="6.8835309">
        <ele>0</ele>
      </trkpt>
      <trkpt lat="45.9325111" lon="6.8841323">
        <ele>0</ele>
      </trkpt>
      <trkpt lat="45.9325377" lon="6.8843341">
        <ele>0</ele>
      </trkpt>
      <trkpt lat="45.9326021" lon="6.8844531">
        <ele>0</ele>
      </trkpt>
      <trkpt lat="45.932838" lon="6.8849066">
        <ele>0</ele>
      </trkpt>
      <trkpt lat="45.9333327" lon="6.8858156">
        <ele>0</ele>
      </trkpt>
      <trkpt lat="45.9336546" lon="6.8863851">
        <ele>0</ele>
      </trkpt>
      <trkpt lat="45.9338994" lon="6.8869611">
        <ele>0</ele>
      </trkpt>
      <trkpt lat="45.9341413" lon="6.8876385">
        <ele>0</ele>
      </trkpt>
      <trkpt lat="45.9344055" lon="6.8883804">
        <ele>0</ele>
      </trkpt>
      <trkpt lat="45.9346327" lon="6.8888487">
        <ele>0</ele>
      </trkpt>
      <trkpt lat="45.9345445" lon="6.8892461">
        <ele>0</ele>
      </trkpt>
      <trkpt lat="45.9345773" lon="6.8895545">
        <ele>0</ele>
      </trkpt>
      <trkpt lat="45.9346148" lon="6.8899183">
        <ele>0</ele>
      </trkpt>
      <trkpt lat="45.9348281" lon="6.8903505">
        <ele>0</ele>
      </trkpt>
      <trkpt lat="45.9349653" lon="6.8905334">
        <ele>0</ele>
      </trkpt>
      <trkpt lat="45.9351026" lon="6.8904969">
        <ele>0</ele>
      </trkpt>
      <trkpt lat="45.9352499" lon="6.8905182">
        <ele>0</ele>
      </trkpt>
      <trkpt lat="45.9353612" lon="6.8905521">
        <ele>0</ele>
      </trkpt>
      <trkpt lat="45.9355166" lon="6.8904072">
        <ele>0</ele>
      </trkpt>
      <trkpt lat="45.9357409" lon="6.8904163">
        <ele>0</ele>
      </trkpt>
      <trkpt lat="45.9358518" lon="6.8907435">
        <ele>0</ele>
      </trkpt>
      <trkpt lat="45.9359729" lon="6.8911219">
        <ele>0</ele>
      </trkpt>
      <trkpt lat="45.9361087" lon="6.8915873">
        <ele>0</ele>
      </trkpt>
      <trkpt lat="45.9363313" lon="6.8920947">
        <ele>0</ele>
      </trkpt>
      <trkpt lat="45.9363258" lon="6.8927008">
        <ele>0</ele>
      </trkpt>
      <trkpt lat="45.9365183" lon="6.8932462">
        <ele>0</ele>
      </trkpt>
      <trkpt lat="45.9367882" lon="6.8940347">
        <ele>0</ele>
      </trkpt>
      <trkpt lat="45.9369834" lon="6.8944847">
        <ele>0</ele>
      </trkpt>
      <trkpt lat="45.9372321" lon="6.8947337">
        <ele>0</ele>
      </trkpt>
      <trkpt lat="45.9378232" lon="6.8955676">
        <ele>0</ele>
      </trkpt>
      <trkpt lat="45.9381214" lon="6.8961421">
        <ele>0</ele>
      </trkpt>
      <trkpt lat="45.938518" lon="6.8965712">
        <ele>0</ele>
      </trkpt>
      <trkpt lat="45.9386931" lon="6.896688">
        <ele>0</ele>
      </trkpt>
      <trkpt lat="45.9388868" lon="6.8968951">
        <ele>0</ele>
      </trkpt>
      <trkpt lat="45.9393904" lon="6.8976175">
        <ele>0</ele>
      </trkpt>
      <trkpt lat="45.9403048" lon="6.8984611">
        <ele>0</ele>
      </trkpt>
      <trkpt lat="45.9411987" lon="6.8994717">
        <ele>0</ele>
      </trkpt>
      <trkpt lat="45.9416196" lon="6.900241">
        <ele>0</ele>
      </trkpt>
      <trkpt lat="45.9419597" lon="6.901569">
        <ele>0</ele>
      </trkpt>
      <trkpt lat="45.9419028" lon="6.9025453">
        <ele>0</ele>
      </trkpt>
      <trkpt lat="45.9417937" lon="6.9027833">
        <ele>0</ele>
      </trkpt>
      <trkpt lat="45.9415951" lon="6.9027208">
        <ele>0</ele>
      </trkpt>
      <trkpt lat="45.9412112" lon="6.9027832">
        <ele>0</ele>
      </trkpt>
      <trkpt lat="45.9408928" lon="6.9026848">
        <ele>0</ele>
      </trkpt>
      <trkpt lat="45.9413117" lon="6.9035851">
        <ele>0</ele>
      </trkpt>
      <trkpt lat="45.9416824" lon="6.9043249">
        <ele>0</ele>
      </trkpt>
      <trkpt lat="45.9417277" lon="6.9044579">
        <ele>0</ele>
      </trkpt>
      <trkpt lat="45.9417106" lon="6.9046018">
        <ele>0</ele>
      </trkpt>
      <trkpt lat="45.9416129" lon="6.9047874">
        <ele>0</ele>
      </trkpt>
      <trkpt lat="45.9415446" lon="6.9049432">
        <ele>0</ele>
      </trkpt>
      <trkpt lat="45.9416068" lon="6.9052148">
        <ele>0</ele>
      </trkpt>
      <trkpt lat="45.9416488" lon="6.9054282">
        <ele>0</ele>
      </trkpt>
      <trkpt lat="45.9416278" lon="6.9055314">
        <ele>0</ele>
      </trkpt>
      <trkpt lat="45.9416463" lon="6.9056298">
        <ele>0</ele>
      </trkpt>
      <trkpt lat="45.9416956" lon="6.9058035">
        <ele>0</ele>
      </trkpt>
      <trkpt lat="45.9417349" lon="6.905944">
        <ele>0</ele>
      </trkpt>
      <trkpt lat="45.9417997" lon="6.9061513">
        <ele>0</ele>
      </trkpt>
      <trkpt lat="45.9419355" lon="6.9062756">
        <ele>0</ele>
      </trkpt>
      <trkpt lat="45.9420481" lon="6.9062769">
        <ele>0</ele>
      </trkpt>
      <trkpt lat="45.9422393" lon="6.9064221">
        <ele>0</ele>
      </trkpt>
      <trkpt lat="45.9423483" lon="6.9065119">
        <ele>0</ele>
      </trkpt>
      <trkpt lat="45.942422" lon="6.9066391">
        <ele>0</ele>
      </trkpt>
      <trkpt lat="45.9425694" lon="6.9067564">
        <ele>0</ele>
      </trkpt>
      <trkpt lat="45.9426678" lon="6.9068292">
        <ele>0</ele>
      </trkpt>
      <trkpt lat="45.9427573" lon="6.906982">
        <ele>0</ele>
      </trkpt>
      <trkpt lat="45.942803" lon="6.9072442">
        <ele>0</ele>
      </trkpt>
      <trkpt lat="45.9428688" lon="6.9074273">
        <ele>0</ele>
      </trkpt>
      <trkpt lat="45.9429045" lon="6.9075191">
        <ele>0</ele>
      </trkpt>
      <trkpt lat="45.9430003" lon="6.907519">
        <ele>0</ele>
      </trkpt>
      <trkpt lat="45.9430904" lon="6.9075184">
        <ele>0</ele>
      </trkpt>
      <trkpt lat="45.9432013" lon="6.9074227">
        <ele>0</ele>
      </trkpt>
      <trkpt lat="45.9432227" lon="6.9073115">
        <ele>0</ele>
      </trkpt>
      <trkpt lat="45.9432286" lon="6.9071666">
        <ele>0</ele>
      </trkpt>
      <trkpt lat="45.9431988" lon="6.9070673">
        <ele>0</ele>
      </trkpt>
      <trkpt lat="45.9431829" lon="6.9069045">
        <ele>0</ele>
      </trkpt>
      <trkpt lat="45.943231" lon="6.9066905">
        <ele>0</ele>
      </trkpt>
      <trkpt lat="45.9432858" lon="6.9065901">
        <ele>0</ele>
      </trkpt>
      <trkpt lat="45.9434119" lon="6.906536">
        <ele>0</ele>
      </trkpt>
      <trkpt lat="45.9435956" lon="6.906729">
        <ele>0</ele>
      </trkpt>
      <trkpt lat="45.9436537" lon="6.9068226">
        <ele>0</ele>
      </trkpt>
      <trkpt lat="45.9438319" lon="6.9069387">
        <ele>0</ele>
      </trkpt>
      <trkpt lat="45.943915" lon="6.9070463">
        <ele>0</ele>
      </trkpt>
      <trkpt lat="45.9440217" lon="6.9070552">
        <ele>0</ele>
      </trkpt>
      <trkpt lat="45.9440914" lon="6.9071417">
        <ele>0</ele>
      </trkpt>
      <trkpt lat="45.9443007" lon="6.9071188">
        <ele>0</ele>
      </trkpt>
      <trkpt lat="45.9444464" lon="6.9071391">
        <ele>0</ele>
      </trkpt>
      <trkpt lat="45.9445692" lon="6.9071655">
        <ele>0</ele>
      </trkpt>
      <trkpt lat="45.9447432" lon="6.90718">
        <ele>0</ele>
      </trkpt>
      <trkpt lat="45.9448737" lon="6.9072958">
        <ele>0</ele>
      </trkpt>
      <trkpt lat="45.9449437" lon="6.9073743">
        <ele>0</ele>
      </trkpt>
      <trkpt lat="45.9450969" lon="6.9076902">
        <ele>0</ele>
      </trkpt>
      <trkpt lat="45.9453486" lon="6.9078727">
        <ele>0</ele>
      </trkpt>
      <trkpt lat="45.9455414" lon="6.9078403">
        <ele>0</ele>
      </trkpt>
      <trkpt lat="45.9457547" lon="6.9078581">
        <ele>0</ele>
      </trkpt>
      <trkpt lat="45.9459495" lon="6.9077775">
        <ele>0</ele>
      </trkpt>
      <trkpt lat="45.9459831" lon="6.9075057">
        <ele>0</ele>
      </trkpt>
      <trkpt lat="45.9460166" lon="6.907234">
        <ele>0</ele>
      </trkpt>
      <trkpt lat="45.9459776" lon="6.9070854">
        <ele>0</ele>
      </trkpt>
      <trkpt lat="45.9459853" lon="6.9068315">
        <ele>0</ele>
      </trkpt>
      <trkpt lat="45.9458559" lon="6.9067523">
        <ele>0</ele>
      </trkpt>
      <trkpt lat="45.9457542" lon="6.90676">
        <ele>0</ele>
      </trkpt>
      <trkpt lat="45.945644" lon="6.9069769">
        <ele>0</ele>
      </trkpt>
      <trkpt lat="45.9455609" lon="6.907083">
        <ele>0</ele>
      </trkpt>
      <trkpt lat="45.9454684" lon="6.9071398">
        <ele>0</ele>
      </trkpt>
      <trkpt lat="45.9453654" lon="6.9071797">
        <ele>0</ele>
      </trkpt>
      <trkpt lat="45.9452102" lon="6.9071183">
        <ele>0</ele>
      </trkpt>
      <trkpt lat="45.9449903" lon="6.9069869">
        <ele>0</ele>
      </trkpt>
      <trkpt lat="45.9448515" lon="6.9067977">
        <ele>0</ele>
      </trkpt>
      <trkpt lat="45.9448052" lon="6.9065516">
        <ele>0</ele>
      </trkpt>
      <trkpt lat="45.9447286" lon="6.9062906">
        <ele>0</ele>
      </trkpt>
      <trkpt lat="45.9446407" lon="6.9060976">
        <ele>0</ele>
      </trkpt>
      <trkpt lat="45.9445928" lon="6.9058917">
        <ele>0</ele>
      </trkpt>
      <trkpt lat="45.9445514" lon="6.9056622">
        <ele>0</ele>
      </trkpt>
      <trkpt lat="45.9443337" lon="6.9054745">
        <ele>0</ele>
      </trkpt>
      <trkpt lat="45.9441712" lon="6.9053156">
        <ele>0</ele>
      </trkpt>
      <trkpt lat="45.9440246" lon="6.9053195">
        <ele>0</ele>
      </trkpt>
      <trkpt lat="45.9438571" lon="6.9052814">
        <ele>0</ele>
      </trkpt>
      <trkpt lat="45.9437762" lon="6.9051939">
        <ele>0</ele>
      </trkpt>
      <trkpt lat="45.9436196" lon="6.9050274">
        <ele>0</ele>
      </trkpt>
      <trkpt lat="45.9435624" lon="6.9047723">
        <ele>0</ele>
      </trkpt>
      <trkpt lat="45.9435045" lon="6.9045334">
        <ele>0</ele>
      </trkpt>
      <trkpt lat="45.9434103" lon="6.904356">
        <ele>0</ele>
      </trkpt>
      <trkpt lat="45.9432646" lon="6.9041985">
        <ele>0</ele>
      </trkpt>
      <trkpt lat="45.9430823" lon="6.9041106">
        <ele>0</ele>
      </trkpt>
      <trkpt lat="45.9428957" lon="6.9039901">
        <ele>0</ele>
      </trkpt>
      <trkpt lat="45.9426149" lon="6.9038295">
        <ele>0</ele>
      </trkpt>
      <trkpt lat="45.9424498" lon="6.9037349">
        <ele>0</ele>
      </trkpt>
      <trkpt lat="45.9423117" lon="6.9035297">
        <ele>0</ele>
      </trkpt>
      <trkpt lat="45.9421862" lon="6.9034304">
        <ele>0</ele>
      </trkpt>
      <trkpt lat="45.9418417" lon="6.9031644">
        <ele>0</ele>
      </trkpt>
      <trkpt lat="45.9418962" lon="6.9029491">
        <ele>0</ele>
      </trkpt>
      <trkpt lat="45.9419591" lon="6.902749">
        <ele>0</ele>
      </trkpt>
      <trkpt lat="45.9420192" lon="6.9025042">
        <ele>0</ele>
      </trkpt>
      <trkpt lat="45.9420738" lon="6.9022385">
        <ele>0</ele>
      </trkpt>
      <trkpt lat="45.9420875" lon="6.9019006">
        <ele>0</ele>
      </trkpt>
      <trkpt lat="45.9420893" lon="6.9015778">
        <ele>0</ele>
      </trkpt>
      <trkpt lat="45.9420607" lon="6.9011717">
        <ele>0</ele>
      </trkpt>
      <trkpt lat="45.9420269" lon="6.9008944">
        <ele>0</ele>
      </trkpt>
      <trkpt lat="45.9420328" lon="6.9007496">
        <ele>0</ele>
      </trkpt>
      <trkpt lat="45.9420432" lon="6.9005685">
        <ele>0</ele>
      </trkpt>
      <trkpt lat="45.9421555" lon="6.9007151">
        <ele>0</ele>
      </trkpt>
      <trkpt lat="45.9422602" lon="6.9007723">
        <ele>0</ele>
      </trkpt>
      <trkpt lat="45.9423494" lon="6.9007958">
        <ele>0</ele>
      </trkpt>
      <trkpt lat="45.9424546" lon="6.9006997">
        <ele>0</ele>
      </trkpt>
      <trkpt lat="45.9424968" lon="6.9004933">
        <ele>0</ele>
      </trkpt>
      <trkpt lat="45.9425518" lon="6.9002476">
        <ele>0</ele>
      </trkpt>
      <trkpt lat="45.9426584" lon="6.9001192">
        <ele>0</ele>
      </trkpt>
      <trkpt lat="45.9427176" lon="6.9001887">
        <ele>0</ele>
      </trkpt>
      <trkpt lat="45.9429078" lon="6.9002207">
        <ele>0</ele>
      </trkpt>
      <trkpt lat="45.9429969" lon="6.9002443">
        <ele>0</ele>
      </trkpt>
      <trkpt lat="45.9430726" lon="6.9003232">
        <ele>0</ele>
      </trkpt>
      <trkpt lat="45.943136" lon="6.9004254">
        <ele>0</ele>
      </trkpt>
      <trkpt lat="45.9431893" lon="6.9006398">
        <ele>0</ele>
      </trkpt>
      <trkpt lat="45.9431504" lon="6.9007657">
        <ele>0</ele>
      </trkpt>
      <trkpt lat="45.9430504" lon="6.9008704">
        <ele>0</ele>
      </trkpt>
      <trkpt lat="45.9429715" lon="6.9010092">
        <ele>0</ele>
      </trkpt>
      <trkpt lat="45.9429036" lon="6.9011569">
        <ele>0</ele>
      </trkpt>
      <trkpt lat="45.9428294" lon="6.9013203">
        <ele>0</ele>
      </trkpt>
      <trkpt lat="45.9427954" lon="6.9014628">
        <ele>0</ele>
      </trkpt>
      <trkpt lat="45.9428298" lon="6.9015867">
        <ele>0</ele>
      </trkpt>
      <trkpt lat="45.9429114" lon="6.9016581">
        <ele>0</ele>
      </trkpt>
      <trkpt lat="45.9430501" lon="6.9017101">
        <ele>0</ele>
      </trkpt>
      <trkpt lat="45.9431387" lon="6.9017497">
        <ele>0</ele>
      </trkpt>
      <trkpt lat="45.9432252" lon="6.9018377">
        <ele>0</ele>
      </trkpt>
      <trkpt lat="45.9433517" lon="6.9019128">
        <ele>0</ele>
      </trkpt>
      <trkpt lat="45.9434605" lon="6.9019343">
        <ele>0</ele>
      </trkpt>
      <trkpt lat="45.9435688" lon="6.9020402">
        <ele>0</ele>
      </trkpt>
      <trkpt lat="45.9436858" lon="6.9022114">
        <ele>0</ele>
      </trkpt>
      <trkpt lat="45.9437819" lon="6.9024169">
        <ele>0</ele>
      </trkpt>
      <trkpt lat="45.943913" lon="6.9025167">
        <ele>0</ele>
      </trkpt>
      <trkpt lat="45.9439655" lon="6.9026099">
        <ele>0</ele>
      </trkpt>
      <trkpt lat="45.9441331" lon="6.9025716">
        <ele>0</ele>
      </trkpt>
      <trkpt lat="45.9442375" lon="6.9027741">
        <ele>0</ele>
      </trkpt>
      <trkpt lat="45.9442806" lon="6.9031007">
        <ele>0</ele>
      </trkpt>
      <trkpt lat="45.9443918" lon="6.9033478">
        <ele>0</ele>
      </trkpt>
      <trkpt lat="45.9445817" lon="6.9033879">
        <ele>0</ele>
      </trkpt>
      <trkpt lat="45.9446963" lon="6.9033409">
        <ele>0</ele>
      </trkpt>
      <trkpt lat="45.9448975" lon="6.9034427">
        <ele>0</ele>
      </trkpt>
      <trkpt lat="45.9451472" lon="6.903399">
        <ele>0</ele>
      </trkpt>
      <trkpt lat="45.9454093" lon="6.9033239">
        <ele>0</ele>
      </trkpt>
      <trkpt lat="45.9455901" lon="6.9032459">
        <ele>0</ele>
      </trkpt>
      <trkpt lat="45.9457212" lon="6.9033456">
        <ele>0</ele>
      </trkpt>
      <trkpt lat="45.9457853" lon="6.9034317">
        <ele>0</ele>
      </trkpt>
      <trkpt lat="45.9460235" lon="6.9036696">
        <ele>0</ele>
      </trkpt>
      <trkpt lat="45.9461193" lon="6.9038068">
        <ele>0</ele>
      </trkpt>
      <trkpt lat="45.9461888" lon="6.9041759">
        <ele>0</ele>
      </trkpt>
      <trkpt lat="45.9462064" lon="6.9042985">
        <ele>0</ele>
      </trkpt>
      <trkpt lat="45.9463547" lon="6.9043916">
        <ele>0</ele>
      </trkpt>
      <trkpt lat="45.9464669" lon="6.9044009">
        <ele>0</ele>
      </trkpt>
      <trkpt lat="45.946612" lon="6.9047118">
        <ele>0</ele>
      </trkpt>
      <trkpt lat="45.9467257" lon="6.9048262">
        <ele>0</ele>
      </trkpt>
      <trkpt lat="45.9468377" lon="6.9049809">
        <ele>0</ele>
      </trkpt>
      <trkpt lat="45.9470405" lon="6.9051189">
        <ele>0</ele>
      </trkpt>
      <trkpt lat="45.947159" lon="6.9051127">
        <ele>0</ele>
      </trkpt>
      <trkpt lat="45.9472977" lon="6.9051646">
        <ele>0</ele>
      </trkpt>
      <trkpt lat="45.9474732" lon="6.9054215">
        <ele>0</ele>
      </trkpt>
      <trkpt lat="45.9475191" lon="6.9055384">
        <ele>0</ele>
      </trkpt>
      <trkpt lat="45.9475826" lon="6.9056405">
        <ele>0</ele>
      </trkpt>
      <trkpt lat="45.9476074" lon="6.9058606">
        <ele>0</ele>
      </trkpt>
      <trkpt lat="45.9476102" lon="6.9060708">
        <ele>0</ele>
      </trkpt>
      <trkpt lat="45.9475911" lon="6.906263">
        <ele>0</ele>
      </trkpt>
      <trkpt lat="45.9476179" lon="6.9064348">
        <ele>0</ele>
      </trkpt>
      <trkpt lat="45.9476371" lon="6.9065171">
        <ele>0</ele>
      </trkpt>
      <trkpt lat="45.9476355" lon="6.9066946">
        <ele>0</ele>
      </trkpt>
      <trkpt lat="45.9475881" lon="6.9068925">
        <ele>0</ele>
      </trkpt>
      <trkpt lat="45.947565" lon="6.907044">
        <ele>0</ele>
      </trkpt>
      <trkpt lat="45.9475919" lon="6.9073531">
        <ele>0</ele>
      </trkpt>
      <trkpt lat="45.9475768" lon="6.907586">
        <ele>0</ele>
      </trkpt>
      <trkpt lat="45.9475882" lon="6.9078615">
        <ele>0</ele>
      </trkpt>
      <trkpt lat="45.947616" lon="6.9080091">
        <ele>0</ele>
      </trkpt>
      <trkpt lat="45.94762" lon="6.9081871">
        <ele>0</ele>
      </trkpt>
      <trkpt lat="45.9477009" lon="6.9082746">
        <ele>0</ele>
      </trkpt>
      <trkpt lat="45.9477027" lon="6.9085089">
        <ele>0</ele>
      </trkpt>
      <trkpt lat="45.9478223" lon="6.9087531">
        <ele>0</ele>
      </trkpt>
      <trkpt lat="45.9479115" lon="6.9089139">
        <ele>0</ele>
      </trkpt>
      <trkpt lat="45.948018" lon="6.9092054">
        <ele>0</ele>
      </trkpt>
      <trkpt lat="45.9481217" lon="6.909424">
        <ele>0</ele>
      </trkpt>
      <trkpt lat="45.9481835" lon="6.9095664">
        <ele>0</ele>
      </trkpt>
      <trkpt lat="45.9482715" lon="6.9097595">
        <ele>0</ele>
      </trkpt>
      <trkpt lat="45.9483198" lon="6.9100946">
        <ele>0</ele>
      </trkpt>
      <trkpt lat="45.9482825" lon="6.9101803">
        <ele>0</ele>
      </trkpt>
      <trkpt lat="45.9482341" lon="6.9104023">
        <ele>0</ele>
      </trkpt>
      <trkpt lat="45.948185" lon="6.9106405">
        <ele>0</ele>
      </trkpt>
      <trkpt lat="45.9482088" lon="6.9107474">
        <ele>0</ele>
      </trkpt>
      <trkpt lat="45.9482485" lon="6.9108799">
        <ele>0</ele>
      </trkpt>
      <trkpt lat="45.9483218" lon="6.910878">
        <ele>0</ele>
      </trkpt>
      <trkpt lat="45.9483851" lon="6.9108429">
        <ele>0</ele>
      </trkpt>
      <trkpt lat="45.9484713" lon="6.9106644">
        <ele>0</ele>
      </trkpt>
      <trkpt lat="45.9486353" lon="6.9103712">
        <ele>0</ele>
      </trkpt>
      <trkpt lat="45.948724" lon="6.9101283">
        <ele>0</ele>
      </trkpt>
      <trkpt lat="45.9487681" lon="6.9098736">
        <ele>0</ele>
      </trkpt>
      <trkpt lat="45.9488301" lon="6.9097335">
        <ele>0</ele>
      </trkpt>
      <trkpt lat="45.9489" lon="6.9094002">
        <ele>0</ele>
      </trkpt>
      <trkpt lat="45.9489742" lon="6.9090995">
        <ele>0</ele>
      </trkpt>
      <trkpt lat="45.9490573" lon="6.9088561">
        <ele>0</ele>
      </trkpt>
      <trkpt lat="45.9490683" lon="6.9084453">
        <ele>0</ele>
      </trkpt>
      <trkpt lat="45.9490771" lon="6.9080907">
        <ele>0</ele>
      </trkpt>
      <trkpt lat="45.9490509" lon="6.9077655">
        <ele>0</ele>
      </trkpt>
      <trkpt lat="45.9490158" lon="6.9075204">
        <ele>0</ele>
      </trkpt>
      <trkpt lat="45.9489229" lon="6.9073107">
        <ele>0</ele>
      </trkpt>
      <trkpt lat="45.9488984" lon="6.9070826">
        <ele>0</ele>
      </trkpt>
      <trkpt lat="45.9488646" lon="6.9068053">
        <ele>0</ele>
      </trkpt>
      <trkpt lat="45.9488498" lon="6.9063357">
        <ele>0</ele>
      </trkpt>
      <trkpt lat="45.9487115" lon="6.9062757">
        <ele>0</ele>
      </trkpt>
      <trkpt lat="45.9486213" lon="6.9062763">
        <ele>0</ele>
      </trkpt>
      <trkpt lat="45.948548" lon="6.9062782">
        <ele>0</ele>
      </trkpt>
      <trkpt lat="45.9484806" lon="6.9061353">
        <ele>0</ele>
      </trkpt>
      <trkpt lat="45.9484782" lon="6.9059171">
        <ele>0</ele>
      </trkpt>
      <trkpt lat="45.9484325" lon="6.9056549">
        <ele>0</ele>
      </trkpt>
      <trkpt lat="45.9484701" lon="6.9054239">
        <ele>0</ele>
      </trkpt>
      <trkpt lat="45.9484165" lon="6.9052176">
        <ele>0</ele>
      </trkpt>
      <trkpt lat="45.9483304" lon="6.9048389">
        <ele>0</ele>
      </trkpt>
      <trkpt lat="45.9482624" lon="6.9047122">
        <ele>0</ele>
      </trkpt>
      <trkpt lat="45.9482213" lon="6.9043373">
        <ele>0</ele>
      </trkpt>
      <trkpt lat="45.9481152" lon="6.904175">
        <ele>0</ele>
      </trkpt>
      <trkpt lat="45.9479377" lon="6.9038292">
        <ele>0</ele>
      </trkpt>
      <trkpt lat="45.9478042" lon="6.9036485">
        <ele>0</ele>
      </trkpt>
      <trkpt lat="45.9477777" lon="6.9034686">
        <ele>0</ele>
      </trkpt>
      <trkpt lat="45.9477098" lon="6.9036164">
        <ele>0</ele>
      </trkpt>
      <trkpt lat="45.9477138" lon="6.9037944">
        <ele>0</ele>
      </trkpt>
      <trkpt lat="45.947822" lon="6.9041829">
        <ele>0</ele>
      </trkpt>
      <trkpt lat="45.9478007" lon="6.9045687">
        <ele>0</ele>
      </trkpt>
      <trkpt lat="45.9475879" lon="6.9049547">
        <ele>0</ele>
      </trkpt>
      <trkpt lat="45.947435" lon="6.9049742">
        <ele>0</ele>
      </trkpt>
      <trkpt lat="45.947349" lon="6.9045956">
        <ele>0</ele>
      </trkpt>
      <trkpt lat="45.9471668" lon="6.9039506">
        <ele>0</ele>
      </trkpt>
      <trkpt lat="45.9469931" lon="6.9033709">
        <ele>0</ele>
      </trkpt>
      <trkpt lat="45.9466502" lon="6.9029386">
        <ele>0</ele>
      </trkpt>
      <trkpt lat="45.9464111" lon="6.9028622">
        <ele>0</ele>
      </trkpt>
      <trkpt lat="45.9460323" lon="6.9026207">
        <ele>0</ele>
      </trkpt>
      <trkpt lat="45.9455638" lon="6.9020891">
        <ele>0</ele>
      </trkpt>
      <trkpt lat="45.9452705" lon="6.9019597">
        <ele>0</ele>
      </trkpt>
      <trkpt lat="45.9449761" lon="6.9015799">
        <ele>0</ele>
      </trkpt>
      <trkpt lat="45.9448069" lon="6.9011702">
        <ele>0</ele>
      </trkpt>
      <trkpt lat="45.9445294" lon="6.900929">
        <ele>0</ele>
      </trkpt>
      <trkpt lat="45.9441764" lon="6.9008835">
        <ele>0</ele>
      </trkpt>
      <trkpt lat="45.9437593" lon="6.9008891">
        <ele>0</ele>
      </trkpt>
      <trkpt lat="45.9434779" lon="6.9007446">
        <ele>0</ele>
      </trkpt>
      <trkpt lat="45.943322" lon="6.900562">
        <ele>0</ele>
      </trkpt>
      <trkpt lat="45.9432066" lon="6.9002133">
        <ele>0</ele>
      </trkpt>
      <trkpt lat="45.9430839" lon="6.8997671">
        <ele>0</ele>
      </trkpt>
      <trkpt lat="45.9427823" lon="6.8995644">
        <ele>0</ele>
      </trkpt>
      <trkpt lat="45.9427063" lon="6.8993562">
        <ele>0</ele>
      </trkpt>
      <trkpt lat="45.9425421" lon="6.8992375">
        <ele>0</ele>
      </trkpt>
      <trkpt lat="45.9422574" lon="6.8991735">
        <ele>0</ele>
      </trkpt>
      <trkpt lat="45.9421277" lon="6.8991788">
        <ele>0</ele>
      </trkpt>
      <trkpt lat="45.9420111" lon="6.8991368">
        <ele>0</ele>
      </trkpt>
      <trkpt lat="45.9418433" lon="6.8991067">
        <ele>0</ele>
      </trkpt>
      <trkpt lat="45.9417277" lon="6.8990405">
        <ele>0</ele>
      </trkpt>
      <trkpt lat="45.9415132" lon="6.8991484">
        <ele>0</ele>
      </trkpt>
      <trkpt lat="45.9412592" lon="6.8989648">
        <ele>0</ele>
      </trkpt>
      <trkpt lat="45.941074" lon="6.898852">
        <ele>0</ele>
      </trkpt>
      <trkpt lat="45.9409037" lon="6.8986644">
        <ele>0</ele>
      </trkpt>
      <trkpt lat="45.9408137" lon="6.89852">
        <ele>0</ele>
      </trkpt>
      <trkpt lat="45.9407139" lon="6.8983696">
        <ele>0</ele>
      </trkpt>
      <trkpt lat="45.9406107" lon="6.8982463">
        <ele>0</ele>
      </trkpt>
      <trkpt lat="45.9404422" lon="6.8980798">
        <ele>0</ele>
      </trkpt>
      <trkpt lat="45.9402968" lon="6.8978973">
        <ele>0</ele>
      </trkpt>
      <trkpt lat="45.9401905" lon="6.8978093">
        <ele>0</ele>
      </trkpt>
      <trkpt lat="45.9401114" lon="6.897696">
        <ele>0</ele>
      </trkpt>
      <trkpt lat="45.9400566" lon="6.897659">
        <ele>0</ele>
      </trkpt>
      <trkpt lat="45.9399735" lon="6.8976287">
        <ele>0</ele>
      </trkpt>
      <trkpt lat="45.9398003" lon="6.8974477">
        <ele>0</ele>
      </trkpt>
      <trkpt lat="45.9395338" lon="6.8970781">
        <ele>0</ele>
      </trkpt>
      <trkpt lat="45.9393152" lon="6.8968617">
        <ele>0</ele>
      </trkpt>
      <trkpt lat="45.9391417" lon="6.8966939">
        <ele>0</ele>
      </trkpt>
      <trkpt lat="45.9389983" lon="6.8964801">
        <ele>0</ele>
      </trkpt>
      <trkpt lat="45.9387737" lon="6.8963242">
        <ele>0</ele>
      </trkpt>
      <trkpt lat="45.9386009" lon="6.8961403">
        <ele>0</ele>
      </trkpt>
      <trkpt lat="45.9384357" lon="6.8959085">
        <ele>0</ele>
      </trkpt>
      <trkpt lat="45.9382897" lon="6.8955272">
        <ele>0</ele>
      </trkpt>
      <trkpt lat="45.9377866" lon="6.8958283">
        <ele>0</ele>
      </trkpt>
      <trkpt lat="45.93752" lon="6.8960147">
        <ele>0</ele>
      </trkpt>
      <trkpt lat="45.9373606" lon="6.896029">
        <ele>0</ele>
      </trkpt>
      <trkpt lat="45.9370144" lon="6.8954798">
        <ele>0</ele>
      </trkpt>
      <trkpt lat="45.9367285" lon="6.8952256">
        <ele>0</ele>
      </trkpt>
      <trkpt lat="45.9360338" lon="6.8945852">
        <ele>0</ele>
      </trkpt>
      <trkpt lat="45.9360488" lon="6.8930911">
        <ele>0</ele>
      </trkpt>
      <trkpt lat="45.9357023" lon="6.8926448">
        <ele>0</ele>
      </trkpt>
      <trkpt lat="45.9352436" lon="6.8918652">
        <ele>0</ele>
      </trkpt>
      <trkpt lat="45.9347796" lon="6.8911134">
        <ele>0</ele>
      </trkpt>
      <trkpt lat="45.934588" lon="6.8905695">
        <ele>0</ele>
      </trkpt>
      <trkpt lat="45.93453" lon="6.8901002">
        <ele>0</ele>
      </trkpt>
      <trkpt lat="45.9345159" lon="6.8896785">
        <ele>0</ele>
      </trkpt>
      <trkpt lat="45.9345026" lon="6.8892194">
        <ele>0</ele>
      </trkpt>
      <trkpt lat="45.934565" lon="6.8888833">
        <ele>0</ele>
      </trkpt>
      <trkpt lat="45.9342488" lon="6.8885092">
        <ele>0</ele>
      </trkpt>
      <trkpt lat="45.9340726" lon="6.888178">
        <ele>0</ele>
      </trkpt>
      <trkpt lat="45.9339266" lon="6.8879308">
        <ele>0</ele>
      </trkpt>
      <trkpt lat="45.9337754" lon="6.8875708">
        <ele>0</ele>
      </trkpt>
      <trkpt lat="45.9335836" lon="6.8871019">
        <ele>0</ele>
      </trkpt>
      <trkpt lat="45.9333951" lon="6.886795">
        <ele>0</ele>
      </trkpt>
      <trkpt lat="45.9331696" lon="6.886079">
        <ele>0</ele>
      </trkpt>
      <trkpt lat="45.9329591" lon="6.8857048">
        <ele>0</ele>
      </trkpt>
      <trkpt lat="45.9328342" lon="6.8853242">
        <ele>0</ele>
      </trkpt>
      <trkpt lat="45.9326897" lon="6.8851234">
        <ele>0</ele>
      </trkpt>
      <trkpt lat="45.9324823" lon="6.884877">
        <ele>0</ele>
      </trkpt>
      <trkpt lat="45.9322738" lon="6.8839381">
        <ele>0</ele>
      </trkpt>
      <trkpt lat="45.9321683" lon="6.8834868">
        <ele>0</ele>
      </trkpt>
      <trkpt lat="45.9318295" lon="6.8828956">
        <ele>0</ele>
      </trkpt>
      <trkpt lat="45.931669" lon="6.8826213">
        <ele>0</ele>
      </trkpt>
      <trkpt lat="45.931535" lon="6.8821897">
        <ele>0</ele>
      </trkpt>
      <trkpt lat="45.9313807" lon="6.8814405">
        <ele>0</ele>
      </trkpt>
      <trkpt lat="45.9311669" lon="6.8809366">
        <ele>0</ele>
      </trkpt>
      <trkpt lat="45.9310616" lon="6.8805817">
        <ele>0</ele>
      </trkpt>
      <trkpt lat="45.9308874" lon="6.8803016">
        <ele>0</ele>
      </trkpt>
      <trkpt lat="45.9307783" lon="6.8800178">
        <ele>0</ele>
      </trkpt>
      <trkpt lat="45.9306597" lon="6.8797064">
        <ele>0</ele>
      </trkpt>
      <trkpt lat="45.9305531" lon="6.8793708">
        <ele>0</ele>
      </trkpt>
      <trkpt lat="45.9304812" lon="6.8789061">
        <ele>0</ele>
      </trkpt>
      <trkpt lat="45.9303473" lon="6.8784971">
        <ele>0</ele>
      </trkpt>
      <trkpt lat="45.9301717" lon="6.8780774">
        <ele>0</ele>
      </trkpt>
      <trkpt lat="45.9298874" lon="6.8779604">
        <ele>0</ele>
      </trkpt>
      <trkpt lat="45.9295849" lon="6.8776393">
        <ele>0</ele>
      </trkpt>
      <trkpt lat="45.9294427" lon="6.8770791">
        <ele>0</ele>
      </trkpt>
    </trkseg>
  </trk>
</gpx>
