<?xml version="1.0" encoding="UTF-8"?>
<gpx version="1.1" creator="TrailCompareMVP" xmlns="http://www.topografix.com/GPX/1/1">
  <trk>
    <trkseg>
      <trkpt lat="45.92359" lon="6.869148">
        <ele>1060</ele>
      </trkpt>
      <trkpt lat="45.923608" lon="6.869077">
        <ele>1061</ele>
      </trkpt>
      <trkpt lat="45.92364" lon="6.869025">
        <ele>1061</ele>
      </trkpt>
      <trkpt lat="45.923656" lon="6.868964">
        <ele>1061</ele>
      </trkpt>
      <trkpt lat="45.923708" lon="6.868857">
        <ele>1062</ele>
      </trkpt>
      <trkpt lat="45.923791079" lon="6.86858517">
        <ele>1038</ele>
      </trkpt>
      <trkpt lat="45.923817746" lon="6.868482457">
        <ele>1038</ele>
      </trkpt>
      <trkpt lat="45.923952799" lon="6.868485555">
        <ele>1039</ele>
      </trkpt>
      <trkpt lat="45.924091957" lon="6.86824687">
        <ele>1040</ele>
      </trkpt>
      <trkpt lat="45.924178972" lon="6.868044227">
        <ele>1041</ele>
      </trkpt>
      <trkpt lat="45.924272896" lon="6.867809871">
        <ele>1043</ele>
      </trkpt>
      <trkpt lat="45.924272466" lon="6.867680703">
        <ele>1044</ele>
      </trkpt>
      <trkpt lat="45.924288228" lon="6.867569016">
        <ele>1045</ele>
      </trkpt>
      <trkpt lat="45.9243109" lon="6.867425617">
        <ele>1047</ele>
      </trkpt>
      <trkpt lat="45.924325367" lon="6.867346105">
        <ele>1047</ele>
      </trkpt>
      <trkpt lat="45.924335191" lon="6.867241997">
        <ele>1048</ele>
      </trkpt>
      <trkpt lat="45.924270094" lon="6.86718012">
        <ele>1049</ele>
      </trkpt>
      <trkpt lat="45.924086785" lon="6.86711654">
        <ele>1049</ele>
      </trkpt>
      <trkpt lat="45.923945687" lon="6.866983814">
        <ele>1050</ele>
      </trkpt>
      <trkpt lat="45.923747588" lon="6.867007791">
        <ele>1049</ele>
      </trkpt>
      <trkpt lat="45.923524" lon="6.866844">
        <ele>1074</ele>
      </trkpt>
      <trkpt lat="45.923529" lon="6.866773">
        <ele>1075</ele>
      </trkpt>
      <trkpt lat="45.923558" lon="6.866665">
        <ele>1075</ele>
      </trkpt>
      <trkpt lat="45.923564" lon="6.866592">
        <ele>1076</ele>
      </trkpt>
      <trkpt lat="45.923551" lon="6.866513">
        <ele>1077</ele>
      </trkpt>
      <trkpt lat="45.92355" lon="6.866342">
        <ele>1078</ele>
      </trkpt>
      <trkpt lat="45.923573" lon="6.866126">
        <ele>1080</ele>
      </trkpt>
      <trkpt lat="45.923596" lon="6.866046">
        <ele>1081</ele>
      </trkpt>
      <trkpt lat="45.923598" lon="6.865902">
        <ele>1083</ele>
      </trkpt>
      <trkpt lat="45.923632" lon="6.865771">
        <ele>1084</ele>
      </trkpt>
      <trkpt lat="45.923632" lon="6.86566">
        <ele>1085</ele>
      </trkpt>
      <trkpt lat="45.92366" lon="6.865533">
        <ele>1086</ele>
      </trkpt>
      <trkpt lat="45.923673" lon="6.865385">
        <ele>1088</ele>
      </trkpt>
      <trkpt lat="45.923699" lon="6.865272">
        <ele>1089</ele>
      </trkpt>
      <trkpt lat="45.923715" lon="6.86526">
        <ele>1090</ele>
      </trkpt>
      <trkpt lat="45.923725" lon="6.865132">
        <ele>1091</ele>
      </trkpt>
      <trkpt lat="45.92376" lon="6.865011">
        <ele>1093</ele>
      </trkpt>
      <trkpt lat="45.923771" lon="6.864837">
        <ele>1094</ele>
      </trkpt>
      <trkpt lat="45.923812" lon="6.864678">
        <ele>1097</ele>
      </trkpt>
      <trkpt lat="45.92381" lon="6.864608">
        <ele>1097</ele>
      </trkpt>
      <trkpt lat="45.923828" lon="6.864457">
        <ele>1099</ele>
      </trkpt>
      <trkpt lat="45.923866" lon="6.86427">
        <ele>1101</ele>
      </trkpt>
      <trkpt lat="45.923902" lon="6.864101">
        <ele>1103</ele>
      </trkpt>
      <trkpt lat="45.923911" lon="6.863957">
        <ele>1105</ele>
      </trkpt>
      <trkpt lat="45.923896" lon="6.86388">
        <ele>1106</ele>
      </trkpt>
      <trkpt lat="45.923756" lon="6.863622">
        <ele>1109</ele>
      </trkpt>
      <trkpt lat="45.923753" lon="6.863559">
        <ele>1110</ele>
      </trkpt>
      <trkpt lat="45.923763" lon="6.863482">
        <ele>1111</ele>
      </trkpt>
      <trkpt lat="45.923811" lon="6.863368">
        <ele>1112</ele>
      </trkpt>
      <trkpt lat="45.923805" lon="6.863345">
        <ele>1113</ele>
      </trkpt>
      <trkpt lat="45.923854" lon="6.863157">
        <ele>1115</ele>
      </trkpt>
      <trkpt lat="45.923874" lon="6.863113">
        <ele>1116</ele>
      </trkpt>
      <trkpt lat="45.923894" lon="6.863105">
        <ele>1117</ele>
      </trkpt>
      <trkpt lat="45.924016" lon="6.862936">
        <ele>1121</ele>
      </trkpt>
      <trkpt lat="45.924074" lon="6.862813">
        <ele>1122</ele>
      </trkpt>
      <trkpt lat="45.924094" lon="6.862795">
        <ele>1122</ele>
      </trkpt>
      <trkpt lat="45.924188" lon="6.86263">
        <ele>1125</ele>
      </trkpt>
      <trkpt lat="45.924225" lon="6.862613">
        <ele>1125</ele>
      </trkpt>
      <trkpt lat="45.924287" lon="6.862539">
        <ele>1127</ele>
      </trkpt>
      <trkpt lat="45.924296" lon="6.862451">
        <ele>1129</ele>
      </trkpt>
      <trkpt lat="45.924313" lon="6.862425">
        <ele>1129</ele>
      </trkpt>
      <trkpt lat="45.924352" lon="6.862303">
        <ele>1131</ele>
      </trkpt>
      <trkpt lat="45.924387" lon="6.862048">
        <ele>1134</ele>
      </trkpt>
      <trkpt lat="45.924413" lon="6.86196">
        <ele>1135</ele>
      </trkpt>
      <trkpt lat="45.924451" lon="6.861893">
        <ele>1136</ele>
      </trkpt>
      <trkpt lat="45.924583" lon="6.861722">
        <ele>1139</ele>
      </trkpt>
      <trkpt lat="45.924858" lon="6.861491">
        <ele>1143</ele>
      </trkpt>
      <trkpt lat="45.924944" lon="6.861458">
        <ele>1145</ele>
      </trkpt>
      <trkpt lat="45.925013" lon="6.861485">
        <ele>1146</ele>
      </trkpt>
      <trkpt lat="45.925142" lon="6.861358">
        <ele>1146</ele>
      </trkpt>
      <trkpt lat="45.92521" lon="6.861248">
        <ele>1148</ele>
      </trkpt>
      <trkpt lat="45.925243" lon="6.861217">
        <ele>1149</ele>
      </trkpt>
      <trkpt lat="45.92529" lon="6.861145">
        <ele>1151</ele>
      </trkpt>
      <trkpt lat="45.925321" lon="6.861084">
        <ele>1152</ele>
      </trkpt>
      <trkpt lat="45.925379" lon="6.861018">
        <ele>1154</ele>
      </trkpt>
      <trkpt lat="45.925416" lon="6.861034">
        <ele>1154</ele>
      </trkpt>
      <trkpt lat="45.925464" lon="6.861029">
        <ele>1155</ele>
      </trkpt>
      <trkpt lat="45.925522" lon="6.861044">
        <ele>1156</ele>
      </trkpt>
      <trkpt lat="45.925594" lon="6.861098">
        <ele>1158</ele>
      </trkpt>
      <trkpt lat="45.925646" lon="6.861116">
        <ele>1158</ele>
      </trkpt>
      <trkpt lat="45.925753" lon="6.86122">
        <ele>1160</ele>
      </trkpt>
      <trkpt lat="45.925946" lon="6.861411">
        <ele>1164</ele>
      </trkpt>
      <trkpt lat="45.925993" lon="6.861439">
        <ele>1165</ele>
      </trkpt>
      <trkpt lat="45.926062" lon="6.861429">
        <ele>1168</ele>
      </trkpt>
      <trkpt lat="45.926021" lon="6.861338">
        <ele>1170</ele>
      </trkpt>
      <trkpt lat="45.926028" lon="6.861306">
        <ele>1170</ele>
      </trkpt>
      <trkpt lat="45.926047" lon="6.861288">
        <ele>1171</ele>
      </trkpt>
      <trkpt lat="45.926171" lon="6.861342">
        <ele>1175</ele>
      </trkpt>
      <trkpt lat="45.926167" lon="6.861281">
        <ele>1176</ele>
      </trkpt>
      <trkpt lat="45.926157" lon="6.861223">
        <ele>1178</ele>
      </trkpt>
      <trkpt lat="45.926195" lon="6.861271">
        <ele>1180</ele>
      </trkpt>
      <trkpt lat="45.926256" lon="6.861303">
        <ele>1181</ele>
      </trkpt>
      <trkpt lat="45.926284" lon="6.861305">
        <ele>1182</ele>
      </trkpt>
      <trkpt lat="45.926266" lon="6.86119">
        <ele>1184</ele>
      </trkpt>
      <trkpt lat="45.926268" lon="6.861131">
        <ele>1185</ele>
      </trkpt>
      <trkpt lat="45.926258" lon="6.861109">
        <ele>1186</ele>
      </trkpt>
      <trkpt lat="45.926264" lon="6.861045">
        <ele>1187</ele>
      </trkpt>
      <trkpt lat="45.926414" lon="6.861167">
        <ele>1192</ele>
      </trkpt>
      <trkpt lat="45.926431" lon="6.861151">
        <ele>1192</ele>
      </trkpt>
      <trkpt lat="45.926424" lon="6.861119">
        <ele>1193</ele>
      </trkpt>
      <trkpt lat="45.92643" lon="6.861037">
        <ele>1194</ele>
      </trkpt>
      <trkpt lat="45.926409" lon="6.860984">
        <ele>1195</ele>
      </trkpt>
      <trkpt lat="45.926424" lon="6.860968">
        <ele>1196</ele>
      </trkpt>
      <trkpt lat="45.926551" lon="6.861051">
        <ele>1200</ele>
      </trkpt>
      <trkpt lat="45.926541" lon="6.860937">
        <ele>1202</ele>
      </trkpt>
      <trkpt lat="45.926547" lon="6.860883">
        <ele>1203</ele>
      </trkpt>
      <trkpt lat="45.926571" lon="6.860855">
        <ele>1204</ele>
      </trkpt>
      <trkpt lat="45.926611" lon="6.860887">
        <ele>1205</ele>
      </trkpt>
      <trkpt lat="45.92664" lon="6.860894">
        <ele>1206</ele>
      </trkpt>
      <trkpt lat="45.926654" lon="6.860878">
        <ele>1207</ele>
      </trkpt>
      <trkpt lat="45.926649" lon="6.8608">
        <ele>1209</ele>
      </trkpt>
      <trkpt lat="45.926665" lon="6.860726">
        <ele>1210</ele>
      </trkpt>
      <trkpt lat="45.926678" lon="6.860691">
        <ele>1211</ele>
      </trkpt>
      <trkpt lat="45.926798" lon="6.86078">
        <ele>1217</ele>
      </trkpt>
      <trkpt lat="45.926791" lon="6.86069">
        <ele>1220</ele>
      </trkpt>
      <trkpt lat="45.9268" lon="6.860668">
        <ele>1220</ele>
      </trkpt>
      <trkpt lat="45.926879" lon="6.860716">
        <ele>1222</ele>
      </trkpt>
      <trkpt lat="45.926888" lon="6.860708">
        <ele>1222</ele>
      </trkpt>
      <trkpt lat="45.926868" lon="6.860632">
        <ele>1225</ele>
      </trkpt>
      <trkpt lat="45.926882" lon="6.860587">
        <ele>1226</ele>
      </trkpt>
      <trkpt lat="45.926953" lon="6.86064">
        <ele>1227</ele>
      </trkpt>
      <trkpt lat="45.926944" lon="6.860549">
        <ele>1230</ele>
      </trkpt>
      <trkpt lat="45.92696" lon="6.86054">
        <ele>1231</ele>
      </trkpt>
      <trkpt lat="45.926979" lon="6.860571">
        <ele>1232</ele>
      </trkpt>
      <trkpt lat="45.92704" lon="6.860621">
        <ele>1233</ele>
      </trkpt>
      <trkpt lat="45.927044" lon="6.860608">
        <ele>1233</ele>
      </trkpt>
      <trkpt lat="45.927036" lon="6.860486">
        <ele>1237</ele>
      </trkpt>
      <trkpt lat="45.927044" lon="6.860469">
        <ele>1237</ele>
      </trkpt>
      <trkpt lat="45.927066" lon="6.860466">
        <ele>1238</ele>
      </trkpt>
      <trkpt lat="45.927145" lon="6.860537">
        <ele>1240</ele>
      </trkpt>
      <trkpt lat="45.927161" lon="6.860528">
        <ele>1241</ele>
      </trkpt>
      <trkpt lat="45.92715" lon="6.860461">
        <ele>1242</ele>
      </trkpt>
      <trkpt lat="45.927155" lon="6.860438">
        <ele>1243</ele>
      </trkpt>
      <trkpt lat="45.927183" lon="6.860452">
        <ele>1244</ele>
      </trkpt>
      <trkpt lat="45.927194" lon="6.860403">
        <ele>1246</ele>
      </trkpt>
      <trkpt lat="45.927205" lon="6.860293">
        <ele>1248</ele>
      </trkpt>
      <trkpt lat="45.927216" lon="6.860285">
        <ele>1249</ele>
      </trkpt>
      <trkpt lat="45.927238" lon="6.860301">
        <ele>1250</ele>
      </trkpt>
      <trkpt lat="45.927277" lon="6.860387">
        <ele>1252</ele>
      </trkpt>
      <trkpt lat="45.927287" lon="6.860383">
        <ele>1252</ele>
      </trkpt>
      <trkpt lat="45.927285" lon="6.860297">
        <ele>1254</ele>
      </trkpt>
      <trkpt lat="45.927306" lon="6.860257">
        <ele>1254</ele>
      </trkpt>
      <trkpt lat="45.927333" lon="6.86027">
        <ele>1256</ele>
      </trkpt>
      <trkpt lat="45.927383" lon="6.860344">
        <ele>1257</ele>
      </trkpt>
      <trkpt lat="45.927402" lon="6.860338">
        <ele>1258</ele>
      </trkpt>
      <trkpt lat="45.927394" lon="6.860261">
        <ele>1260</ele>
      </trkpt>
      <trkpt lat="45.9274" lon="6.860096">
        <ele>1264</ele>
      </trkpt>
      <trkpt lat="45.927411" lon="6.860082">
        <ele>1265</ele>
      </trkpt>
      <trkpt lat="45.927425" lon="6.860093">
        <ele>1266</ele>
      </trkpt>
      <trkpt lat="45.927476" lon="6.86016">
        <ele>1270</ele>
      </trkpt>
      <trkpt lat="45.927515" lon="6.860187">
        <ele>1271</ele>
      </trkpt>
      <trkpt lat="45.927513" lon="6.860053">
        <ele>1273</ele>
      </trkpt>
      <trkpt lat="45.927525" lon="6.859961">
        <ele>1275</ele>
      </trkpt>
      <trkpt lat="45.927533" lon="6.859936">
        <ele>1277</ele>
      </trkpt>
      <trkpt lat="45.92755" lon="6.859925">
        <ele>1278</ele>
      </trkpt>
      <trkpt lat="45.92756" lon="6.859941">
        <ele>1278</ele>
      </trkpt>
      <trkpt lat="45.927563" lon="6.859967">
        <ele>1279</ele>
      </trkpt>
      <trkpt lat="45.927634" lon="6.860063">
        <ele>1283</ele>
      </trkpt>
      <trkpt lat="45.927673" lon="6.860087">
        <ele>1284</ele>
      </trkpt>
      <trkpt lat="45.927649" lon="6.860017">
        <ele>1285</ele>
      </trkpt>
      <trkpt lat="45.927654" lon="6.859934">
        <ele>1287</ele>
      </trkpt>
      <trkpt lat="45.927645" lon="6.859909">
        <ele>1288</ele>
      </trkpt>
      <trkpt lat="45.927645" lon="6.859841">
        <ele>1289</ele>
      </trkpt>
      <trkpt lat="45.927674" lon="6.859816">
        <ele>1291</ele>
      </trkpt>
      <trkpt lat="45.927769" lon="6.859954">
        <ele>1296</ele>
      </trkpt>
      <trkpt lat="45.927783" lon="6.859934">
        <ele>1297</ele>
      </trkpt>
      <trkpt lat="45.927799" lon="6.859743">
        <ele>1300</ele>
      </trkpt>
      <trkpt lat="45.927809" lon="6.85973">
        <ele>1301</ele>
      </trkpt>
      <trkpt lat="45.927834" lon="6.859748">
        <ele>1304</ele>
      </trkpt>
      <trkpt lat="45.927876" lon="6.859837">
        <ele>1306</ele>
      </trkpt>
      <trkpt lat="45.927882" lon="6.859828">
        <ele>1307</ele>
      </trkpt>
      <trkpt lat="45.927871" lon="6.859744">
        <ele>1308</ele>
      </trkpt>
      <trkpt lat="45.927875" lon="6.859651">
        <ele>1310</ele>
      </trkpt>
      <trkpt lat="45.927891" lon="6.859606">
        <ele>1311</ele>
      </trkpt>
      <trkpt lat="45.927901" lon="6.859599">
        <ele>1311</ele>
      </trkpt>
      <trkpt lat="45.927934" lon="6.85964">
        <ele>1313</ele>
      </trkpt>
      <trkpt lat="45.927945" lon="6.859676">
        <ele>1314</ele>
      </trkpt>
      <trkpt lat="45.927957" lon="6.85968">
        <ele>1315</ele>
      </trkpt>
      <trkpt lat="45.927953" lon="6.859696">
        <ele>1316</ele>
      </trkpt>
      <trkpt lat="45.92797" lon="6.859713">
        <ele>1317</ele>
      </trkpt>
      <trkpt lat="45.927968" lon="6.859691">
        <ele>1318</ele>
      </trkpt>
      <trkpt lat="45.928016" lon="6.859673">
        <ele>1320</ele>
      </trkpt>
      <trkpt lat="45.928016" lon="6.859504">
        <ele>1322</ele>
      </trkpt>
      <trkpt lat="45.928024" lon="6.859478">
        <ele>1322</ele>
      </trkpt>
      <trkpt lat="45.928081" lon="6.859541">
        <ele>1326</ele>
      </trkpt>
      <trkpt lat="45.928114" lon="6.859617">
        <ele>1329</ele>
      </trkpt>
      <trkpt lat="45.928125" lon="6.859623">
        <ele>1329</ele>
      </trkpt>
      <trkpt lat="45.928135" lon="6.859544">
        <ele>1333</ele>
      </trkpt>
      <trkpt lat="45.928201" lon="6.85959">
        <ele>1335</ele>
      </trkpt>
      <trkpt lat="45.928212" lon="6.859586">
        <ele>1336</ele>
      </trkpt>
      <trkpt lat="45.928216" lon="6.859503">
        <ele>1339</ele>
      </trkpt>
      <trkpt lat="45.928245" lon="6.859334">
        <ele>1343</ele>
      </trkpt>
      <trkpt lat="45.928277" lon="6.859228">
        <ele>1346</ele>
      </trkpt>
      <trkpt lat="45.928285" lon="6.859226">
        <ele>1346</ele>
      </trkpt>
      <trkpt lat="45.928302" lon="6.859263">
        <ele>1347</ele>
      </trkpt>
      <trkpt lat="45.928418" lon="6.859304">
        <ele>1351</ele>
      </trkpt>
      <trkpt lat="45.928397" lon="6.859242">
        <ele>1353</ele>
      </trkpt>
      <trkpt lat="45.928394" lon="6.859176">
        <ele>1356</ele>
      </trkpt>
      <trkpt lat="45.928416" lon="6.859096">
        <ele>1358</ele>
      </trkpt>
      <trkpt lat="45.928433" lon="6.859097">
        <ele>1359</ele>
      </trkpt>
      <trkpt lat="45.928454" lon="6.859133">
        <ele>1359</ele>
      </trkpt>
      <trkpt lat="45.928501" lon="6.859175">
        <ele>1362</ele>
      </trkpt>
      <trkpt lat="45.928556" lon="6.859199">
        <ele>1363</ele>
      </trkpt>
      <trkpt lat="45.928561" lon="6.859185">
        <ele>1363</ele>
      </trkpt>
      <trkpt lat="45.928538" lon="6.859041">
        <ele>1367</ele>
      </trkpt>
      <trkpt lat="45.928545" lon="6.859036">
        <ele>1368</ele>
      </trkpt>
      <trkpt lat="45.928587" lon="6.859069">
        <ele>1369</ele>
      </trkpt>
      <trkpt lat="45.928702" lon="6.859078">
        <ele>1371</ele>
      </trkpt>
      <trkpt lat="45.928752" lon="6.859104">
        <ele>1376</ele>
      </trkpt>
      <trkpt lat="45.928691" lon="6.858928">
        <ele>1379</ele>
      </trkpt>
      <trkpt lat="45.928704" lon="6.858879">
        <ele>1381</ele>
      </trkpt>
      <trkpt lat="45.92873" lon="6.858872">
        <ele>1381</ele>
      </trkpt>
      <trkpt lat="45.928893" lon="6.858931">
        <ele>1387</ele>
      </trkpt>
      <trkpt lat="45.928852" lon="6.858829">
        <ele>1390</ele>
      </trkpt>
      <trkpt lat="45.928841" lon="6.858779">
        <ele>1391</ele>
      </trkpt>
      <trkpt lat="45.928853" lon="6.858675">
        <ele>1394</ele>
      </trkpt>
      <trkpt lat="45.928909" lon="6.858678">
        <ele>1397</ele>
      </trkpt>
      <trkpt lat="45.92895" lon="6.858711">
        <ele>1398</ele>
      </trkpt>
      <trkpt lat="45.929026" lon="6.858734">
        <ele>1401</ele>
      </trkpt>
      <trkpt lat="45.928984" lon="6.858561">
        <ele>1408</ele>
      </trkpt>
      <trkpt lat="45.928984" lon="6.858537">
        <ele>1408</ele>
      </trkpt>
      <trkpt lat="45.928996" lon="6.858534">
        <ele>1409</ele>
      </trkpt>
      <trkpt lat="45.929182" lon="6.85857">
        <ele>1416</ele>
      </trkpt>
      <trkpt lat="45.929188" lon="6.858565">
        <ele>1416</ele>
      </trkpt>
      <trkpt lat="45.92918" lon="6.858537">
        <ele>1417</ele>
      </trkpt>
      <trkpt lat="45.929212" lon="6.858506">
        <ele>1419</ele>
      </trkpt>
      <trkpt lat="45.929248" lon="6.858501">
        <ele>1420</ele>
      </trkpt>
      <trkpt lat="45.929272" lon="6.858508">
        <ele>1422</ele>
      </trkpt>
      <trkpt lat="45.929319" lon="6.858541">
        <ele>1425</ele>
      </trkpt>
      <trkpt lat="45.929324" lon="6.858526">
        <ele>1426</ele>
      </trkpt>
      <trkpt lat="45.929299" lon="6.858486">
        <ele>1427</ele>
      </trkpt>
      <trkpt lat="45.92927" lon="6.858362">
        <ele>1432</ele>
      </trkpt>
      <trkpt lat="45.929245" lon="6.858315">
        <ele>1433</ele>
      </trkpt>
      <trkpt lat="45.929258" lon="6.858331">
        <ele>1434</ele>
      </trkpt>
      <trkpt lat="45.929325" lon="6.858352">
        <ele>1436</ele>
      </trkpt>
      <trkpt lat="45.929454" lon="6.858309">
        <ele>1441</ele>
      </trkpt>
      <trkpt lat="45.929539" lon="6.858337">
        <ele>1444</ele>
      </trkpt>
      <trkpt lat="45.929509" lon="6.858217">
        <ele>1447</ele>
      </trkpt>
      <trkpt lat="45.92951" lon="6.858206">
        <ele>1448</ele>
      </trkpt>
      <trkpt lat="45.929502" lon="6.858201">
        <ele>1448</ele>
      </trkpt>
      <trkpt lat="45.929508" lon="6.858187">
        <ele>1449</ele>
      </trkpt>
      <trkpt lat="45.929526" lon="6.858187">
        <ele>1449</ele>
      </trkpt>
      <trkpt lat="45.929653" lon="6.858249">
        <ele>1455</ele>
      </trkpt>
      <trkpt lat="45.929631" lon="6.858103">
        <ele>1458</ele>
      </trkpt>
      <trkpt lat="45.929615" lon="6.858053">
        <ele>1459</ele>
      </trkpt>
      <trkpt lat="45.929596" lon="6.85803">
        <ele>1460</ele>
      </trkpt>
      <trkpt lat="45.929625" lon="6.858026">
        <ele>1462</ele>
      </trkpt>
      <trkpt lat="45.929661" lon="6.858053">
        <ele>1464</ele>
      </trkpt>
      <trkpt lat="45.929737" lon="6.858074">
        <ele>1467</ele>
      </trkpt>
      <trkpt lat="45.929809" lon="6.858112">
        <ele>1469</ele>
      </trkpt>
      <trkpt lat="45.929822" lon="6.8581">
        <ele>1470</ele>
      </trkpt>
      <trkpt lat="45.929796" lon="6.85804">
        <ele>1471</ele>
      </trkpt>
      <trkpt lat="45.929768" lon="6.857992">
        <ele>1473</ele>
      </trkpt>
      <trkpt lat="45.929739" lon="6.857988">
        <ele>1473</ele>
      </trkpt>
      <trkpt lat="45.929734" lon="6.857979">
        <ele>1474</ele>
      </trkpt>
      <trkpt lat="45.929744" lon="6.857967">
        <ele>1476</ele>
      </trkpt>
      <trkpt lat="45.929841" lon="6.858007">
        <ele>1478</ele>
      </trkpt>
      <trkpt lat="45.929885" lon="6.858004">
        <ele>1479</ele>
      </trkpt>
      <trkpt lat="45.929933" lon="6.858032">
        <ele>1482</ele>
      </trkpt>
      <trkpt lat="45.929937" lon="6.858004">
        <ele>1482</ele>
      </trkpt>
      <trkpt lat="45.929903" lon="6.857966">
        <ele>1483</ele>
      </trkpt>
      <trkpt lat="45.929898" lon="6.857941">
        <ele>1484</ele>
      </trkpt>
      <trkpt lat="45.929854" lon="6.857918">
        <ele>1484</ele>
      </trkpt>
      <trkpt lat="45.929847" lon="6.85789">
        <ele>1484</ele>
      </trkpt>
      <trkpt lat="45.929876" lon="6.85788">
        <ele>1486</ele>
      </trkpt>
      <trkpt lat="45.929938" lon="6.857891">
        <ele>1489</ele>
      </trkpt>
      <trkpt lat="45.929993" lon="6.857943">
        <ele>1491</ele>
      </trkpt>
      <trkpt lat="45.929981" lon="6.857862">
        <ele>1493</ele>
      </trkpt>
      <trkpt lat="45.929954" lon="6.857829">
        <ele>1495</ele>
      </trkpt>
      <trkpt lat="45.929961" lon="6.857817">
        <ele>1494</ele>
      </trkpt>
      <trkpt lat="45.929993" lon="6.857803">
        <ele>1495</ele>
      </trkpt>
      <trkpt lat="45.930057" lon="6.857828">
        <ele>1497</ele>
      </trkpt>
      <trkpt lat="45.93011" lon="6.857815">
        <ele>1501</ele>
      </trkpt>
      <trkpt lat="45.930147" lon="6.857823">
        <ele>1503</ele>
      </trkpt>
      <trkpt lat="45.930137" lon="6.857815">
        <ele>1504</ele>
      </trkpt>
      <trkpt lat="45.930144" lon="6.85776">
        <ele>1506</ele>
      </trkpt>
      <trkpt lat="45.930162" lon="6.857744">
        <ele>1506</ele>
      </trkpt>
      <trkpt lat="45.930216" lon="6.857759">
        <ele>1508</ele>
      </trkpt>
      <trkpt lat="45.930236" lon="6.857734">
        <ele>1510</ele>
      </trkpt>
      <trkpt lat="45.930187" lon="6.857645">
        <ele>1512</ele>
      </trkpt>
      <trkpt lat="45.930125" lon="6.857613">
        <ele>1515</ele>
      </trkpt>
      <trkpt lat="45.930182" lon="6.857609">
        <ele>1517</ele>
      </trkpt>
      <trkpt lat="45.930202" lon="6.857571">
        <ele>1518</ele>
      </trkpt>
      <trkpt lat="45.930227" lon="6.857562">
        <ele>1519</ele>
      </trkpt>
      <trkpt lat="45.930266" lon="6.857569">
        <ele>1521</ele>
      </trkpt>
      <trkpt lat="45.930282" lon="6.857586">
        <ele>1522</ele>
      </trkpt>
      <trkpt lat="45.930283" lon="6.857574">
        <ele>1522</ele>
      </trkpt>
      <trkpt lat="45.930249" lon="6.857525">
        <ele>1524</ele>
      </trkpt>
      <trkpt lat="45.930241" lon="6.857503">
        <ele>1525</ele>
      </trkpt>
      <trkpt lat="45.930304" lon="6.857535">
        <ele>1526</ele>
      </trkpt>
      <trkpt lat="45.930455" lon="6.857528">
        <ele>1530</ele>
      </trkpt>
      <trkpt lat="45.930538" lon="6.857484">
        <ele>1532</ele>
      </trkpt>
      <trkpt lat="45.930571" lon="6.857482">
        <ele>1535</ele>
      </trkpt>
      <trkpt lat="45.930544" lon="6.857453">
        <ele>1536</ele>
      </trkpt>
      <trkpt lat="45.930492" lon="6.857362">
        <ele>1540</ele>
      </trkpt>
      <trkpt lat="45.930507" lon="6.857321">
        <ele>1540</ele>
      </trkpt>
      <trkpt lat="45.930528" lon="6.857308">
        <ele>1542</ele>
      </trkpt>
      <trkpt lat="45.930576" lon="6.857315">
        <ele>1543</ele>
      </trkpt>
      <trkpt lat="45.930644" lon="6.857305">
        <ele>1545</ele>
      </trkpt>
      <trkpt lat="45.930678" lon="6.857298">
        <ele>1549</ele>
      </trkpt>
      <trkpt lat="45.930636" lon="6.857258">
        <ele>1549</ele>
      </trkpt>
      <trkpt lat="45.930728" lon="6.857234">
        <ele>1555</ele>
      </trkpt>
      <trkpt lat="45.930738" lon="6.857212">
        <ele>1556</ele>
      </trkpt>
      <trkpt lat="45.930706" lon="6.857177">
        <ele>1557</ele>
      </trkpt>
      <trkpt lat="45.930733" lon="6.857164">
        <ele>1558</ele>
      </trkpt>
      <trkpt lat="45.930775" lon="6.857192">
        <ele>1560</ele>
      </trkpt>
      <trkpt lat="45.930768" lon="6.857178">
        <ele>1561</ele>
      </trkpt>
      <trkpt lat="45.930697" lon="6.857156">
        <ele>1563</ele>
      </trkpt>
      <trkpt lat="45.930704" lon="6.857126">
        <ele>1563</ele>
      </trkpt>
      <trkpt lat="45.930753" lon="6.857115">
        <ele>1565</ele>
      </trkpt>
      <trkpt lat="45.930784" lon="6.857097">
        <ele>1567</ele>
      </trkpt>
      <trkpt lat="45.930808" lon="6.857099">
        <ele>1568</ele>
      </trkpt>
      <trkpt lat="45.930848" lon="6.85713">
        <ele>1569</ele>
      </trkpt>
      <trkpt lat="45.930867" lon="6.857128">
        <ele>1570</ele>
      </trkpt>
      <trkpt lat="45.93086" lon="6.857078">
        <ele>1572</ele>
      </trkpt>
      <trkpt lat="45.930831" lon="6.857032">
        <ele>1574</ele>
      </trkpt>
      <trkpt lat="45.930833" lon="6.857008">
        <ele>1575</ele>
      </trkpt>
      <trkpt lat="45.930854" lon="6.856992">
        <ele>1576</ele>
      </trkpt>
      <trkpt lat="45.930891" lon="6.857012">
        <ele>1578</ele>
      </trkpt>
      <trkpt lat="45.930919" lon="6.857009">
        <ele>1580</ele>
      </trkpt>
      <trkpt lat="45.930936" lon="6.856976">
        <ele>1582</ele>
      </trkpt>
      <trkpt lat="45.930952" lon="6.857012">
        <ele>1582</ele>
      </trkpt>
      <trkpt lat="45.931023" lon="6.857079">
        <ele>1585</ele>
      </trkpt>
      <trkpt lat="45.931023" lon="6.857053">
        <ele>1586</ele>
      </trkpt>
      <trkpt lat="45.931026" lon="6.857013">
        <ele>1586</ele>
      </trkpt>
      <trkpt lat="45.931044" lon="6.856975">
        <ele>1587</ele>
      </trkpt>
      <trkpt lat="45.931044" lon="6.85695">
        <ele>1588</ele>
      </trkpt>
      <trkpt lat="45.93103" lon="6.856929">
        <ele>1590</ele>
      </trkpt>
      <trkpt lat="45.931066" lon="6.856948">
        <ele>1593</ele>
      </trkpt>
      <trkpt lat="45.931101" lon="6.856942">
        <ele>1593</ele>
      </trkpt>
      <trkpt lat="45.931125" lon="6.856962">
        <ele>1594</ele>
      </trkpt>
      <trkpt lat="45.931161" lon="6.85695">
        <ele>1599</ele>
      </trkpt>
      <trkpt lat="45.931167" lon="6.856929">
        <ele>1600</ele>
      </trkpt>
      <trkpt lat="45.931199" lon="6.856962">
        <ele>1601</ele>
      </trkpt>
      <trkpt lat="45.931238" lon="6.85697">
        <ele>1604</ele>
      </trkpt>
      <trkpt lat="45.931215" lon="6.8569">
        <ele>1605</ele>
      </trkpt>
      <trkpt lat="45.931218" lon="6.856857">
        <ele>1606</ele>
      </trkpt>
      <trkpt lat="45.931205" lon="6.856805">
        <ele>1606</ele>
      </trkpt>
      <trkpt lat="45.931195" lon="6.856791">
        <ele>1607</ele>
      </trkpt>
      <trkpt lat="45.931202" lon="6.856769">
        <ele>1608</ele>
      </trkpt>
      <trkpt lat="45.931229" lon="6.856751">
        <ele>1609</ele>
      </trkpt>
      <trkpt lat="45.931307" lon="6.856782">
        <ele>1612</ele>
      </trkpt>
      <trkpt lat="45.931325" lon="6.856782">
        <ele>1614</ele>
      </trkpt>
      <trkpt lat="45.931319" lon="6.856761">
        <ele>1614</ele>
      </trkpt>
      <trkpt lat="45.931326" lon="6.856751">
        <ele>1614</ele>
      </trkpt>
      <trkpt lat="45.931391" lon="6.85677">
        <ele>1617</ele>
      </trkpt>
      <trkpt lat="45.931399" lon="6.856759">
        <ele>1617</ele>
      </trkpt>
      <trkpt lat="45.931359" lon="6.856697">
        <ele>1619</ele>
      </trkpt>
      <trkpt lat="45.931351" lon="6.856651">
        <ele>1620</ele>
      </trkpt>
      <trkpt lat="45.931325" lon="6.856585">
        <ele>1620</ele>
      </trkpt>
      <trkpt lat="45.93133" lon="6.856542">
        <ele>1624</ele>
      </trkpt>
      <trkpt lat="45.931359" lon="6.856563">
        <ele>1625</ele>
      </trkpt>
      <trkpt lat="45.931392" lon="6.856577">
        <ele>1625</ele>
      </trkpt>
      <trkpt lat="45.931398" lon="6.856585">
        <ele>1625</ele>
      </trkpt>
      <trkpt lat="45.931385" lon="6.856596">
        <ele>1626</ele>
      </trkpt>
      <trkpt lat="45.931394" lon="6.856584">
        <ele>1625</ele>
      </trkpt>
      <trkpt lat="45.931414" lon="6.8566">
        <ele>1626</ele>
      </trkpt>
      <trkpt lat="45.931455" lon="6.856572">
        <ele>1626</ele>
      </trkpt>
      <trkpt lat="45.931482" lon="6.856605">
        <ele>1628</ele>
      </trkpt>
      <trkpt lat="45.931498" lon="6.85667">
        <ele>1628</ele>
      </trkpt>
      <trkpt lat="45.931556" lon="6.856666">
        <ele>1629</ele>
      </trkpt>
      <trkpt lat="45.931583" lon="6.85668">
        <ele>1631</ele>
      </trkpt>
      <trkpt lat="45.931633" lon="6.856689">
        <ele>1631</ele>
      </trkpt>
      <trkpt lat="45.931723" lon="6.856693">
        <ele>1635</ele>
      </trkpt>
      <trkpt lat="45.93178" lon="6.856677">
        <ele>1638</ele>
      </trkpt>
      <trkpt lat="45.931801" lon="6.8567">
        <ele>1639</ele>
      </trkpt>
      <trkpt lat="45.931825" lon="6.856702">
        <ele>1640</ele>
      </trkpt>
      <trkpt lat="45.931789" lon="6.856633">
        <ele>1641</ele>
      </trkpt>
      <trkpt lat="45.931752" lon="6.856586">
        <ele>1644</ele>
      </trkpt>
      <trkpt lat="45.931797" lon="6.856557">
        <ele>1646</ele>
      </trkpt>
      <trkpt lat="45.931797" lon="6.856536">
        <ele>1647</ele>
      </trkpt>
      <trkpt lat="45.931835" lon="6.856558">
        <ele>1649</ele>
      </trkpt>
      <trkpt lat="45.931828" lon="6.856509">
        <ele>1651</ele>
      </trkpt>
      <trkpt lat="45.931791" lon="6.856484">
        <ele>1652</ele>
      </trkpt>
      <trkpt lat="45.931864" lon="6.856538">
        <ele>1654</ele>
      </trkpt>
      <trkpt lat="45.931898" lon="6.85656">
        <ele>1654</ele>
      </trkpt>
      <trkpt lat="45.93189" lon="6.85651">
        <ele>1656</ele>
      </trkpt>
      <trkpt lat="45.931853" lon="6.856486">
        <ele>1657</ele>
      </trkpt>
      <trkpt lat="45.931955" lon="6.856492">
        <ele>1662</ele>
      </trkpt>
      <trkpt lat="45.931968" lon="6.856488">
        <ele>1662</ele>
      </trkpt>
      <trkpt lat="45.931944" lon="6.856429">
        <ele>1663</ele>
      </trkpt>
      <trkpt lat="45.931941" lon="6.856381">
        <ele>1665</ele>
      </trkpt>
      <trkpt lat="45.931951" lon="6.856354">
        <ele>1666</ele>
      </trkpt>
      <trkpt lat="45.931943" lon="6.856333">
        <ele>1666</ele>
      </trkpt>
      <trkpt lat="45.931934" lon="6.856322">
        <ele>1669</ele>
      </trkpt>
      <trkpt lat="45.931948" lon="6.856304">
        <ele>1669</ele>
      </trkpt>
      <trkpt lat="45.931968" lon="6.856302">
        <ele>1669</ele>
      </trkpt>
      <trkpt lat="45.932068" lon="6.856351">
        <ele>1673</ele>
      </trkpt>
      <trkpt lat="45.932146" lon="6.856366">
        <ele>1675</ele>
      </trkpt>
      <trkpt lat="45.932151" lon="6.856388">
        <ele>1675</ele>
      </trkpt>
      <trkpt lat="45.932146" lon="6.856371">
        <ele>1676</ele>
      </trkpt>
      <trkpt lat="45.932139" lon="6.856349">
        <ele>1678</ele>
      </trkpt>
      <trkpt lat="45.93213" lon="6.85636">
        <ele>1678</ele>
      </trkpt>
      <trkpt lat="45.932116" lon="6.856333">
        <ele>1679</ele>
      </trkpt>
      <trkpt lat="45.932056" lon="6.856186">
        <ele>1683</ele>
      </trkpt>
      <trkpt lat="45.932047" lon="6.856189">
        <ele>1684</ele>
      </trkpt>
      <trkpt lat="45.932078" lon="6.856184">
        <ele>1685</ele>
      </trkpt>
      <trkpt lat="45.932083" lon="6.856204">
        <ele>1686</ele>
      </trkpt>
      <trkpt lat="45.932145" lon="6.856222">
        <ele>1690</ele>
      </trkpt>
      <trkpt lat="45.932231" lon="6.856202">
        <ele>1694</ele>
      </trkpt>
      <trkpt lat="45.932234" lon="6.85622">
        <ele>1694</ele>
      </trkpt>
      <trkpt lat="45.932267" lon="6.856243">
        <ele>1696</ele>
      </trkpt>
      <trkpt lat="45.932316" lon="6.856221">
        <ele>1698</ele>
      </trkpt>
      <trkpt lat="45.932355" lon="6.856144">
        <ele>1701</ele>
      </trkpt>
      <trkpt lat="45.932381" lon="6.856108">
        <ele>1702</ele>
      </trkpt>
      <trkpt lat="45.932434" lon="6.856109">
        <ele>1703</ele>
      </trkpt>
      <trkpt lat="45.932454" lon="6.856112">
        <ele>1705</ele>
      </trkpt>
      <trkpt lat="45.932444" lon="6.856085">
        <ele>1706</ele>
      </trkpt>
      <trkpt lat="45.932432" lon="6.856061">
        <ele>1706</ele>
      </trkpt>
      <trkpt lat="45.932389" lon="6.856012">
        <ele>1708</ele>
      </trkpt>
      <trkpt lat="45.932317" lon="6.856002">
        <ele>1710</ele>
      </trkpt>
      <trkpt lat="45.932395" lon="6.855953">
        <ele>1714</ele>
      </trkpt>
      <trkpt lat="45.932402" lon="6.855941">
        <ele>1713</ele>
      </trkpt>
      <trkpt lat="45.932384" lon="6.855947">
        <ele>1713</ele>
      </trkpt>
      <trkpt lat="45.932433" lon="6.855883">
        <ele>1716</ele>
      </trkpt>
      <trkpt lat="45.932519" lon="6.85587">
        <ele>1718</ele>
      </trkpt>
      <trkpt lat="45.932506" lon="6.855855">
        <ele>1719</ele>
      </trkpt>
      <trkpt lat="45.932514" lon="6.855857">
        <ele>1719</ele>
      </trkpt>
      <trkpt lat="45.932468" lon="6.855828">
        <ele>1721</ele>
      </trkpt>
      <trkpt lat="45.932417" lon="6.855784">
        <ele>1724</ele>
      </trkpt>
      <trkpt lat="45.932468" lon="6.855756">
        <ele>1725</ele>
      </trkpt>
      <trkpt lat="45.932506" lon="6.855763">
        <ele>1727</ele>
      </trkpt>
      <trkpt lat="45.932526" lon="6.85575">
        <ele>1729</ele>
      </trkpt>
      <trkpt lat="45.932458" lon="6.855723">
        <ele>1731</ele>
      </trkpt>
      <trkpt lat="45.932453" lon="6.855711">
        <ele>1731</ele>
      </trkpt>
      <trkpt lat="45.932487" lon="6.855662">
        <ele>1733</ele>
      </trkpt>
      <trkpt lat="45.932562" lon="6.855665">
        <ele>1736</ele>
      </trkpt>
      <trkpt lat="45.932583" lon="6.85565">
        <ele>1738</ele>
      </trkpt>
      <trkpt lat="45.932577" lon="6.855636">
        <ele>1739</ele>
      </trkpt>
      <trkpt lat="45.932578" lon="6.855618">
        <ele>1741</ele>
      </trkpt>
      <trkpt lat="45.932551" lon="6.855584">
        <ele>1742</ele>
      </trkpt>
      <trkpt lat="45.932534" lon="6.855588">
        <ele>1742</ele>
      </trkpt>
      <trkpt lat="45.932534" lon="6.855566">
        <ele>1744</ele>
      </trkpt>
      <trkpt lat="45.932572" lon="6.855537">
        <ele>1744</ele>
      </trkpt>
      <trkpt lat="45.932716" lon="6.855491">
        <ele>1752</ele>
      </trkpt>
      <trkpt lat="45.932776" lon="6.855421">
        <ele>1756</ele>
      </trkpt>
      <trkpt lat="45.932755" lon="6.85536">
        <ele>1758</ele>
      </trkpt>
      <trkpt lat="45.932732" lon="6.855353">
        <ele>1759</ele>
      </trkpt>
      <trkpt lat="45.932696" lon="6.855373">
        <ele>1762</ele>
      </trkpt>
      <trkpt lat="45.932736" lon="6.855333">
        <ele>1764</ele>
      </trkpt>
      <trkpt lat="45.932863" lon="6.855389">
        <ele>1767</ele>
      </trkpt>
      <trkpt lat="45.932938" lon="6.855389">
        <ele>1770</ele>
      </trkpt>
      <trkpt lat="45.933028" lon="6.855453">
        <ele>1770</ele>
      </trkpt>
      <trkpt lat="45.933046" lon="6.855487">
        <ele>1772</ele>
      </trkpt>
      <trkpt lat="45.933074" lon="6.85551">
        <ele>1773</ele>
      </trkpt>
      <trkpt lat="45.933083" lon="6.855502">
        <ele>1774</ele>
      </trkpt>
      <trkpt lat="45.933078" lon="6.855462">
        <ele>1776</ele>
      </trkpt>
      <trkpt lat="45.933093" lon="6.855443">
        <ele>1777</ele>
      </trkpt>
      <trkpt lat="45.933128" lon="6.855436">
        <ele>1779</ele>
      </trkpt>
      <trkpt lat="45.933173" lon="6.855437">
        <ele>1784</ele>
      </trkpt>
      <trkpt lat="45.933228" lon="6.85543">
        <ele>1792</ele>
      </trkpt>
      <trkpt lat="45.933239" lon="6.855407">
        <ele>1793</ele>
      </trkpt>
      <trkpt lat="45.933237" lon="6.855377">
        <ele>1794</ele>
      </trkpt>
      <trkpt lat="45.933211" lon="6.855352">
        <ele>1797</ele>
      </trkpt>
      <trkpt lat="45.933217" lon="6.855315">
        <ele>1799</ele>
      </trkpt>
      <trkpt lat="45.933263" lon="6.855295">
        <ele>1801</ele>
      </trkpt>
      <trkpt lat="45.933328" lon="6.855245">
        <ele>1805</ele>
      </trkpt>
      <trkpt lat="45.933285" lon="6.855176">
        <ele>1808</ele>
      </trkpt>
      <trkpt lat="45.933215" lon="6.855162">
        <ele>1810</ele>
      </trkpt>
      <trkpt lat="45.933253" lon="6.855148">
        <ele>1812</ele>
      </trkpt>
      <trkpt lat="45.933258" lon="6.855106">
        <ele>1815</ele>
      </trkpt>
      <trkpt lat="45.933272" lon="6.855125">
        <ele>1815</ele>
      </trkpt>
      <trkpt lat="45.933275" lon="6.855102">
        <ele>1816</ele>
      </trkpt>
      <trkpt lat="45.933287" lon="6.855096">
        <ele>1817</ele>
      </trkpt>
      <trkpt lat="45.933311" lon="6.855146">
        <ele>1818</ele>
      </trkpt>
      <trkpt lat="45.933329" lon="6.855127">
        <ele>1818</ele>
      </trkpt>
      <trkpt lat="45.933367" lon="6.855124">
        <ele>1820</ele>
      </trkpt>
      <trkpt lat="45.933458" lon="6.855068">
        <ele>1821</ele>
      </trkpt>
      <trkpt lat="45.933512" lon="6.855066">
        <ele>1821</ele>
      </trkpt>
      <trkpt lat="45.933538" lon="6.855093">
        <ele>1821</ele>
      </trkpt>
      <trkpt lat="45.933565" lon="6.855059">
        <ele>1825</ele>
      </trkpt>
      <trkpt lat="45.9336" lon="6.855045">
        <ele>1823</ele>
      </trkpt>
      <trkpt lat="45.933607" lon="6.855058">
        <ele>1824</ele>
      </trkpt>
      <trkpt lat="45.933597" lon="6.855031">
        <ele>1825</ele>
      </trkpt>
      <trkpt lat="45.933643" lon="6.855012">
        <ele>1827</ele>
      </trkpt>
      <trkpt lat="45.933648" lon="6.855019">
        <ele>1827</ele>
      </trkpt>
      <trkpt lat="45.933649" lon="6.854994">
        <ele>1829</ele>
      </trkpt>
      <trkpt lat="45.933623" lon="6.85498">
        <ele>1830</ele>
      </trkpt>
      <trkpt lat="45.933591" lon="6.854996">
        <ele>1831</ele>
      </trkpt>
      <trkpt lat="45.933585" lon="6.854976">
        <ele>1832</ele>
      </trkpt>
      <trkpt lat="45.933604" lon="6.854966">
        <ele>1833</ele>
      </trkpt>
      <trkpt lat="45.933605" lon="6.854945">
        <ele>1834</ele>
      </trkpt>
      <trkpt lat="45.933585" lon="6.854928">
        <ele>1836</ele>
      </trkpt>
      <trkpt lat="45.933556" lon="6.854918">
        <ele>1836</ele>
      </trkpt>
      <trkpt lat="45.933525" lon="6.854929">
        <ele>1839</ele>
      </trkpt>
      <trkpt lat="45.933523" lon="6.854899">
        <ele>1840</ele>
      </trkpt>
      <trkpt lat="45.933521" lon="6.854882">
        <ele>1840</ele>
      </trkpt>
      <trkpt lat="45.93356" lon="6.854813">
        <ele>1843</ele>
      </trkpt>
      <trkpt lat="45.933499" lon="6.854781">
        <ele>1847</ele>
      </trkpt>
      <trkpt lat="45.933529" lon="6.854724">
        <ele>1849</ele>
      </trkpt>
      <trkpt lat="45.93352" lon="6.854705">
        <ele>1850</ele>
      </trkpt>
      <trkpt lat="45.933462" lon="6.854684">
        <ele>1853</ele>
      </trkpt>
      <trkpt lat="45.933457" lon="6.854663">
        <ele>1854</ele>
      </trkpt>
      <trkpt lat="45.933458" lon="6.854647">
        <ele>1855</ele>
      </trkpt>
      <trkpt lat="45.933518" lon="6.854615">
        <ele>1856</ele>
      </trkpt>
      <trkpt lat="45.933534" lon="6.85458">
        <ele>1857</ele>
      </trkpt>
      <trkpt lat="45.933521" lon="6.85452">
        <ele>1856</ele>
      </trkpt>
      <trkpt lat="45.933551" lon="6.854494">
        <ele>1858</ele>
      </trkpt>
      <trkpt lat="45.933587" lon="6.854535">
        <ele>1861</ele>
      </trkpt>
      <trkpt lat="45.933603" lon="6.854527">
        <ele>1862</ele>
      </trkpt>
      <trkpt lat="45.933643" lon="6.854551">
        <ele>1866</ele>
      </trkpt>
      <trkpt lat="45.933671" lon="6.854592">
        <ele>1868</ele>
      </trkpt>
      <trkpt lat="45.933712" lon="6.854571">
        <ele>1873</ele>
      </trkpt>
      <trkpt lat="45.933754" lon="6.854537">
        <ele>1875</ele>
      </trkpt>
      <trkpt lat="45.93381" lon="6.854518">
        <ele>1878</ele>
      </trkpt>
      <trkpt lat="45.933834" lon="6.854527">
        <ele>1879</ele>
      </trkpt>
      <trkpt lat="45.9338" lon="6.854483">
        <ele>1881</ele>
      </trkpt>
      <trkpt lat="45.933818" lon="6.854469">
        <ele>1883</ele>
      </trkpt>
      <trkpt lat="45.933827" lon="6.854437">
        <ele>1884</ele>
      </trkpt>
      <trkpt lat="45.933855" lon="6.854447">
        <ele>1886</ele>
      </trkpt>
      <trkpt lat="45.933884" lon="6.854436">
        <ele>1886</ele>
      </trkpt>
      <trkpt lat="45.933896" lon="6.854445">
        <ele>1887</ele>
      </trkpt>
      <trkpt lat="45.933905" lon="6.854479">
        <ele>1890</ele>
      </trkpt>
      <trkpt lat="45.933947" lon="6.85449">
        <ele>1891</ele>
      </trkpt>
      <trkpt lat="45.934073" lon="6.854489">
        <ele>1898</ele>
      </trkpt>
      <trkpt lat="45.93409" lon="6.854466">
        <ele>1899</ele>
      </trkpt>
      <trkpt lat="45.934108" lon="6.854475">
        <ele>1900</ele>
      </trkpt>
      <trkpt lat="45.934114" lon="6.854485">
        <ele>1902</ele>
      </trkpt>
      <trkpt lat="45.93413" lon="6.854462">
        <ele>1902</ele>
      </trkpt>
      <trkpt lat="45.934158" lon="6.854464">
        <ele>1905</ele>
      </trkpt>
      <trkpt lat="45.934166" lon="6.854485">
        <ele>1906</ele>
      </trkpt>
      <trkpt lat="45.934186" lon="6.854493">
        <ele>1908</ele>
      </trkpt>
      <trkpt lat="45.934206" lon="6.854486">
        <ele>1910</ele>
      </trkpt>
      <trkpt lat="45.934204" lon="6.854481">
        <ele>1910</ele>
      </trkpt>
      <trkpt lat="45.934213" lon="6.85447">
        <ele>1912</ele>
      </trkpt>
      <trkpt lat="45.934201" lon="6.854477">
        <ele>1913</ele>
      </trkpt>
      <trkpt lat="45.934189" lon="6.854442">
        <ele>1913</ele>
      </trkpt>
      <trkpt lat="45.934217" lon="6.854409">
        <ele>1915</ele>
      </trkpt>
      <trkpt lat="45.934204" lon="6.854337">
        <ele>1918</ele>
      </trkpt>
      <trkpt lat="45.934232" lon="6.854343">
        <ele>1920</ele>
      </trkpt>
      <trkpt lat="45.934241" lon="6.854332">
        <ele>1920</ele>
      </trkpt>
      <trkpt lat="45.934294" lon="6.854329">
        <ele>1923</ele>
      </trkpt>
      <trkpt lat="45.934367" lon="6.854264">
        <ele>1925</ele>
      </trkpt>
      <trkpt lat="45.93446" lon="6.85423">
        <ele>1927</ele>
      </trkpt>
      <trkpt lat="45.934463" lon="6.854249">
        <ele>1929</ele>
      </trkpt>
      <trkpt lat="45.934431" lon="6.854298">
        <ele>1929</ele>
      </trkpt>
      <trkpt lat="45.934398" lon="6.854397">
        <ele>1931</ele>
      </trkpt>
      <trkpt lat="45.934403" lon="6.854424">
        <ele>1932</ele>
      </trkpt>
      <trkpt lat="45.934431" lon="6.85446">
        <ele>1934</ele>
      </trkpt>
      <trkpt lat="45.934481" lon="6.854474">
        <ele>1937</ele>
      </trkpt>
      <trkpt lat="45.93452" lon="6.854533">
        <ele>1938</ele>
      </trkpt>
      <trkpt lat="45.93456" lon="6.854547">
        <ele>1941</ele>
      </trkpt>
      <trkpt lat="45.934584" lon="6.854571">
        <ele>1942</ele>
      </trkpt>
      <trkpt lat="45.934634" lon="6.854585">
        <ele>1942</ele>
      </trkpt>
      <trkpt lat="45.934692" lon="6.854636">
        <ele>1945</ele>
      </trkpt>
      <trkpt lat="45.934729" lon="6.854641">
        <ele>1946</ele>
      </trkpt>
      <trkpt lat="45.934742" lon="6.854603">
        <ele>1948</ele>
      </trkpt>
      <trkpt lat="45.934723" lon="6.854572">
        <ele>1948</ele>
      </trkpt>
      <trkpt lat="45.93471" lon="6.854483">
        <ele>1951</ele>
      </trkpt>
      <trkpt lat="45.934783" lon="6.854447">
        <ele>1955</ele>
      </trkpt>
      <trkpt lat="45.934824" lon="6.854461">
        <ele>1956</ele>
      </trkpt>
      <trkpt lat="45.934851" lon="6.854495">
        <ele>1958</ele>
      </trkpt>
      <trkpt lat="45.934899" lon="6.85452">
        <ele>1959</ele>
      </trkpt>
      <trkpt lat="45.934905" lon="6.854522">
        <ele>1961</ele>
      </trkpt>
      <trkpt lat="45.934906" lon="6.854491">
        <ele>1962</ele>
      </trkpt>
      <trkpt lat="45.934935" lon="6.854458">
        <ele>1963</ele>
      </trkpt>
      <trkpt lat="45.935" lon="6.854444">
        <ele>1964</ele>
      </trkpt>
      <trkpt lat="45.935017" lon="6.854381">
        <ele>1965</ele>
      </trkpt>
      <trkpt lat="45.935055" lon="6.854343">
        <ele>1967</ele>
      </trkpt>
      <trkpt lat="45.935089" lon="6.854283">
        <ele>1968</ele>
      </trkpt>
      <trkpt lat="45.935096" lon="6.854236">
        <ele>1967</ele>
      </trkpt>
      <trkpt lat="45.935113" lon="6.854219">
        <ele>1968</ele>
      </trkpt>
      <trkpt lat="45.935113" lon="6.854206">
        <ele>1968</ele>
      </trkpt>
      <trkpt lat="45.935137" lon="6.854201">
        <ele>1967</ele>
      </trkpt>
      <trkpt lat="45.935152" lon="6.854177">
        <ele>1968</ele>
      </trkpt>
      <trkpt lat="45.935152" lon="6.854151">
        <ele>1968</ele>
      </trkpt>
      <trkpt lat="45.935138" lon="6.854144">
        <ele>1967</ele>
      </trkpt>
      <trkpt lat="45.935124" lon="6.854079">
        <ele>1967</ele>
      </trkpt>
      <trkpt lat="45.935156" lon="6.853983">
        <ele>1969</ele>
      </trkpt>
      <trkpt lat="45.935162" lon="6.85391">
        <ele>1971</ele>
      </trkpt>
      <trkpt lat="45.935169" lon="6.853904">
        <ele>1972</ele>
      </trkpt>
      <trkpt lat="45.935199" lon="6.853931">
        <ele>1973</ele>
      </trkpt>
      <trkpt lat="45.935205" lon="6.853913">
        <ele>1974</ele>
      </trkpt>
      <trkpt lat="45.935222" lon="6.853922">
        <ele>1976</ele>
      </trkpt>
      <trkpt lat="45.935229" lon="6.853909">
        <ele>1976</ele>
      </trkpt>
      <trkpt lat="45.935246" lon="6.853905">
        <ele>1978</ele>
      </trkpt>
      <trkpt lat="45.935221" lon="6.853877">
        <ele>1979</ele>
      </trkpt>
      <trkpt lat="45.935252" lon="6.853879">
        <ele>1981</ele>
      </trkpt>
      <trkpt lat="45.935256" lon="6.853849">
        <ele>1982</ele>
      </trkpt>
      <trkpt lat="45.935271" lon="6.853831">
        <ele>1983</ele>
      </trkpt>
      <trkpt lat="45.935262" lon="6.853739">
        <ele>1984</ele>
      </trkpt>
      <trkpt lat="45.935295" lon="6.853687">
        <ele>1985</ele>
      </trkpt>
      <trkpt lat="45.935315" lon="6.85363">
        <ele>1986</ele>
      </trkpt>
      <trkpt lat="45.93535" lon="6.853611">
        <ele>1988</ele>
      </trkpt>
      <trkpt lat="45.935396" lon="6.853613">
        <ele>1991</ele>
      </trkpt>
      <trkpt lat="45.935391" lon="6.853599">
        <ele>1992</ele>
      </trkpt>
      <trkpt lat="45.935405" lon="6.853583">
        <ele>1992</ele>
      </trkpt>
      <trkpt lat="45.93541" lon="6.853546">
        <ele>1992</ele>
      </trkpt>
      <trkpt lat="45.935437" lon="6.853486">
        <ele>1992</ele>
      </trkpt>
      <trkpt lat="45.935494" lon="6.853445">
        <ele>1992</ele>
      </trkpt>
      <trkpt lat="45.935507" lon="6.853469">
        <ele>1993</ele>
      </trkpt>
      <trkpt lat="45.935546" lon="6.853478">
        <ele>1996</ele>
      </trkpt>
      <trkpt lat="45.935577" lon="6.853551">
        <ele>1997</ele>
      </trkpt>
      <trkpt lat="45.935652" lon="6.853572">
        <ele>1999</ele>
      </trkpt>
      <trkpt lat="45.935657" lon="6.853659">
        <ele>2000</ele>
      </trkpt>
      <trkpt lat="45.935667" lon="6.853672">
        <ele>2000</ele>
      </trkpt>
      <trkpt lat="45.935683" lon="6.853676">
        <ele>1999</ele>
      </trkpt>
      <trkpt lat="45.935705" lon="6.853656">
        <ele>2001</ele>
      </trkpt>
      <trkpt lat="45.935717" lon="6.853586">
        <ele>2002</ele>
      </trkpt>
      <trkpt lat="45.935748" lon="6.853544">
        <ele>2003</ele>
      </trkpt>
      <trkpt lat="45.935806" lon="6.853526">
        <ele>2004</ele>
      </trkpt>
      <trkpt lat="45.935861" lon="6.853546">
        <ele>2007</ele>
      </trkpt>
      <trkpt lat="45.935962" lon="6.853661">
        <ele>2009</ele>
      </trkpt>
      <trkpt lat="45.936019" lon="6.853678">
        <ele>2009</ele>
      </trkpt>
      <trkpt lat="45.936052" lon="6.853646">
        <ele>2009</ele>
      </trkpt>
      <trkpt lat="45.936129" lon="6.853495">
        <ele>2012</ele>
      </trkpt>
      <trkpt lat="45.936145" lon="6.85338">
        <ele>2012</ele>
      </trkpt>
      <trkpt lat="45.936087" lon="6.853058">
        <ele>2013</ele>
      </trkpt>
      <trkpt lat="45.936073" lon="6.852892">
        <ele>2014</ele>
      </trkpt>
      <trkpt lat="45.936046" lon="6.852779">
        <ele>2015</ele>
      </trkpt>
      <trkpt lat="45.936073" lon="6.852609">
        <ele>2016</ele>
      </trkpt>
      <trkpt lat="45.936079" lon="6.852446">
        <ele>2017</ele>
      </trkpt>
      <trkpt lat="45.936114" lon="6.852156">
        <ele>2019</ele>
      </trkpt>
      <trkpt lat="45.936195" lon="6.851874">
        <ele>2023</ele>
      </trkpt>
      <trkpt lat="45.936309" lon="6.851654">
        <ele>2027</ele>
      </trkpt>
      <trkpt lat="45.936381" lon="6.851563">
        <ele>2029</ele>
      </trkpt>
      <trkpt lat="45.93655682" lon="6.851421476">
        <ele>2036</ele>
      </trkpt>
      <trkpt lat="45.936783953" lon="6.851375614">
        <ele>2041</ele>
      </trkpt>
      <trkpt lat="45.936950107" lon="6.851445813">
        <ele>2044</ele>
      </trkpt>
      <trkpt lat="45.937075477" lon="6.851690249">
        <ele>2048</ele>
      </trkpt>
      <trkpt lat="45.937052951" lon="6.851970931">
        <ele>2048</ele>
      </trkpt>
      <trkpt lat="45.937027716" lon="6.852178738">
        <ele>2049</ele>
      </trkpt>
      <trkpt lat="45.936979703" lon="6.852392739">
        <ele>2048</ele>
      </trkpt>
      <trkpt lat="45.936937627" lon="6.852599157">
        <ele>2048</ele>
      </trkpt>
    </trkseg>
  </trk>
</gpx>
