<?xml version="1.0" encoding="UTF-8"?>
<gpx xmlns="http://www.topografix.com/GPX/1/1" xmlns:xsi="http://www.w3.org/2001/XMLSchema-instance" version="1.1" creator="Trace de Trail" xsi:schemaLocation="http://www.topografix.com/GPX/1/1 http://www.topografix.com/GPX/1/1/gpx.xsd">
  <metadata>
    <name>HOKA LES TEMPLIERS 2026 - Marathon du Larzac</name>
    <desc>Parcours créé sur Trace de Trail</desc>
    <link href="https://tracedetrail.fr/fr/trace/325087">
      <text>Cartographie du parcours</text>
    </link>
  </metadata>
  <trk>
    <name>HOKA LES TEMPLIERS 2026 - Marathon du Larzac sur TraceDeTrail.fr</name>
    <src>Trace de Trail</src>
    <trkseg>
      <trkpt lat="44.09537" lon="3.18923">
        <ele>733</ele>
      </trkpt>
      <trkpt lat="44.09529" lon="3.18919">
        <ele>733</ele>
      </trkpt>
      <trkpt lat="44.09523" lon="3.18915">
        <ele>733</ele>
      </trkpt>
      <trkpt lat="44.09497" lon="3.18905">
        <ele>735</ele>
      </trkpt>
      <trkpt lat="44.09485" lon="3.18903">
        <ele>736</ele>
      </trkpt>
      <trkpt lat="44.0949" lon="3.18897">
        <ele>736</ele>
      </trkpt>
      <trkpt lat="44.09493" lon="3.18878">
        <ele>735</ele>
      </trkpt>
      <trkpt lat="44.09491" lon="3.1885">
        <ele>735</ele>
      </trkpt>
      <trkpt lat="44.09485" lon="3.18816">
        <ele>735</ele>
      </trkpt>
      <trkpt lat="44.09481" lon="3.18783">
        <ele>736</ele>
      </trkpt>
      <trkpt lat="44.09478" lon="3.18749">
        <ele>736</ele>
      </trkpt>
      <trkpt lat="44.0949" lon="3.18728">
        <ele>738</ele>
      </trkpt>
      <trkpt lat="44.09512" lon="3.18713">
        <ele>737</ele>
      </trkpt>
      <trkpt lat="44.09534" lon="3.18701">
        <ele>737</ele>
      </trkpt>
      <trkpt lat="44.0955" lon="3.18737">
        <ele>736</ele>
      </trkpt>
      <trkpt lat="44.09568" lon="3.18796">
        <ele>733</ele>
      </trkpt>
      <trkpt lat="44.09572" lon="3.1882">
        <ele>732</ele>
      </trkpt>
      <trkpt lat="44.0957" lon="3.18858">
        <ele>733</ele>
      </trkpt>
      <trkpt lat="44.09566" lon="3.18878">
        <ele>732</ele>
      </trkpt>
      <trkpt lat="44.09555" lon="3.18914">
        <ele>733</ele>
      </trkpt>
      <trkpt lat="44.09549" lon="3.18927">
        <ele>733</ele>
      </trkpt>
      <trkpt lat="44.09531" lon="3.1892">
        <ele>733</ele>
      </trkpt>
      <trkpt lat="44.09513" lon="3.18913">
        <ele>733</ele>
      </trkpt>
      <trkpt lat="44.09501" lon="3.18907">
        <ele>734</ele>
      </trkpt>
      <trkpt lat="44.0949" lon="3.18904">
        <ele>736</ele>
      </trkpt>
      <trkpt lat="44.0948" lon="3.18904">
        <ele>736</ele>
      </trkpt>
      <trkpt lat="44.09455" lon="3.1891">
        <ele>738</ele>
      </trkpt>
      <trkpt lat="44.09415" lon="3.18919">
        <ele>741</ele>
      </trkpt>
      <trkpt lat="44.094" lon="3.18926">
        <ele>742</ele>
      </trkpt>
      <trkpt lat="44.09384" lon="3.18939">
        <ele>741</ele>
      </trkpt>
      <trkpt lat="44.09366" lon="3.18953">
        <ele>741</ele>
      </trkpt>
      <trkpt lat="44.0935" lon="3.18961">
        <ele>740</ele>
      </trkpt>
      <trkpt lat="44.09326" lon="3.18969">
        <ele>742</ele>
      </trkpt>
      <trkpt lat="44.09285" lon="3.18982">
        <ele>743</ele>
      </trkpt>
      <trkpt lat="44.09266" lon="3.18981">
        <ele>744</ele>
      </trkpt>
      <trkpt lat="44.09251" lon="3.18976">
        <ele>745</ele>
      </trkpt>
      <trkpt lat="44.09232" lon="3.18974">
        <ele>746</ele>
      </trkpt>
      <trkpt lat="44.09221" lon="3.18977">
        <ele>745</ele>
      </trkpt>
      <trkpt lat="44.0921" lon="3.18991">
        <ele>746</ele>
      </trkpt>
      <trkpt lat="44.09199" lon="3.19014">
        <ele>745</ele>
      </trkpt>
      <trkpt lat="44.09185" lon="3.19041">
        <ele>744</ele>
      </trkpt>
      <trkpt lat="44.09168" lon="3.1907">
        <ele>744</ele>
      </trkpt>
      <trkpt lat="44.09147" lon="3.19106">
        <ele>744</ele>
      </trkpt>
      <trkpt lat="44.09137" lon="3.19152">
        <ele>744</ele>
      </trkpt>
      <trkpt lat="44.09122" lon="3.19196">
        <ele>745</ele>
      </trkpt>
      <trkpt lat="44.09111" lon="3.19235">
        <ele>745</ele>
      </trkpt>
      <trkpt lat="44.09091" lon="3.19274">
        <ele>746</ele>
      </trkpt>
      <trkpt lat="44.09074" lon="3.19327">
        <ele>746</ele>
      </trkpt>
      <trkpt lat="44.09066" lon="3.1938">
        <ele>745</ele>
      </trkpt>
      <trkpt lat="44.09057" lon="3.19421">
        <ele>744</ele>
      </trkpt>
      <trkpt lat="44.09041" lon="3.19493">
        <ele>743</ele>
      </trkpt>
      <trkpt lat="44.09077" lon="3.19465">
        <ele>743</ele>
      </trkpt>
      <trkpt lat="44.09096" lon="3.19459">
        <ele>742</ele>
      </trkpt>
      <trkpt lat="44.09118" lon="3.19474">
        <ele>741</ele>
      </trkpt>
      <trkpt lat="44.09141" lon="3.1949">
        <ele>740</ele>
      </trkpt>
      <trkpt lat="44.09168" lon="3.19503">
        <ele>739</ele>
      </trkpt>
      <trkpt lat="44.09207" lon="3.19521">
        <ele>738</ele>
      </trkpt>
      <trkpt lat="44.09231" lon="3.19536">
        <ele>737</ele>
      </trkpt>
      <trkpt lat="44.09262" lon="3.19556">
        <ele>736</ele>
      </trkpt>
      <trkpt lat="44.09306" lon="3.19572">
        <ele>735</ele>
      </trkpt>
      <trkpt lat="44.09326" lon="3.19593">
        <ele>735</ele>
      </trkpt>
      <trkpt lat="44.09347" lon="3.19616">
        <ele>733</ele>
      </trkpt>
      <trkpt lat="44.09368" lon="3.19643">
        <ele>733</ele>
      </trkpt>
      <trkpt lat="44.09397" lon="3.1968">
        <ele>733</ele>
      </trkpt>
      <trkpt lat="44.09411" lon="3.19712">
        <ele>733</ele>
      </trkpt>
      <trkpt lat="44.09428" lon="3.19752">
        <ele>735</ele>
      </trkpt>
      <trkpt lat="44.09456" lon="3.19786">
        <ele>735</ele>
      </trkpt>
      <trkpt lat="44.09481" lon="3.19808">
        <ele>734</ele>
      </trkpt>
      <trkpt lat="44.09509" lon="3.1983">
        <ele>734</ele>
      </trkpt>
      <trkpt lat="44.09538" lon="3.19853">
        <ele>734</ele>
      </trkpt>
      <trkpt lat="44.09568" lon="3.19877">
        <ele>736</ele>
      </trkpt>
      <trkpt lat="44.09593" lon="3.19887">
        <ele>736</ele>
      </trkpt>
      <trkpt lat="44.09621" lon="3.19898">
        <ele>734</ele>
      </trkpt>
      <trkpt lat="44.09668" lon="3.19907">
        <ele>731</ele>
      </trkpt>
      <trkpt lat="44.09693" lon="3.19927">
        <ele>731</ele>
      </trkpt>
      <trkpt lat="44.09731" lon="3.19956">
        <ele>730</ele>
      </trkpt>
      <trkpt lat="44.09753" lon="3.19982">
        <ele>728</ele>
      </trkpt>
      <trkpt lat="44.09788" lon="3.20023">
        <ele>727</ele>
      </trkpt>
      <trkpt lat="44.09807" lon="3.20052">
        <ele>727</ele>
      </trkpt>
      <trkpt lat="44.09833" lon="3.20093">
        <ele>724</ele>
      </trkpt>
      <trkpt lat="44.09847" lon="3.2013">
        <ele>723</ele>
      </trkpt>
      <trkpt lat="44.0987" lon="3.20154">
        <ele>718</ele>
      </trkpt>
      <trkpt lat="44.09904" lon="3.20171">
        <ele>713</ele>
      </trkpt>
      <trkpt lat="44.09914" lon="3.20188">
        <ele>711</ele>
      </trkpt>
      <trkpt lat="44.09927" lon="3.20229">
        <ele>712</ele>
      </trkpt>
      <trkpt lat="44.09945" lon="3.20256">
        <ele>708</ele>
      </trkpt>
      <trkpt lat="44.09967" lon="3.2029">
        <ele>705</ele>
      </trkpt>
      <trkpt lat="44.09991" lon="3.20343">
        <ele>704</ele>
      </trkpt>
      <trkpt lat="44.1001" lon="3.20394">
        <ele>703</ele>
      </trkpt>
      <trkpt lat="44.10026" lon="3.20425">
        <ele>702</ele>
      </trkpt>
      <trkpt lat="44.10048" lon="3.20467">
        <ele>698</ele>
      </trkpt>
      <trkpt lat="44.10062" lon="3.20497">
        <ele>696</ele>
      </trkpt>
      <trkpt lat="44.10078" lon="3.20531">
        <ele>694</ele>
      </trkpt>
      <trkpt lat="44.10096" lon="3.20552">
        <ele>692</ele>
      </trkpt>
      <trkpt lat="44.10102" lon="3.2054">
        <ele>690</ele>
      </trkpt>
      <trkpt lat="44.10102" lon="3.20506">
        <ele>686</ele>
      </trkpt>
      <trkpt lat="44.10111" lon="3.20489">
        <ele>683</ele>
      </trkpt>
      <trkpt lat="44.10122" lon="3.2049">
        <ele>683</ele>
      </trkpt>
      <trkpt lat="44.10142" lon="3.2052">
        <ele>682</ele>
      </trkpt>
      <trkpt lat="44.10172" lon="3.20492">
        <ele>683</ele>
      </trkpt>
      <trkpt lat="44.10211" lon="3.20475">
        <ele>685</ele>
      </trkpt>
      <trkpt lat="44.10233" lon="3.20459">
        <ele>687</ele>
      </trkpt>
      <trkpt lat="44.10257" lon="3.20441">
        <ele>690</ele>
      </trkpt>
      <trkpt lat="44.10277" lon="3.20423">
        <ele>693</ele>
      </trkpt>
      <trkpt lat="44.1029" lon="3.20416">
        <ele>697</ele>
      </trkpt>
      <trkpt lat="44.10305" lon="3.204">
        <ele>698</ele>
      </trkpt>
      <trkpt lat="44.10323" lon="3.20383">
        <ele>702</ele>
      </trkpt>
      <trkpt lat="44.1035" lon="3.20346">
        <ele>707</ele>
      </trkpt>
      <trkpt lat="44.1036" lon="3.20339">
        <ele>709</ele>
      </trkpt>
      <trkpt lat="44.10382" lon="3.20354">
        <ele>713</ele>
      </trkpt>
      <trkpt lat="44.10395" lon="3.20351">
        <ele>714</ele>
      </trkpt>
      <trkpt lat="44.10397" lon="3.20328">
        <ele>714</ele>
      </trkpt>
      <trkpt lat="44.10408" lon="3.20292">
        <ele>719</ele>
      </trkpt>
      <trkpt lat="44.10423" lon="3.20243">
        <ele>724</ele>
      </trkpt>
      <trkpt lat="44.10448" lon="3.20231">
        <ele>727</ele>
      </trkpt>
      <trkpt lat="44.10478" lon="3.20217">
        <ele>730</ele>
      </trkpt>
      <trkpt lat="44.105" lon="3.20217">
        <ele>732</ele>
      </trkpt>
      <trkpt lat="44.10518" lon="3.20232">
        <ele>733</ele>
      </trkpt>
      <trkpt lat="44.10529" lon="3.20189">
        <ele>736</ele>
      </trkpt>
      <trkpt lat="44.1054" lon="3.20145">
        <ele>740</ele>
      </trkpt>
      <trkpt lat="44.10552" lon="3.20096">
        <ele>746</ele>
      </trkpt>
      <trkpt lat="44.10565" lon="3.20065">
        <ele>748</ele>
      </trkpt>
      <trkpt lat="44.10562" lon="3.20038">
        <ele>751</ele>
      </trkpt>
      <trkpt lat="44.10572" lon="3.20017">
        <ele>751</ele>
      </trkpt>
      <trkpt lat="44.10578" lon="3.19982">
        <ele>757</ele>
      </trkpt>
      <trkpt lat="44.10568" lon="3.19975">
        <ele>761</ele>
      </trkpt>
      <trkpt lat="44.10558" lon="3.19974">
        <ele>762</ele>
      </trkpt>
      <trkpt lat="44.10553" lon="3.19969">
        <ele>764</ele>
      </trkpt>
      <trkpt lat="44.10554" lon="3.19959">
        <ele>766</ele>
      </trkpt>
      <trkpt lat="44.10564" lon="3.19925">
        <ele>770</ele>
      </trkpt>
      <trkpt lat="44.10585" lon="3.19873">
        <ele>776</ele>
      </trkpt>
      <trkpt lat="44.10603" lon="3.19841">
        <ele>778</ele>
      </trkpt>
      <trkpt lat="44.1063" lon="3.19794">
        <ele>787</ele>
      </trkpt>
      <trkpt lat="44.10671" lon="3.19759">
        <ele>793</ele>
      </trkpt>
      <trkpt lat="44.10689" lon="3.1973">
        <ele>796</ele>
      </trkpt>
      <trkpt lat="44.10714" lon="3.19691">
        <ele>798</ele>
      </trkpt>
      <trkpt lat="44.10728" lon="3.19646">
        <ele>803</ele>
      </trkpt>
      <trkpt lat="44.10748" lon="3.19612">
        <ele>804</ele>
      </trkpt>
      <trkpt lat="44.10788" lon="3.19544">
        <ele>807</ele>
      </trkpt>
      <trkpt lat="44.10816" lon="3.19519">
        <ele>808</ele>
      </trkpt>
      <trkpt lat="44.10844" lon="3.19494">
        <ele>808</ele>
      </trkpt>
      <trkpt lat="44.10876" lon="3.19465">
        <ele>810</ele>
      </trkpt>
      <trkpt lat="44.10899" lon="3.19438">
        <ele>810</ele>
      </trkpt>
      <trkpt lat="44.10937" lon="3.19393">
        <ele>810</ele>
      </trkpt>
      <trkpt lat="44.10947" lon="3.19355">
        <ele>813</ele>
      </trkpt>
      <trkpt lat="44.10949" lon="3.19306">
        <ele>815</ele>
      </trkpt>
      <trkpt lat="44.10951" lon="3.19257">
        <ele>816</ele>
      </trkpt>
      <trkpt lat="44.10954" lon="3.19178">
        <ele>817</ele>
      </trkpt>
      <trkpt lat="44.10952" lon="3.19129">
        <ele>818</ele>
      </trkpt>
      <trkpt lat="44.10946" lon="3.19143">
        <ele>819</ele>
      </trkpt>
      <trkpt lat="44.10934" lon="3.19159">
        <ele>819</ele>
      </trkpt>
      <trkpt lat="44.10925" lon="3.19184">
        <ele>820</ele>
      </trkpt>
      <trkpt lat="44.10901" lon="3.19217">
        <ele>821</ele>
      </trkpt>
      <trkpt lat="44.10865" lon="3.19238">
        <ele>824</ele>
      </trkpt>
      <trkpt lat="44.1084" lon="3.19266">
        <ele>826</ele>
      </trkpt>
      <trkpt lat="44.10809" lon="3.19253">
        <ele>828</ele>
      </trkpt>
      <trkpt lat="44.10787" lon="3.19275">
        <ele>829</ele>
      </trkpt>
      <trkpt lat="44.10761" lon="3.19305">
        <ele>830</ele>
      </trkpt>
      <trkpt lat="44.10736" lon="3.19335">
        <ele>831</ele>
      </trkpt>
      <trkpt lat="44.10704" lon="3.19373">
        <ele>832</ele>
      </trkpt>
      <trkpt lat="44.10687" lon="3.19389">
        <ele>833</ele>
      </trkpt>
      <trkpt lat="44.10664" lon="3.19402">
        <ele>834</ele>
      </trkpt>
      <trkpt lat="44.10638" lon="3.19416">
        <ele>838</ele>
      </trkpt>
      <trkpt lat="44.10615" lon="3.19426">
        <ele>839</ele>
      </trkpt>
      <trkpt lat="44.10584" lon="3.19447">
        <ele>839</ele>
      </trkpt>
      <trkpt lat="44.10559" lon="3.1945">
        <ele>840</ele>
      </trkpt>
      <trkpt lat="44.10532" lon="3.19453">
        <ele>840</ele>
      </trkpt>
      <trkpt lat="44.10496" lon="3.19459">
        <ele>838</ele>
      </trkpt>
      <trkpt lat="44.10481" lon="3.19478">
        <ele>837</ele>
      </trkpt>
      <trkpt lat="44.10445" lon="3.19476">
        <ele>834</ele>
      </trkpt>
      <trkpt lat="44.1042" lon="3.19482">
        <ele>831</ele>
      </trkpt>
      <trkpt lat="44.10401" lon="3.19482">
        <ele>829</ele>
      </trkpt>
      <trkpt lat="44.10385" lon="3.19484">
        <ele>827</ele>
      </trkpt>
      <trkpt lat="44.10361" lon="3.19478">
        <ele>825</ele>
      </trkpt>
      <trkpt lat="44.10335" lon="3.19486">
        <ele>820</ele>
      </trkpt>
      <trkpt lat="44.10303" lon="3.19496">
        <ele>816</ele>
      </trkpt>
      <trkpt lat="44.10273" lon="3.19503">
        <ele>812</ele>
      </trkpt>
      <trkpt lat="44.10257" lon="3.19496">
        <ele>809</ele>
      </trkpt>
      <trkpt lat="44.10242" lon="3.19481">
        <ele>808</ele>
      </trkpt>
      <trkpt lat="44.10229" lon="3.19477">
        <ele>806</ele>
      </trkpt>
      <trkpt lat="44.10214" lon="3.19481">
        <ele>805</ele>
      </trkpt>
      <trkpt lat="44.10194" lon="3.19473">
        <ele>803</ele>
      </trkpt>
      <trkpt lat="44.10174" lon="3.19478">
        <ele>802</ele>
      </trkpt>
      <trkpt lat="44.10158" lon="3.19474">
        <ele>800</ele>
      </trkpt>
      <trkpt lat="44.10141" lon="3.19476">
        <ele>799</ele>
      </trkpt>
      <trkpt lat="44.10124" lon="3.19478">
        <ele>797</ele>
      </trkpt>
      <trkpt lat="44.10092" lon="3.19487">
        <ele>794</ele>
      </trkpt>
      <trkpt lat="44.10061" lon="3.19497">
        <ele>791</ele>
      </trkpt>
      <trkpt lat="44.10029" lon="3.19506">
        <ele>785</ele>
      </trkpt>
      <trkpt lat="44.10005" lon="3.19499">
        <ele>783</ele>
      </trkpt>
      <trkpt lat="44.0996" lon="3.19493">
        <ele>780</ele>
      </trkpt>
      <trkpt lat="44.09939" lon="3.1948">
        <ele>777</ele>
      </trkpt>
      <trkpt lat="44.09907" lon="3.19474">
        <ele>774</ele>
      </trkpt>
      <trkpt lat="44.09889" lon="3.19462">
        <ele>773</ele>
      </trkpt>
      <trkpt lat="44.09874" lon="3.19464">
        <ele>772</ele>
      </trkpt>
      <trkpt lat="44.09865" lon="3.19462">
        <ele>771</ele>
      </trkpt>
      <trkpt lat="44.09845" lon="3.19449">
        <ele>769</ele>
      </trkpt>
      <trkpt lat="44.09822" lon="3.1944">
        <ele>767</ele>
      </trkpt>
      <trkpt lat="44.09795" lon="3.19445">
        <ele>764</ele>
      </trkpt>
      <trkpt lat="44.09768" lon="3.19438">
        <ele>761</ele>
      </trkpt>
      <trkpt lat="44.09745" lon="3.19451">
        <ele>760</ele>
      </trkpt>
      <trkpt lat="44.09712" lon="3.19454">
        <ele>757</ele>
      </trkpt>
      <trkpt lat="44.09682" lon="3.19433">
        <ele>753</ele>
      </trkpt>
      <trkpt lat="44.0966" lon="3.19424">
        <ele>750</ele>
      </trkpt>
      <trkpt lat="44.09617" lon="3.1943">
        <ele>745</ele>
      </trkpt>
      <trkpt lat="44.09576" lon="3.19403">
        <ele>739</ele>
      </trkpt>
      <trkpt lat="44.09554" lon="3.19417">
        <ele>736</ele>
      </trkpt>
      <trkpt lat="44.09547" lon="3.19411">
        <ele>735</ele>
      </trkpt>
      <trkpt lat="44.0954" lon="3.1939">
        <ele>734</ele>
      </trkpt>
      <trkpt lat="44.09531" lon="3.19374">
        <ele>733</ele>
      </trkpt>
      <trkpt lat="44.09533" lon="3.19358">
        <ele>733</ele>
      </trkpt>
      <trkpt lat="44.09548" lon="3.19335">
        <ele>733</ele>
      </trkpt>
      <trkpt lat="44.09562" lon="3.19322">
        <ele>733</ele>
      </trkpt>
      <trkpt lat="44.09564" lon="3.19301">
        <ele>733</ele>
      </trkpt>
      <trkpt lat="44.09567" lon="3.1929">
        <ele>733</ele>
      </trkpt>
      <trkpt lat="44.09588" lon="3.19282">
        <ele>733</ele>
      </trkpt>
      <trkpt lat="44.09594" lon="3.19262">
        <ele>732</ele>
      </trkpt>
      <trkpt lat="44.09609" lon="3.19254">
        <ele>732</ele>
      </trkpt>
      <trkpt lat="44.09625" lon="3.19246">
        <ele>731</ele>
      </trkpt>
      <trkpt lat="44.09642" lon="3.19229">
        <ele>731</ele>
      </trkpt>
      <trkpt lat="44.09654" lon="3.19208">
        <ele>731</ele>
      </trkpt>
      <trkpt lat="44.09661" lon="3.19189">
        <ele>731</ele>
      </trkpt>
      <trkpt lat="44.09669" lon="3.19173">
        <ele>731</ele>
      </trkpt>
      <trkpt lat="44.09685" lon="3.19156">
        <ele>731</ele>
      </trkpt>
      <trkpt lat="44.09706" lon="3.19134">
        <ele>729</ele>
      </trkpt>
      <trkpt lat="44.09732" lon="3.191">
        <ele>725</ele>
      </trkpt>
      <trkpt lat="44.09732" lon="3.19093">
        <ele>725</ele>
      </trkpt>
      <trkpt lat="44.09713" lon="3.19067">
        <ele>725</ele>
      </trkpt>
      <trkpt lat="44.09692" lon="3.19047">
        <ele>725</ele>
      </trkpt>
      <trkpt lat="44.09669" lon="3.19025">
        <ele>725</ele>
      </trkpt>
      <trkpt lat="44.09657" lon="3.18976">
        <ele>727</ele>
      </trkpt>
      <trkpt lat="44.09635" lon="3.18939">
        <ele>729</ele>
      </trkpt>
      <trkpt lat="44.09609" lon="3.18938">
        <ele>732</ele>
      </trkpt>
      <trkpt lat="44.09579" lon="3.18937">
        <ele>732</ele>
      </trkpt>
      <trkpt lat="44.09567" lon="3.1895">
        <ele>732</ele>
      </trkpt>
      <trkpt lat="44.09557" lon="3.18978">
        <ele>732</ele>
      </trkpt>
      <trkpt lat="44.09542" lon="3.18985">
        <ele>731</ele>
      </trkpt>
      <trkpt lat="44.09514" lon="3.18962">
        <ele>732</ele>
      </trkpt>
      <trkpt lat="44.09521" lon="3.18933">
        <ele>732</ele>
      </trkpt>
      <trkpt lat="44.09541" lon="3.18939">
        <ele>732</ele>
      </trkpt>
      <trkpt lat="44.0957" lon="3.18928">
        <ele>733</ele>
      </trkpt>
      <trkpt lat="44.09581" lon="3.1892">
        <ele>733</ele>
      </trkpt>
      <trkpt lat="44.09596" lon="3.18901">
        <ele>733</ele>
      </trkpt>
      <trkpt lat="44.09614" lon="3.1888">
        <ele>732</ele>
      </trkpt>
      <trkpt lat="44.09644" lon="3.1889">
        <ele>729</ele>
      </trkpt>
      <trkpt lat="44.09657" lon="3.18911">
        <ele>728</ele>
      </trkpt>
      <trkpt lat="44.09664" lon="3.18934">
        <ele>726</ele>
      </trkpt>
      <trkpt lat="44.09675" lon="3.18956">
        <ele>725</ele>
      </trkpt>
      <trkpt lat="44.09679" lon="3.18972">
        <ele>725</ele>
      </trkpt>
      <trkpt lat="44.09672" lon="3.18981">
        <ele>724</ele>
      </trkpt>
      <trkpt lat="44.09685" lon="3.19005">
        <ele>724</ele>
      </trkpt>
      <trkpt lat="44.09716" lon="3.19002">
        <ele>722</ele>
      </trkpt>
      <trkpt lat="44.09752" lon="3.19006">
        <ele>719</ele>
      </trkpt>
      <trkpt lat="44.09773" lon="3.18981">
        <ele>718</ele>
      </trkpt>
      <trkpt lat="44.09802" lon="3.18948">
        <ele>715</ele>
      </trkpt>
      <trkpt lat="44.0984" lon="3.18924">
        <ele>712</ele>
      </trkpt>
      <trkpt lat="44.09877" lon="3.18886">
        <ele>706</ele>
      </trkpt>
      <trkpt lat="44.09894" lon="3.18857">
        <ele>701</ele>
      </trkpt>
      <trkpt lat="44.09905" lon="3.18818">
        <ele>696</ele>
      </trkpt>
      <trkpt lat="44.09891" lon="3.18796">
        <ele>693</ele>
      </trkpt>
      <trkpt lat="44.09886" lon="3.18769">
        <ele>691</ele>
      </trkpt>
      <trkpt lat="44.09881" lon="3.18721">
        <ele>686</ele>
      </trkpt>
      <trkpt lat="44.09892" lon="3.18663">
        <ele>681</ele>
      </trkpt>
      <trkpt lat="44.09897" lon="3.18605">
        <ele>678</ele>
      </trkpt>
      <trkpt lat="44.09894" lon="3.18571">
        <ele>677</ele>
      </trkpt>
      <trkpt lat="44.09891" lon="3.18536">
        <ele>674</ele>
      </trkpt>
      <trkpt lat="44.09897" lon="3.18471">
        <ele>672</ele>
      </trkpt>
      <trkpt lat="44.09898" lon="3.18418">
        <ele>672</ele>
      </trkpt>
      <trkpt lat="44.09899" lon="3.18365">
        <ele>669</ele>
      </trkpt>
      <trkpt lat="44.099" lon="3.18312">
        <ele>664</ele>
      </trkpt>
      <trkpt lat="44.09901" lon="3.18223">
        <ele>650</ele>
      </trkpt>
      <trkpt lat="44.09939" lon="3.1821">
        <ele>646</ele>
      </trkpt>
      <trkpt lat="44.09977" lon="3.18197">
        <ele>642</ele>
      </trkpt>
      <trkpt lat="44.10015" lon="3.18185">
        <ele>640</ele>
      </trkpt>
      <trkpt lat="44.10053" lon="3.18172">
        <ele>638</ele>
      </trkpt>
      <trkpt lat="44.101" lon="3.18156">
        <ele>635</ele>
      </trkpt>
      <trkpt lat="44.1012" lon="3.18136">
        <ele>633</ele>
      </trkpt>
      <trkpt lat="44.10142" lon="3.18114">
        <ele>631</ele>
      </trkpt>
      <trkpt lat="44.10171" lon="3.18065">
        <ele>626</ele>
      </trkpt>
      <trkpt lat="44.10213" lon="3.18055">
        <ele>620</ele>
      </trkpt>
      <trkpt lat="44.10259" lon="3.18062">
        <ele>619</ele>
      </trkpt>
      <trkpt lat="44.10281" lon="3.18033">
        <ele>616</ele>
      </trkpt>
      <trkpt lat="44.10316" lon="3.17986">
        <ele>606</ele>
      </trkpt>
      <trkpt lat="44.10349" lon="3.17964">
        <ele>606</ele>
      </trkpt>
      <trkpt lat="44.10351" lon="3.17929">
        <ele>603</ele>
      </trkpt>
      <trkpt lat="44.1036" lon="3.17878">
        <ele>599</ele>
      </trkpt>
      <trkpt lat="44.10382" lon="3.17858">
        <ele>599</ele>
      </trkpt>
      <trkpt lat="44.10397" lon="3.17826">
        <ele>595</ele>
      </trkpt>
      <trkpt lat="44.10416" lon="3.17783">
        <ele>591</ele>
      </trkpt>
      <trkpt lat="44.10424" lon="3.17737">
        <ele>586</ele>
      </trkpt>
      <trkpt lat="44.10432" lon="3.17691">
        <ele>583</ele>
      </trkpt>
      <trkpt lat="44.10443" lon="3.1763">
        <ele>578</ele>
      </trkpt>
      <trkpt lat="44.10431" lon="3.176">
        <ele>576</ele>
      </trkpt>
      <trkpt lat="44.10419" lon="3.17568">
        <ele>575</ele>
      </trkpt>
      <trkpt lat="44.10405" lon="3.17568">
        <ele>574</ele>
      </trkpt>
      <trkpt lat="44.10386" lon="3.17534">
        <ele>573</ele>
      </trkpt>
      <trkpt lat="44.10377" lon="3.17506">
        <ele>571</ele>
      </trkpt>
      <trkpt lat="44.10378" lon="3.17486">
        <ele>569</ele>
      </trkpt>
      <trkpt lat="44.10384" lon="3.17455">
        <ele>568</ele>
      </trkpt>
      <trkpt lat="44.10392" lon="3.17409">
        <ele>569</ele>
      </trkpt>
      <trkpt lat="44.10395" lon="3.1738">
        <ele>570</ele>
      </trkpt>
      <trkpt lat="44.10407" lon="3.17355">
        <ele>564</ele>
      </trkpt>
      <trkpt lat="44.10412" lon="3.17295">
        <ele>563</ele>
      </trkpt>
      <trkpt lat="44.10399" lon="3.17271">
        <ele>563</ele>
      </trkpt>
      <trkpt lat="44.10397" lon="3.17252">
        <ele>561</ele>
      </trkpt>
      <trkpt lat="44.10408" lon="3.17221">
        <ele>559</ele>
      </trkpt>
      <trkpt lat="44.10407" lon="3.17201">
        <ele>556</ele>
      </trkpt>
      <trkpt lat="44.10411" lon="3.17169">
        <ele>558</ele>
      </trkpt>
      <trkpt lat="44.10425" lon="3.17137">
        <ele>557</ele>
      </trkpt>
      <trkpt lat="44.10442" lon="3.17099">
        <ele>551</ele>
      </trkpt>
      <trkpt lat="44.10444" lon="3.1712">
        <ele>546</ele>
      </trkpt>
      <trkpt lat="44.10437" lon="3.17144">
        <ele>545</ele>
      </trkpt>
      <trkpt lat="44.10429" lon="3.17171">
        <ele>545</ele>
      </trkpt>
      <trkpt lat="44.10429" lon="3.17193">
        <ele>540</ele>
      </trkpt>
      <trkpt lat="44.10434" lon="3.17221">
        <ele>535</ele>
      </trkpt>
      <trkpt lat="44.10442" lon="3.1726">
        <ele>534</ele>
      </trkpt>
      <trkpt lat="44.10444" lon="3.17286">
        <ele>531</ele>
      </trkpt>
      <trkpt lat="44.10448" lon="3.17307">
        <ele>534</ele>
      </trkpt>
      <trkpt lat="44.10447" lon="3.17336">
        <ele>534</ele>
      </trkpt>
      <trkpt lat="44.10441" lon="3.17396">
        <ele>524</ele>
      </trkpt>
      <trkpt lat="44.10455" lon="3.17376">
        <ele>521</ele>
      </trkpt>
      <trkpt lat="44.10471" lon="3.17335">
        <ele>515</ele>
      </trkpt>
      <trkpt lat="44.10472" lon="3.173">
        <ele>512</ele>
      </trkpt>
      <trkpt lat="44.10473" lon="3.17262">
        <ele>508</ele>
      </trkpt>
      <trkpt lat="44.10483" lon="3.17235">
        <ele>498</ele>
      </trkpt>
      <trkpt lat="44.10493" lon="3.17192">
        <ele>492</ele>
      </trkpt>
      <trkpt lat="44.10511" lon="3.17166">
        <ele>489</ele>
      </trkpt>
      <trkpt lat="44.10534" lon="3.17142">
        <ele>483</ele>
      </trkpt>
      <trkpt lat="44.1057" lon="3.17106">
        <ele>477</ele>
      </trkpt>
      <trkpt lat="44.10585" lon="3.17078">
        <ele>473</ele>
      </trkpt>
      <trkpt lat="44.106" lon="3.17048">
        <ele>471</ele>
      </trkpt>
      <trkpt lat="44.10608" lon="3.17012">
        <ele>468</ele>
      </trkpt>
      <trkpt lat="44.10627" lon="3.1698">
        <ele>468</ele>
      </trkpt>
      <trkpt lat="44.10656" lon="3.16931">
        <ele>480</ele>
      </trkpt>
      <trkpt lat="44.10679" lon="3.16875">
        <ele>496</ele>
      </trkpt>
      <trkpt lat="44.10689" lon="3.16844">
        <ele>504</ele>
      </trkpt>
      <trkpt lat="44.10686" lon="3.16822">
        <ele>514</ele>
      </trkpt>
      <trkpt lat="44.10677" lon="3.16814">
        <ele>522</ele>
      </trkpt>
      <trkpt lat="44.10657" lon="3.1682">
        <ele>529</ele>
      </trkpt>
      <trkpt lat="44.10645" lon="3.16835">
        <ele>530</ele>
      </trkpt>
      <trkpt lat="44.10629" lon="3.16845">
        <ele>530</ele>
      </trkpt>
      <trkpt lat="44.10611" lon="3.16856">
        <ele>532</ele>
      </trkpt>
      <trkpt lat="44.10591" lon="3.16856">
        <ele>539</ele>
      </trkpt>
      <trkpt lat="44.10574" lon="3.16864">
        <ele>540</ele>
      </trkpt>
      <trkpt lat="44.10558" lon="3.16859">
        <ele>552</ele>
      </trkpt>
      <trkpt lat="44.10542" lon="3.16854">
        <ele>556</ele>
      </trkpt>
      <trkpt lat="44.10503" lon="3.16857">
        <ele>575</ele>
      </trkpt>
      <trkpt lat="44.10485" lon="3.16853">
        <ele>570</ele>
      </trkpt>
      <trkpt lat="44.10469" lon="3.1683">
        <ele>577</ele>
      </trkpt>
      <trkpt lat="44.10439" lon="3.16811">
        <ele>587</ele>
      </trkpt>
      <trkpt lat="44.10431" lon="3.16801">
        <ele>592</ele>
      </trkpt>
      <trkpt lat="44.10414" lon="3.16795">
        <ele>597</ele>
      </trkpt>
      <trkpt lat="44.10447" lon="3.16791">
        <ele>598</ele>
      </trkpt>
      <trkpt lat="44.1048" lon="3.16767">
        <ele>616</ele>
      </trkpt>
      <trkpt lat="44.10513" lon="3.16739">
        <ele>623</ele>
      </trkpt>
      <trkpt lat="44.10536" lon="3.16706">
        <ele>625</ele>
      </trkpt>
      <trkpt lat="44.10533" lon="3.16695">
        <ele>624</ele>
      </trkpt>
      <trkpt lat="44.10525" lon="3.16681">
        <ele>625</ele>
      </trkpt>
      <trkpt lat="44.10525" lon="3.16643">
        <ele>617</ele>
      </trkpt>
      <trkpt lat="44.10526" lon="3.16593">
        <ele>620</ele>
      </trkpt>
      <trkpt lat="44.10515" lon="3.16572">
        <ele>619</ele>
      </trkpt>
      <trkpt lat="44.1052" lon="3.16552">
        <ele>623</ele>
      </trkpt>
      <trkpt lat="44.10525" lon="3.16531">
        <ele>628</ele>
      </trkpt>
      <trkpt lat="44.10545" lon="3.16507">
        <ele>631</ele>
      </trkpt>
      <trkpt lat="44.1057" lon="3.16477">
        <ele>635</ele>
      </trkpt>
      <trkpt lat="44.10578" lon="3.1645">
        <ele>633</ele>
      </trkpt>
      <trkpt lat="44.10581" lon="3.16428">
        <ele>630</ele>
      </trkpt>
      <trkpt lat="44.10562" lon="3.16399">
        <ele>631</ele>
      </trkpt>
      <trkpt lat="44.10552" lon="3.16391">
        <ele>633</ele>
      </trkpt>
      <trkpt lat="44.10528" lon="3.16355">
        <ele>628</ele>
      </trkpt>
      <trkpt lat="44.10508" lon="3.16354">
        <ele>632</ele>
      </trkpt>
      <trkpt lat="44.10482" lon="3.16371">
        <ele>637</ele>
      </trkpt>
      <trkpt lat="44.10442" lon="3.16396">
        <ele>635</ele>
      </trkpt>
      <trkpt lat="44.10419" lon="3.16382">
        <ele>634</ele>
      </trkpt>
      <trkpt lat="44.10396" lon="3.16368">
        <ele>634</ele>
      </trkpt>
      <trkpt lat="44.10354" lon="3.16338">
        <ele>629</ele>
      </trkpt>
      <trkpt lat="44.10318" lon="3.16335">
        <ele>629</ele>
      </trkpt>
      <trkpt lat="44.10308" lon="3.16352">
        <ele>638</ele>
      </trkpt>
      <trkpt lat="44.10297" lon="3.16362">
        <ele>624</ele>
      </trkpt>
      <trkpt lat="44.10284" lon="3.16359">
        <ele>623</ele>
      </trkpt>
      <trkpt lat="44.10263" lon="3.16352">
        <ele>622</ele>
      </trkpt>
      <trkpt lat="44.10235" lon="3.16343">
        <ele>621</ele>
      </trkpt>
      <trkpt lat="44.10221" lon="3.16329">
        <ele>615</ele>
      </trkpt>
      <trkpt lat="44.10204" lon="3.16324">
        <ele>623</ele>
      </trkpt>
      <trkpt lat="44.10185" lon="3.16318">
        <ele>625</ele>
      </trkpt>
      <trkpt lat="44.1016" lon="3.16293">
        <ele>623</ele>
      </trkpt>
      <trkpt lat="44.10118" lon="3.1625">
        <ele>621</ele>
      </trkpt>
      <trkpt lat="44.10094" lon="3.16229">
        <ele>617</ele>
      </trkpt>
      <trkpt lat="44.10077" lon="3.16247">
        <ele>617</ele>
      </trkpt>
      <trkpt lat="44.10048" lon="3.16267">
        <ele>618</ele>
      </trkpt>
      <trkpt lat="44.10017" lon="3.16251">
        <ele>620</ele>
      </trkpt>
      <trkpt lat="44.09984" lon="3.16258">
        <ele>620</ele>
      </trkpt>
      <trkpt lat="44.09951" lon="3.16266">
        <ele>620</ele>
      </trkpt>
      <trkpt lat="44.09908" lon="3.16275">
        <ele>616</ele>
      </trkpt>
      <trkpt lat="44.09899" lon="3.16297">
        <ele>614</ele>
      </trkpt>
      <trkpt lat="44.09885" lon="3.16318">
        <ele>613</ele>
      </trkpt>
      <trkpt lat="44.09865" lon="3.16349">
        <ele>616</ele>
      </trkpt>
      <trkpt lat="44.09838" lon="3.16363">
        <ele>616</ele>
      </trkpt>
      <trkpt lat="44.09812" lon="3.16357">
        <ele>616</ele>
      </trkpt>
      <trkpt lat="44.0978" lon="3.1635">
        <ele>614</ele>
      </trkpt>
      <trkpt lat="44.0974" lon="3.16331">
        <ele>613</ele>
      </trkpt>
      <trkpt lat="44.09698" lon="3.16335">
        <ele>604</ele>
      </trkpt>
      <trkpt lat="44.09678" lon="3.16369">
        <ele>597</ele>
      </trkpt>
      <trkpt lat="44.09642" lon="3.16431">
        <ele>587</ele>
      </trkpt>
      <trkpt lat="44.09649" lon="3.16393">
        <ele>578</ele>
      </trkpt>
      <trkpt lat="44.09642" lon="3.16337">
        <ele>567</ele>
      </trkpt>
      <trkpt lat="44.09631" lon="3.16333">
        <ele>560</ele>
      </trkpt>
      <trkpt lat="44.09631" lon="3.16321">
        <ele>559</ele>
      </trkpt>
      <trkpt lat="44.09619" lon="3.16312">
        <ele>546</ele>
      </trkpt>
      <trkpt lat="44.09615" lon="3.16265">
        <ele>544</ele>
      </trkpt>
      <trkpt lat="44.09597" lon="3.16227">
        <ele>530</ele>
      </trkpt>
      <trkpt lat="44.09596" lon="3.16187">
        <ele>528</ele>
      </trkpt>
      <trkpt lat="44.09602" lon="3.16166">
        <ele>527</ele>
      </trkpt>
      <trkpt lat="44.0961" lon="3.16146">
        <ele>527</ele>
      </trkpt>
      <trkpt lat="44.09638" lon="3.16147">
        <ele>525</ele>
      </trkpt>
      <trkpt lat="44.09677" lon="3.16149">
        <ele>522</ele>
      </trkpt>
      <trkpt lat="44.09709" lon="3.16134">
        <ele>521</ele>
      </trkpt>
      <trkpt lat="44.09742" lon="3.1612">
        <ele>520</ele>
      </trkpt>
      <trkpt lat="44.09786" lon="3.161">
        <ele>513</ele>
      </trkpt>
      <trkpt lat="44.09813" lon="3.16073">
        <ele>511</ele>
      </trkpt>
      <trkpt lat="44.09839" lon="3.16047">
        <ele>510</ele>
      </trkpt>
      <trkpt lat="44.09869" lon="3.16017">
        <ele>510</ele>
      </trkpt>
      <trkpt lat="44.09896" lon="3.15997">
        <ele>507</ele>
      </trkpt>
      <trkpt lat="44.09941" lon="3.15963">
        <ele>506</ele>
      </trkpt>
      <trkpt lat="44.0997" lon="3.15963">
        <ele>506</ele>
      </trkpt>
      <trkpt lat="44.10015" lon="3.15964">
        <ele>505</ele>
      </trkpt>
      <trkpt lat="44.10041" lon="3.15973">
        <ele>505</ele>
      </trkpt>
      <trkpt lat="44.10056" lon="3.15966">
        <ele>501</ele>
      </trkpt>
      <trkpt lat="44.10085" lon="3.15972">
        <ele>503</ele>
      </trkpt>
      <trkpt lat="44.1012" lon="3.15971">
        <ele>501</ele>
      </trkpt>
      <trkpt lat="44.10153" lon="3.15999">
        <ele>494</ele>
      </trkpt>
      <trkpt lat="44.1016" lon="3.15997">
        <ele>494</ele>
      </trkpt>
      <trkpt lat="44.10159" lon="3.15983">
        <ele>490</ele>
      </trkpt>
      <trkpt lat="44.10187" lon="3.15999">
        <ele>482</ele>
      </trkpt>
      <trkpt lat="44.10215" lon="3.16002">
        <ele>477</ele>
      </trkpt>
      <trkpt lat="44.1018" lon="3.1597">
        <ele>472</ele>
      </trkpt>
      <trkpt lat="44.10182" lon="3.15956">
        <ele>464</ele>
      </trkpt>
      <trkpt lat="44.10214" lon="3.15967">
        <ele>460</ele>
      </trkpt>
      <trkpt lat="44.10246" lon="3.15977">
        <ele>455</ele>
      </trkpt>
      <trkpt lat="44.10304" lon="3.15996">
        <ele>449</ele>
      </trkpt>
      <trkpt lat="44.10331" lon="3.1598">
        <ele>441</ele>
      </trkpt>
      <trkpt lat="44.1037" lon="3.15979">
        <ele>438</ele>
      </trkpt>
      <trkpt lat="44.10409" lon="3.15991">
        <ele>435</ele>
      </trkpt>
      <trkpt lat="44.10437" lon="3.15989">
        <ele>423</ele>
      </trkpt>
      <trkpt lat="44.1047" lon="3.15955">
        <ele>417</ele>
      </trkpt>
      <trkpt lat="44.10509" lon="3.1595">
        <ele>411</ele>
      </trkpt>
      <trkpt lat="44.10546" lon="3.15934">
        <ele>403</ele>
      </trkpt>
      <trkpt lat="44.10522" lon="3.15893">
        <ele>394</ele>
      </trkpt>
      <trkpt lat="44.10524" lon="3.15879">
        <ele>394</ele>
      </trkpt>
      <trkpt lat="44.10549" lon="3.15881">
        <ele>392</ele>
      </trkpt>
      <trkpt lat="44.10573" lon="3.15865">
        <ele>392</ele>
      </trkpt>
      <trkpt lat="44.10601" lon="3.15846">
        <ele>394</ele>
      </trkpt>
      <trkpt lat="44.10632" lon="3.15838">
        <ele>395</ele>
      </trkpt>
      <trkpt lat="44.10653" lon="3.15839">
        <ele>396</ele>
      </trkpt>
      <trkpt lat="44.10675" lon="3.15799">
        <ele>394</ele>
      </trkpt>
      <trkpt lat="44.10691" lon="3.15758">
        <ele>395</ele>
      </trkpt>
      <trkpt lat="44.10696" lon="3.15716">
        <ele>395</ele>
      </trkpt>
      <trkpt lat="44.10706" lon="3.15645">
        <ele>395</ele>
      </trkpt>
      <trkpt lat="44.10706" lon="3.15605">
        <ele>393</ele>
      </trkpt>
      <trkpt lat="44.10696" lon="3.15557">
        <ele>391</ele>
      </trkpt>
      <trkpt lat="44.10678" lon="3.15517">
        <ele>391</ele>
      </trkpt>
      <trkpt lat="44.10659" lon="3.15477">
        <ele>391</ele>
      </trkpt>
      <trkpt lat="44.10634" lon="3.15422">
        <ele>390</ele>
      </trkpt>
      <trkpt lat="44.10625" lon="3.15386">
        <ele>390</ele>
      </trkpt>
      <trkpt lat="44.10613" lon="3.1534">
        <ele>391</ele>
      </trkpt>
      <trkpt lat="44.10586" lon="3.15291">
        <ele>387</ele>
      </trkpt>
      <trkpt lat="44.10573" lon="3.15239">
        <ele>388</ele>
      </trkpt>
      <trkpt lat="44.10552" lon="3.15196">
        <ele>387</ele>
      </trkpt>
      <trkpt lat="44.10545" lon="3.1516">
        <ele>387</ele>
      </trkpt>
      <trkpt lat="44.10535" lon="3.15113">
        <ele>389</ele>
      </trkpt>
      <trkpt lat="44.10524" lon="3.15095">
        <ele>394</ele>
      </trkpt>
      <trkpt lat="44.1052" lon="3.15064">
        <ele>390</ele>
      </trkpt>
      <trkpt lat="44.10514" lon="3.15017">
        <ele>390</ele>
      </trkpt>
      <trkpt lat="44.10514" lon="3.14972">
        <ele>390</ele>
      </trkpt>
      <trkpt lat="44.10515" lon="3.14926">
        <ele>387</ele>
      </trkpt>
      <trkpt lat="44.10515" lon="3.14879">
        <ele>394</ele>
      </trkpt>
      <trkpt lat="44.10499" lon="3.14853">
        <ele>401</ele>
      </trkpt>
      <trkpt lat="44.10509" lon="3.14804">
        <ele>400</ele>
      </trkpt>
      <trkpt lat="44.10518" lon="3.14754">
        <ele>400</ele>
      </trkpt>
      <trkpt lat="44.10528" lon="3.14705">
        <ele>401</ele>
      </trkpt>
      <trkpt lat="44.10539" lon="3.1465">
        <ele>399</ele>
      </trkpt>
      <trkpt lat="44.1055" lon="3.14613">
        <ele>402</ele>
      </trkpt>
      <trkpt lat="44.10566" lon="3.1456">
        <ele>403</ele>
      </trkpt>
      <trkpt lat="44.10564" lon="3.14523">
        <ele>400</ele>
      </trkpt>
      <trkpt lat="44.10558" lon="3.14493">
        <ele>401</ele>
      </trkpt>
      <trkpt lat="44.10566" lon="3.1446">
        <ele>402</ele>
      </trkpt>
      <trkpt lat="44.10599" lon="3.14446">
        <ele>401</ele>
      </trkpt>
      <trkpt lat="44.10621" lon="3.14409">
        <ele>400</ele>
      </trkpt>
      <trkpt lat="44.10642" lon="3.14371">
        <ele>396</ele>
      </trkpt>
      <trkpt lat="44.10674" lon="3.14317">
        <ele>391</ele>
      </trkpt>
      <trkpt lat="44.10686" lon="3.14285">
        <ele>391</ele>
      </trkpt>
      <trkpt lat="44.10699" lon="3.14247">
        <ele>391</ele>
      </trkpt>
      <trkpt lat="44.10711" lon="3.14198">
        <ele>391</ele>
      </trkpt>
      <trkpt lat="44.10697" lon="3.14198">
        <ele>397</ele>
      </trkpt>
      <trkpt lat="44.10686" lon="3.14187">
        <ele>404</ele>
      </trkpt>
      <trkpt lat="44.10685" lon="3.14171">
        <ele>406</ele>
      </trkpt>
      <trkpt lat="44.1069" lon="3.1416">
        <ele>408</ele>
      </trkpt>
      <trkpt lat="44.10686" lon="3.14153">
        <ele>408</ele>
      </trkpt>
      <trkpt lat="44.10685" lon="3.14144">
        <ele>409</ele>
      </trkpt>
      <trkpt lat="44.10678" lon="3.14144">
        <ele>412</ele>
      </trkpt>
      <trkpt lat="44.10672" lon="3.14138">
        <ele>413</ele>
      </trkpt>
      <trkpt lat="44.10645" lon="3.14141">
        <ele>424</ele>
      </trkpt>
      <trkpt lat="44.10634" lon="3.14154">
        <ele>426</ele>
      </trkpt>
      <trkpt lat="44.10623" lon="3.14157">
        <ele>430</ele>
      </trkpt>
      <trkpt lat="44.10599" lon="3.14185">
        <ele>443</ele>
      </trkpt>
      <trkpt lat="44.10552" lon="3.1424">
        <ele>453</ele>
      </trkpt>
      <trkpt lat="44.10534" lon="3.14266">
        <ele>461</ele>
      </trkpt>
      <trkpt lat="44.10512" lon="3.14297">
        <ele>465</ele>
      </trkpt>
      <trkpt lat="44.10489" lon="3.14318">
        <ele>474</ele>
      </trkpt>
      <trkpt lat="44.10475" lon="3.14319">
        <ele>477</ele>
      </trkpt>
      <trkpt lat="44.10459" lon="3.14305">
        <ele>484</ele>
      </trkpt>
      <trkpt lat="44.10458" lon="3.14296">
        <ele>489</ele>
      </trkpt>
      <trkpt lat="44.10469" lon="3.14265">
        <ele>494</ele>
      </trkpt>
      <trkpt lat="44.10465" lon="3.14253">
        <ele>496</ele>
      </trkpt>
      <trkpt lat="44.10465" lon="3.14224">
        <ele>503</ele>
      </trkpt>
      <trkpt lat="44.10466" lon="3.14194">
        <ele>508</ele>
      </trkpt>
      <trkpt lat="44.10463" lon="3.14171">
        <ele>511</ele>
      </trkpt>
      <trkpt lat="44.10462" lon="3.14138">
        <ele>516</ele>
      </trkpt>
      <trkpt lat="44.10457" lon="3.14115">
        <ele>524</ele>
      </trkpt>
      <trkpt lat="44.10458" lon="3.14081">
        <ele>528</ele>
      </trkpt>
      <trkpt lat="44.10453" lon="3.14066">
        <ele>530</ele>
      </trkpt>
      <trkpt lat="44.10466" lon="3.14031">
        <ele>540</ele>
      </trkpt>
      <trkpt lat="44.10456" lon="3.14022">
        <ele>547</ele>
      </trkpt>
      <trkpt lat="44.10453" lon="3.14005">
        <ele>552</ele>
      </trkpt>
      <trkpt lat="44.10445" lon="3.14005">
        <ele>555</ele>
      </trkpt>
      <trkpt lat="44.10442" lon="3.13989">
        <ele>559</ele>
      </trkpt>
      <trkpt lat="44.10432" lon="3.13955">
        <ele>567</ele>
      </trkpt>
      <trkpt lat="44.1042" lon="3.13916">
        <ele>578</ele>
      </trkpt>
      <trkpt lat="44.10419" lon="3.13893">
        <ele>582</ele>
      </trkpt>
      <trkpt lat="44.1041" lon="3.13888">
        <ele>589</ele>
      </trkpt>
      <trkpt lat="44.1041" lon="3.13858">
        <ele>596</ele>
      </trkpt>
      <trkpt lat="44.10403" lon="3.13857">
        <ele>596</ele>
      </trkpt>
      <trkpt lat="44.10408" lon="3.13844">
        <ele>598</ele>
      </trkpt>
      <trkpt lat="44.10403" lon="3.13831">
        <ele>602</ele>
      </trkpt>
      <trkpt lat="44.10393" lon="3.13831">
        <ele>605</ele>
      </trkpt>
      <trkpt lat="44.10399" lon="3.13788">
        <ele>622</ele>
      </trkpt>
      <trkpt lat="44.10371" lon="3.13801">
        <ele>627</ele>
      </trkpt>
      <trkpt lat="44.10336" lon="3.13838">
        <ele>644</ele>
      </trkpt>
      <trkpt lat="44.10333" lon="3.13805">
        <ele>651</ele>
      </trkpt>
      <trkpt lat="44.10341" lon="3.13768">
        <ele>658</ele>
      </trkpt>
      <trkpt lat="44.10346" lon="3.13753">
        <ele>662</ele>
      </trkpt>
      <trkpt lat="44.10346" lon="3.13738">
        <ele>669</ele>
      </trkpt>
      <trkpt lat="44.10338" lon="3.13744">
        <ele>671</ele>
      </trkpt>
      <trkpt lat="44.10338" lon="3.13727">
        <ele>676</ele>
      </trkpt>
      <trkpt lat="44.10328" lon="3.13719">
        <ele>680</ele>
      </trkpt>
      <trkpt lat="44.10328" lon="3.13713">
        <ele>680</ele>
      </trkpt>
      <trkpt lat="44.10323" lon="3.13711">
        <ele>676</ele>
      </trkpt>
      <trkpt lat="44.10314" lon="3.13684">
        <ele>677</ele>
      </trkpt>
      <trkpt lat="44.10289" lon="3.13711">
        <ele>681</ele>
      </trkpt>
      <trkpt lat="44.10278" lon="3.13731">
        <ele>685</ele>
      </trkpt>
      <trkpt lat="44.10261" lon="3.13746">
        <ele>687</ele>
      </trkpt>
      <trkpt lat="44.10239" lon="3.13766">
        <ele>693</ele>
      </trkpt>
      <trkpt lat="44.1022" lon="3.13791">
        <ele>701</ele>
      </trkpt>
      <trkpt lat="44.10199" lon="3.13819">
        <ele>701</ele>
      </trkpt>
      <trkpt lat="44.10188" lon="3.13829">
        <ele>701</ele>
      </trkpt>
      <trkpt lat="44.10174" lon="3.13852">
        <ele>706</ele>
      </trkpt>
      <trkpt lat="44.10155" lon="3.13883">
        <ele>706</ele>
      </trkpt>
      <trkpt lat="44.10135" lon="3.13897">
        <ele>707</ele>
      </trkpt>
      <trkpt lat="44.10112" lon="3.13905">
        <ele>710</ele>
      </trkpt>
      <trkpt lat="44.10078" lon="3.13906">
        <ele>711</ele>
      </trkpt>
      <trkpt lat="44.10044" lon="3.13907">
        <ele>714</ele>
      </trkpt>
      <trkpt lat="44.09999" lon="3.13908">
        <ele>719</ele>
      </trkpt>
      <trkpt lat="44.09987" lon="3.13903">
        <ele>722</ele>
      </trkpt>
      <trkpt lat="44.09971" lon="3.13861">
        <ele>719</ele>
      </trkpt>
      <trkpt lat="44.09963" lon="3.1385">
        <ele>719</ele>
      </trkpt>
      <trkpt lat="44.09938" lon="3.13847">
        <ele>716</ele>
      </trkpt>
      <trkpt lat="44.09898" lon="3.13842">
        <ele>716</ele>
      </trkpt>
      <trkpt lat="44.09882" lon="3.13847">
        <ele>715</ele>
      </trkpt>
      <trkpt lat="44.09863" lon="3.13843">
        <ele>716</ele>
      </trkpt>
      <trkpt lat="44.09841" lon="3.13838">
        <ele>716</ele>
      </trkpt>
      <trkpt lat="44.09838" lon="3.13852">
        <ele>717</ele>
      </trkpt>
      <trkpt lat="44.09837" lon="3.13885">
        <ele>716</ele>
      </trkpt>
      <trkpt lat="44.09829" lon="3.13905">
        <ele>715</ele>
      </trkpt>
      <trkpt lat="44.09814" lon="3.13928">
        <ele>716</ele>
      </trkpt>
      <trkpt lat="44.09789" lon="3.13957">
        <ele>719</ele>
      </trkpt>
      <trkpt lat="44.09763" lon="3.13972">
        <ele>722</ele>
      </trkpt>
      <trkpt lat="44.0974" lon="3.14">
        <ele>723</ele>
      </trkpt>
      <trkpt lat="44.09698" lon="3.14051">
        <ele>724</ele>
      </trkpt>
      <trkpt lat="44.09692" lon="3.14066">
        <ele>724</ele>
      </trkpt>
      <trkpt lat="44.09694" lon="3.1411">
        <ele>726</ele>
      </trkpt>
      <trkpt lat="44.09686" lon="3.14148">
        <ele>726</ele>
      </trkpt>
      <trkpt lat="44.09676" lon="3.14199">
        <ele>725</ele>
      </trkpt>
      <trkpt lat="44.09667" lon="3.14206">
        <ele>725</ele>
      </trkpt>
      <trkpt lat="44.09651" lon="3.14214">
        <ele>724</ele>
      </trkpt>
      <trkpt lat="44.09621" lon="3.14216">
        <ele>723</ele>
      </trkpt>
      <trkpt lat="44.09596" lon="3.14215">
        <ele>723</ele>
      </trkpt>
      <trkpt lat="44.09571" lon="3.14214">
        <ele>724</ele>
      </trkpt>
      <trkpt lat="44.09546" lon="3.14223">
        <ele>724</ele>
      </trkpt>
      <trkpt lat="44.09516" lon="3.1424">
        <ele>725</ele>
      </trkpt>
      <trkpt lat="44.09459" lon="3.14273">
        <ele>725</ele>
      </trkpt>
      <trkpt lat="44.09435" lon="3.14278">
        <ele>724</ele>
      </trkpt>
      <trkpt lat="44.09409" lon="3.143">
        <ele>724</ele>
      </trkpt>
      <trkpt lat="44.09362" lon="3.14341">
        <ele>722</ele>
      </trkpt>
      <trkpt lat="44.09345" lon="3.14332">
        <ele>720</ele>
      </trkpt>
      <trkpt lat="44.09332" lon="3.14336">
        <ele>721</ele>
      </trkpt>
      <trkpt lat="44.09293" lon="3.14352">
        <ele>721</ele>
      </trkpt>
      <trkpt lat="44.09263" lon="3.14346">
        <ele>724</ele>
      </trkpt>
      <trkpt lat="44.09242" lon="3.14356">
        <ele>725</ele>
      </trkpt>
      <trkpt lat="44.09207" lon="3.14366">
        <ele>727</ele>
      </trkpt>
      <trkpt lat="44.09184" lon="3.14387">
        <ele>730</ele>
      </trkpt>
      <trkpt lat="44.09155" lon="3.14411">
        <ele>731</ele>
      </trkpt>
      <trkpt lat="44.09129" lon="3.14401">
        <ele>733</ele>
      </trkpt>
      <trkpt lat="44.09098" lon="3.14389">
        <ele>734</ele>
      </trkpt>
      <trkpt lat="44.09061" lon="3.14359">
        <ele>734</ele>
      </trkpt>
      <trkpt lat="44.09034" lon="3.14377">
        <ele>735</ele>
      </trkpt>
      <trkpt lat="44.08987" lon="3.14408">
        <ele>735</ele>
      </trkpt>
      <trkpt lat="44.08954" lon="3.14419">
        <ele>735</ele>
      </trkpt>
      <trkpt lat="44.08921" lon="3.1443">
        <ele>736</ele>
      </trkpt>
      <trkpt lat="44.08878" lon="3.14444">
        <ele>736</ele>
      </trkpt>
      <trkpt lat="44.08847" lon="3.14465">
        <ele>737</ele>
      </trkpt>
      <trkpt lat="44.08816" lon="3.14485">
        <ele>737</ele>
      </trkpt>
      <trkpt lat="44.08771" lon="3.14516">
        <ele>737</ele>
      </trkpt>
      <trkpt lat="44.08764" lon="3.14561">
        <ele>740</ele>
      </trkpt>
      <trkpt lat="44.08738" lon="3.14587">
        <ele>744</ele>
      </trkpt>
      <trkpt lat="44.08714" lon="3.14594">
        <ele>746</ele>
      </trkpt>
      <trkpt lat="44.0869" lon="3.14612">
        <ele>747</ele>
      </trkpt>
      <trkpt lat="44.08658" lon="3.14635">
        <ele>750</ele>
      </trkpt>
      <trkpt lat="44.08633" lon="3.14605">
        <ele>750</ele>
      </trkpt>
      <trkpt lat="44.08608" lon="3.14576">
        <ele>750</ele>
      </trkpt>
      <trkpt lat="44.08579" lon="3.14542">
        <ele>750</ele>
      </trkpt>
      <trkpt lat="44.0858" lon="3.1451">
        <ele>750</ele>
      </trkpt>
      <trkpt lat="44.08606" lon="3.14495">
        <ele>750</ele>
      </trkpt>
      <trkpt lat="44.08623" lon="3.14465">
        <ele>752</ele>
      </trkpt>
      <trkpt lat="44.08633" lon="3.14436">
        <ele>753</ele>
      </trkpt>
      <trkpt lat="44.08612" lon="3.14393">
        <ele>755</ele>
      </trkpt>
      <trkpt lat="44.08585" lon="3.14372">
        <ele>757</ele>
      </trkpt>
      <trkpt lat="44.08561" lon="3.14345">
        <ele>759</ele>
      </trkpt>
      <trkpt lat="44.08552" lon="3.14296">
        <ele>760</ele>
      </trkpt>
      <trkpt lat="44.08558" lon="3.1425">
        <ele>761</ele>
      </trkpt>
      <trkpt lat="44.08573" lon="3.14198">
        <ele>761</ele>
      </trkpt>
      <trkpt lat="44.08588" lon="3.14147">
        <ele>763</ele>
      </trkpt>
      <trkpt lat="44.08603" lon="3.14095">
        <ele>763</ele>
      </trkpt>
      <trkpt lat="44.08618" lon="3.14043">
        <ele>763</ele>
      </trkpt>
      <trkpt lat="44.08644" lon="3.13953">
        <ele>761</ele>
      </trkpt>
      <trkpt lat="44.08648" lon="3.13917">
        <ele>760</ele>
      </trkpt>
      <trkpt lat="44.08676" lon="3.13872">
        <ele>757</ele>
      </trkpt>
      <trkpt lat="44.08685" lon="3.1383">
        <ele>754</ele>
      </trkpt>
      <trkpt lat="44.08685" lon="3.1381">
        <ele>753</ele>
      </trkpt>
      <trkpt lat="44.08712" lon="3.13795">
        <ele>750</ele>
      </trkpt>
      <trkpt lat="44.08738" lon="3.1378">
        <ele>748</ele>
      </trkpt>
      <trkpt lat="44.0877" lon="3.13763">
        <ele>746</ele>
      </trkpt>
      <trkpt lat="44.08783" lon="3.13748">
        <ele>744</ele>
      </trkpt>
      <trkpt lat="44.08807" lon="3.13734">
        <ele>742</ele>
      </trkpt>
      <trkpt lat="44.08851" lon="3.13709">
        <ele>736</ele>
      </trkpt>
      <trkpt lat="44.08869" lon="3.13706">
        <ele>735</ele>
      </trkpt>
      <trkpt lat="44.08887" lon="3.13687">
        <ele>732</ele>
      </trkpt>
      <trkpt lat="44.08912" lon="3.13669">
        <ele>728</ele>
      </trkpt>
      <trkpt lat="44.08927" lon="3.13635">
        <ele>725</ele>
      </trkpt>
      <trkpt lat="44.08934" lon="3.13615">
        <ele>722</ele>
      </trkpt>
      <trkpt lat="44.08935" lon="3.13594">
        <ele>722</ele>
      </trkpt>
      <trkpt lat="44.08942" lon="3.13581">
        <ele>719</ele>
      </trkpt>
      <trkpt lat="44.08945" lon="3.13567">
        <ele>718</ele>
      </trkpt>
      <trkpt lat="44.0894" lon="3.13548">
        <ele>713</ele>
      </trkpt>
      <trkpt lat="44.08921" lon="3.13539">
        <ele>713</ele>
      </trkpt>
      <trkpt lat="44.08897" lon="3.13528">
        <ele>708</ele>
      </trkpt>
      <trkpt lat="44.08885" lon="3.13514">
        <ele>707</ele>
      </trkpt>
      <trkpt lat="44.08878" lon="3.13499">
        <ele>703</ele>
      </trkpt>
      <trkpt lat="44.0886" lon="3.1348">
        <ele>700</ele>
      </trkpt>
      <trkpt lat="44.08846" lon="3.13475">
        <ele>699</ele>
      </trkpt>
      <trkpt lat="44.08825" lon="3.1348">
        <ele>699</ele>
      </trkpt>
      <trkpt lat="44.08778" lon="3.13475">
        <ele>698</ele>
      </trkpt>
      <trkpt lat="44.08757" lon="3.13468">
        <ele>696</ele>
      </trkpt>
      <trkpt lat="44.08732" lon="3.1345">
        <ele>691</ele>
      </trkpt>
      <trkpt lat="44.08703" lon="3.13451">
        <ele>693</ele>
      </trkpt>
      <trkpt lat="44.08659" lon="3.13453">
        <ele>693</ele>
      </trkpt>
      <trkpt lat="44.08659" lon="3.13412">
        <ele>691</ele>
      </trkpt>
      <trkpt lat="44.08663" lon="3.13373">
        <ele>690</ele>
      </trkpt>
      <trkpt lat="44.08669" lon="3.13319">
        <ele>690</ele>
      </trkpt>
      <trkpt lat="44.08666" lon="3.13292">
        <ele>688</ele>
      </trkpt>
      <trkpt lat="44.08658" lon="3.13276">
        <ele>685</ele>
      </trkpt>
      <trkpt lat="44.0864" lon="3.13268">
        <ele>688</ele>
      </trkpt>
      <trkpt lat="44.0862" lon="3.13275">
        <ele>689</ele>
      </trkpt>
      <trkpt lat="44.08594" lon="3.13275">
        <ele>690</ele>
      </trkpt>
      <trkpt lat="44.08566" lon="3.13276">
        <ele>690</ele>
      </trkpt>
      <trkpt lat="44.08541" lon="3.13263">
        <ele>690</ele>
      </trkpt>
      <trkpt lat="44.0852" lon="3.13243">
        <ele>690</ele>
      </trkpt>
      <trkpt lat="44.08498" lon="3.13221">
        <ele>688</ele>
      </trkpt>
      <trkpt lat="44.0847" lon="3.13226">
        <ele>687</ele>
      </trkpt>
      <trkpt lat="44.08452" lon="3.13226">
        <ele>684</ele>
      </trkpt>
      <trkpt lat="44.08427" lon="3.13229">
        <ele>685</ele>
      </trkpt>
      <trkpt lat="44.08383" lon="3.13234">
        <ele>683</ele>
      </trkpt>
      <trkpt lat="44.08353" lon="3.13223">
        <ele>680</ele>
      </trkpt>
      <trkpt lat="44.08298" lon="3.13204">
        <ele>672</ele>
      </trkpt>
      <trkpt lat="44.08283" lon="3.13211">
        <ele>673</ele>
      </trkpt>
      <trkpt lat="44.08259" lon="3.13235">
        <ele>672</ele>
      </trkpt>
      <trkpt lat="44.08243" lon="3.13275">
        <ele>672</ele>
      </trkpt>
      <trkpt lat="44.08227" lon="3.13316">
        <ele>667</ele>
      </trkpt>
      <trkpt lat="44.08209" lon="3.13363">
        <ele>667</ele>
      </trkpt>
      <trkpt lat="44.08197" lon="3.13398">
        <ele>667</ele>
      </trkpt>
      <trkpt lat="44.0819" lon="3.13412">
        <ele>664</ele>
      </trkpt>
      <trkpt lat="44.08201" lon="3.13366">
        <ele>667</ele>
      </trkpt>
      <trkpt lat="44.08199" lon="3.13356">
        <ele>657</ele>
      </trkpt>
      <trkpt lat="44.08211" lon="3.13318">
        <ele>662</ele>
      </trkpt>
      <trkpt lat="44.08234" lon="3.13242">
        <ele>660</ele>
      </trkpt>
      <trkpt lat="44.08247" lon="3.1321">
        <ele>657</ele>
      </trkpt>
      <trkpt lat="44.08261" lon="3.13197">
        <ele>661</ele>
      </trkpt>
      <trkpt lat="44.0827" lon="3.13172">
        <ele>657</ele>
      </trkpt>
      <trkpt lat="44.08283" lon="3.13139">
        <ele>655</ele>
      </trkpt>
      <trkpt lat="44.08328" lon="3.13162">
        <ele>654</ele>
      </trkpt>
      <trkpt lat="44.08346" lon="3.1316">
        <ele>651</ele>
      </trkpt>
      <trkpt lat="44.08329" lon="3.13144">
        <ele>643</ele>
      </trkpt>
      <trkpt lat="44.08363" lon="3.1314">
        <ele>634</ele>
      </trkpt>
      <trkpt lat="44.08397" lon="3.13137">
        <ele>625</ele>
      </trkpt>
      <trkpt lat="44.08442" lon="3.13132">
        <ele>624</ele>
      </trkpt>
      <trkpt lat="44.0847" lon="3.1312">
        <ele>618</ele>
      </trkpt>
      <trkpt lat="44.08512" lon="3.13102">
        <ele>605</ele>
      </trkpt>
      <trkpt lat="44.08546" lon="3.13096">
        <ele>599</ele>
      </trkpt>
      <trkpt lat="44.08581" lon="3.1309">
        <ele>589</ele>
      </trkpt>
      <trkpt lat="44.08635" lon="3.1308">
        <ele>579</ele>
      </trkpt>
      <trkpt lat="44.08673" lon="3.13085">
        <ele>572</ele>
      </trkpt>
      <trkpt lat="44.08706" lon="3.13075">
        <ele>567</ele>
      </trkpt>
      <trkpt lat="44.08739" lon="3.13065">
        <ele>562</ele>
      </trkpt>
      <trkpt lat="44.08783" lon="3.13052">
        <ele>559</ele>
      </trkpt>
      <trkpt lat="44.08817" lon="3.13057">
        <ele>553</ele>
      </trkpt>
      <trkpt lat="44.08851" lon="3.13062">
        <ele>547</ele>
      </trkpt>
      <trkpt lat="44.08897" lon="3.13069">
        <ele>539</ele>
      </trkpt>
      <trkpt lat="44.08907" lon="3.13099">
        <ele>537</ele>
      </trkpt>
      <trkpt lat="44.08925" lon="3.13081">
        <ele>533</ele>
      </trkpt>
      <trkpt lat="44.08942" lon="3.13057">
        <ele>523</ele>
      </trkpt>
      <trkpt lat="44.08959" lon="3.13032">
        <ele>519</ele>
      </trkpt>
      <trkpt lat="44.08987" lon="3.13016">
        <ele>514</ele>
      </trkpt>
      <trkpt lat="44.09036" lon="3.1299">
        <ele>508</ele>
      </trkpt>
      <trkpt lat="44.09076" lon="3.12984">
        <ele>500</ele>
      </trkpt>
      <trkpt lat="44.09109" lon="3.13019">
        <ele>494</ele>
      </trkpt>
      <trkpt lat="44.09136" lon="3.13012">
        <ele>489</ele>
      </trkpt>
      <trkpt lat="44.09171" lon="3.13003">
        <ele>483</ele>
      </trkpt>
      <trkpt lat="44.09197" lon="3.12995">
        <ele>473</ele>
      </trkpt>
      <trkpt lat="44.09212" lon="3.12979">
        <ele>472</ele>
      </trkpt>
      <trkpt lat="44.09234" lon="3.12966">
        <ele>469</ele>
      </trkpt>
      <trkpt lat="44.09271" lon="3.12944">
        <ele>464</ele>
      </trkpt>
      <trkpt lat="44.09264" lon="3.12938">
        <ele>461</ele>
      </trkpt>
      <trkpt lat="44.0926" lon="3.12931">
        <ele>461</ele>
      </trkpt>
      <trkpt lat="44.0929" lon="3.12916">
        <ele>463</ele>
      </trkpt>
      <trkpt lat="44.09318" lon="3.12923">
        <ele>457</ele>
      </trkpt>
      <trkpt lat="44.09358" lon="3.12933">
        <ele>451</ele>
      </trkpt>
      <trkpt lat="44.09386" lon="3.12947">
        <ele>445</ele>
      </trkpt>
      <trkpt lat="44.09397" lon="3.12943">
        <ele>444</ele>
      </trkpt>
      <trkpt lat="44.09426" lon="3.12955">
        <ele>442</ele>
      </trkpt>
      <trkpt lat="44.09445" lon="3.1295">
        <ele>439</ele>
      </trkpt>
      <trkpt lat="44.09464" lon="3.12924">
        <ele>434</ele>
      </trkpt>
      <trkpt lat="44.09482" lon="3.12897">
        <ele>429</ele>
      </trkpt>
      <trkpt lat="44.09503" lon="3.12868">
        <ele>431</ele>
      </trkpt>
      <trkpt lat="44.09504" lon="3.12849">
        <ele>431</ele>
      </trkpt>
      <trkpt lat="44.09526" lon="3.12817">
        <ele>430</ele>
      </trkpt>
      <trkpt lat="44.0956" lon="3.12811">
        <ele>429</ele>
      </trkpt>
      <trkpt lat="44.09581" lon="3.12813">
        <ele>429</ele>
      </trkpt>
      <trkpt lat="44.09595" lon="3.12795">
        <ele>432</ele>
      </trkpt>
      <trkpt lat="44.09615" lon="3.12788">
        <ele>428</ele>
      </trkpt>
      <trkpt lat="44.09643" lon="3.12778">
        <ele>427</ele>
      </trkpt>
      <trkpt lat="44.09664" lon="3.12773">
        <ele>421</ele>
      </trkpt>
      <trkpt lat="44.09692" lon="3.12783">
        <ele>410</ele>
      </trkpt>
      <trkpt lat="44.09706" lon="3.12798">
        <ele>407</ele>
      </trkpt>
      <trkpt lat="44.09709" lon="3.12814">
        <ele>405</ele>
      </trkpt>
      <trkpt lat="44.09716" lon="3.12827">
        <ele>403</ele>
      </trkpt>
      <trkpt lat="44.09744" lon="3.12844">
        <ele>397</ele>
      </trkpt>
      <trkpt lat="44.09766" lon="3.12861">
        <ele>396</ele>
      </trkpt>
      <trkpt lat="44.09805" lon="3.12854">
        <ele>391</ele>
      </trkpt>
      <trkpt lat="44.09824" lon="3.12833">
        <ele>389</ele>
      </trkpt>
      <trkpt lat="44.0985" lon="3.12825">
        <ele>390</ele>
      </trkpt>
      <trkpt lat="44.09881" lon="3.12815">
        <ele>386</ele>
      </trkpt>
      <trkpt lat="44.09905" lon="3.12798">
        <ele>382</ele>
      </trkpt>
      <trkpt lat="44.09937" lon="3.12777">
        <ele>377</ele>
      </trkpt>
      <trkpt lat="44.09978" lon="3.12772">
        <ele>377</ele>
      </trkpt>
      <trkpt lat="44.10016" lon="3.12773">
        <ele>379</ele>
      </trkpt>
      <trkpt lat="44.10049" lon="3.12783">
        <ele>382</ele>
      </trkpt>
      <trkpt lat="44.10073" lon="3.12794">
        <ele>384</ele>
      </trkpt>
      <trkpt lat="44.10098" lon="3.12805">
        <ele>384</ele>
      </trkpt>
      <trkpt lat="44.1011" lon="3.12841">
        <ele>390</ele>
      </trkpt>
      <trkpt lat="44.10126" lon="3.12891">
        <ele>390</ele>
      </trkpt>
      <trkpt lat="44.10129" lon="3.12908">
        <ele>399</ele>
      </trkpt>
      <trkpt lat="44.10148" lon="3.12934">
        <ele>390</ele>
      </trkpt>
      <trkpt lat="44.10158" lon="3.12955">
        <ele>391</ele>
      </trkpt>
      <trkpt lat="44.10162" lon="3.12976">
        <ele>383</ele>
      </trkpt>
      <trkpt lat="44.10172" lon="3.12984">
        <ele>378</ele>
      </trkpt>
      <trkpt lat="44.10186" lon="3.13002">
        <ele>383</ele>
      </trkpt>
      <trkpt lat="44.10201" lon="3.13022">
        <ele>379</ele>
      </trkpt>
      <trkpt lat="44.10213" lon="3.1303">
        <ele>374</ele>
      </trkpt>
      <trkpt lat="44.10196" lon="3.13006">
        <ele>376</ele>
      </trkpt>
      <trkpt lat="44.10171" lon="3.12968">
        <ele>368</ele>
      </trkpt>
      <trkpt lat="44.10197" lon="3.12931">
        <ele>367</ele>
      </trkpt>
      <trkpt lat="44.10221" lon="3.12927">
        <ele>367</ele>
      </trkpt>
      <trkpt lat="44.10232" lon="3.12914">
        <ele>367</ele>
      </trkpt>
      <trkpt lat="44.1022" lon="3.12893">
        <ele>367</ele>
      </trkpt>
      <trkpt lat="44.10205" lon="3.12856">
        <ele>366</ele>
      </trkpt>
      <trkpt lat="44.10197" lon="3.12817">
        <ele>366</ele>
      </trkpt>
      <trkpt lat="44.10191" lon="3.12777">
        <ele>366</ele>
      </trkpt>
      <trkpt lat="44.10182" lon="3.12715">
        <ele>366</ele>
      </trkpt>
      <trkpt lat="44.10194" lon="3.12714">
        <ele>366</ele>
      </trkpt>
      <trkpt lat="44.10201" lon="3.12675">
        <ele>366</ele>
      </trkpt>
      <trkpt lat="44.10213" lon="3.12683">
        <ele>367</ele>
      </trkpt>
      <trkpt lat="44.10224" lon="3.12709">
        <ele>369</ele>
      </trkpt>
      <trkpt lat="44.10239" lon="3.12721">
        <ele>373</ele>
      </trkpt>
      <trkpt lat="44.10246" lon="3.12737">
        <ele>376</ele>
      </trkpt>
      <trkpt lat="44.10274" lon="3.12694">
        <ele>381</ele>
      </trkpt>
      <trkpt lat="44.1031" lon="3.12673">
        <ele>390</ele>
      </trkpt>
      <trkpt lat="44.10317" lon="3.12702">
        <ele>395</ele>
      </trkpt>
      <trkpt lat="44.10326" lon="3.12679">
        <ele>398</ele>
      </trkpt>
      <trkpt lat="44.10338" lon="3.12669">
        <ele>400</ele>
      </trkpt>
      <trkpt lat="44.10344" lon="3.12654">
        <ele>402</ele>
      </trkpt>
      <trkpt lat="44.10347" lon="3.12682">
        <ele>405</ele>
      </trkpt>
      <trkpt lat="44.10367" lon="3.12636">
        <ele>409</ele>
      </trkpt>
      <trkpt lat="44.10383" lon="3.12643">
        <ele>420</ele>
      </trkpt>
      <trkpt lat="44.104" lon="3.12668">
        <ele>424</ele>
      </trkpt>
      <trkpt lat="44.10422" lon="3.1268">
        <ele>435</ele>
      </trkpt>
      <trkpt lat="44.10435" lon="3.12685">
        <ele>438</ele>
      </trkpt>
      <trkpt lat="44.10455" lon="3.12677">
        <ele>447</ele>
      </trkpt>
      <trkpt lat="44.10461" lon="3.1262">
        <ele>456</ele>
      </trkpt>
      <trkpt lat="44.10483" lon="3.12568">
        <ele>468</ele>
      </trkpt>
      <trkpt lat="44.10486" lon="3.12576">
        <ele>468</ele>
      </trkpt>
      <trkpt lat="44.10495" lon="3.12559">
        <ele>473</ele>
      </trkpt>
      <trkpt lat="44.10513" lon="3.12499">
        <ele>489</ele>
      </trkpt>
      <trkpt lat="44.10519" lon="3.12433">
        <ele>491</ele>
      </trkpt>
      <trkpt lat="44.10525" lon="3.12399">
        <ele>494</ele>
      </trkpt>
      <trkpt lat="44.10532" lon="3.12399">
        <ele>500</ele>
      </trkpt>
      <trkpt lat="44.10535" lon="3.12415">
        <ele>501</ele>
      </trkpt>
      <trkpt lat="44.10544" lon="3.12414">
        <ele>509</ele>
      </trkpt>
      <trkpt lat="44.10562" lon="3.12438">
        <ele>519</ele>
      </trkpt>
      <trkpt lat="44.1058" lon="3.12463">
        <ele>525</ele>
      </trkpt>
      <trkpt lat="44.10597" lon="3.12481">
        <ele>533</ele>
      </trkpt>
      <trkpt lat="44.10618" lon="3.12511">
        <ele>541</ele>
      </trkpt>
      <trkpt lat="44.10651" lon="3.12522">
        <ele>561</ele>
      </trkpt>
      <trkpt lat="44.1068" lon="3.12528">
        <ele>572</ele>
      </trkpt>
      <trkpt lat="44.10703" lon="3.12523">
        <ele>587</ele>
      </trkpt>
      <trkpt lat="44.10738" lon="3.12522">
        <ele>602</ele>
      </trkpt>
      <trkpt lat="44.1074" lon="3.12513">
        <ele>608</ele>
      </trkpt>
      <trkpt lat="44.10733" lon="3.12505">
        <ele>611</ele>
      </trkpt>
      <trkpt lat="44.10739" lon="3.12478">
        <ele>620</ele>
      </trkpt>
      <trkpt lat="44.10746" lon="3.12442">
        <ele>628</ele>
      </trkpt>
      <trkpt lat="44.10719" lon="3.12412">
        <ele>628</ele>
      </trkpt>
      <trkpt lat="44.10708" lon="3.12377">
        <ele>633</ele>
      </trkpt>
      <trkpt lat="44.10693" lon="3.1233">
        <ele>635</ele>
      </trkpt>
      <trkpt lat="44.10696" lon="3.12293">
        <ele>636</ele>
      </trkpt>
      <trkpt lat="44.1069" lon="3.12247">
        <ele>626</ele>
      </trkpt>
      <trkpt lat="44.10678" lon="3.12225">
        <ele>616</ele>
      </trkpt>
      <trkpt lat="44.10679" lon="3.12198">
        <ele>627</ele>
      </trkpt>
      <trkpt lat="44.10707" lon="3.12178">
        <ele>638</ele>
      </trkpt>
      <trkpt lat="44.10748" lon="3.12188">
        <ele>661</ele>
      </trkpt>
      <trkpt lat="44.10758" lon="3.12171">
        <ele>668</ele>
      </trkpt>
      <trkpt lat="44.10763" lon="3.12141">
        <ele>676</ele>
      </trkpt>
      <trkpt lat="44.10769" lon="3.121">
        <ele>679</ele>
      </trkpt>
      <trkpt lat="44.10782" lon="3.12094">
        <ele>691</ele>
      </trkpt>
      <trkpt lat="44.10791" lon="3.12071">
        <ele>698</ele>
      </trkpt>
      <trkpt lat="44.10802" lon="3.12084">
        <ele>702</ele>
      </trkpt>
      <trkpt lat="44.10817" lon="3.1207">
        <ele>711</ele>
      </trkpt>
      <trkpt lat="44.10833" lon="3.12066">
        <ele>716</ele>
      </trkpt>
      <trkpt lat="44.10853" lon="3.12047">
        <ele>727</ele>
      </trkpt>
      <trkpt lat="44.10874" lon="3.1205">
        <ele>729</ele>
      </trkpt>
      <trkpt lat="44.10885" lon="3.12044">
        <ele>733</ele>
      </trkpt>
      <trkpt lat="44.10894" lon="3.12044">
        <ele>735</ele>
      </trkpt>
      <trkpt lat="44.10906" lon="3.12024">
        <ele>743</ele>
      </trkpt>
      <trkpt lat="44.1092" lon="3.12015">
        <ele>746</ele>
      </trkpt>
      <trkpt lat="44.10934" lon="3.12006">
        <ele>753</ele>
      </trkpt>
      <trkpt lat="44.10948" lon="3.1201">
        <ele>753</ele>
      </trkpt>
      <trkpt lat="44.10954" lon="3.11995">
        <ele>759</ele>
      </trkpt>
      <trkpt lat="44.10975" lon="3.11991">
        <ele>762</ele>
      </trkpt>
      <trkpt lat="44.10999" lon="3.11963">
        <ele>771</ele>
      </trkpt>
      <trkpt lat="44.1102" lon="3.11934">
        <ele>780</ele>
      </trkpt>
      <trkpt lat="44.11042" lon="3.11958">
        <ele>780</ele>
      </trkpt>
      <trkpt lat="44.11073" lon="3.11992">
        <ele>777</ele>
      </trkpt>
      <trkpt lat="44.11097" lon="3.12009">
        <ele>776</ele>
      </trkpt>
      <trkpt lat="44.11127" lon="3.12031">
        <ele>773</ele>
      </trkpt>
      <trkpt lat="44.11155" lon="3.12041">
        <ele>772</ele>
      </trkpt>
      <trkpt lat="44.11179" lon="3.12067">
        <ele>772</ele>
      </trkpt>
      <trkpt lat="44.11208" lon="3.1207">
        <ele>777</ele>
      </trkpt>
      <trkpt lat="44.11254" lon="3.12074">
        <ele>779</ele>
      </trkpt>
      <trkpt lat="44.11275" lon="3.12072">
        <ele>781</ele>
      </trkpt>
      <trkpt lat="44.11292" lon="3.12074">
        <ele>790</ele>
      </trkpt>
      <trkpt lat="44.11297" lon="3.1209">
        <ele>789</ele>
      </trkpt>
      <trkpt lat="44.11322" lon="3.12097">
        <ele>798</ele>
      </trkpt>
      <trkpt lat="44.1135" lon="3.12105">
        <ele>801</ele>
      </trkpt>
      <trkpt lat="44.11379" lon="3.12101">
        <ele>803</ele>
      </trkpt>
      <trkpt lat="44.11398" lon="3.12104">
        <ele>805</ele>
      </trkpt>
      <trkpt lat="44.11416" lon="3.12099">
        <ele>808</ele>
      </trkpt>
      <trkpt lat="44.11438" lon="3.12092">
        <ele>809</ele>
      </trkpt>
      <trkpt lat="44.11479" lon="3.12062">
        <ele>816</ele>
      </trkpt>
      <trkpt lat="44.11505" lon="3.12047">
        <ele>821</ele>
      </trkpt>
      <trkpt lat="44.11544" lon="3.12025">
        <ele>824</ele>
      </trkpt>
      <trkpt lat="44.11579" lon="3.11998">
        <ele>823</ele>
      </trkpt>
      <trkpt lat="44.11617" lon="3.12015">
        <ele>823</ele>
      </trkpt>
      <trkpt lat="44.11661" lon="3.1203">
        <ele>821</ele>
      </trkpt>
      <trkpt lat="44.11668" lon="3.12044">
        <ele>818</ele>
      </trkpt>
      <trkpt lat="44.11683" lon="3.12041">
        <ele>822</ele>
      </trkpt>
      <trkpt lat="44.11712" lon="3.12054">
        <ele>823</ele>
      </trkpt>
      <trkpt lat="44.11746" lon="3.12049">
        <ele>826</ele>
      </trkpt>
      <trkpt lat="44.11779" lon="3.12049">
        <ele>829</ele>
      </trkpt>
      <trkpt lat="44.11793" lon="3.12031">
        <ele>830</ele>
      </trkpt>
      <trkpt lat="44.11818" lon="3.12013">
        <ele>831</ele>
      </trkpt>
      <trkpt lat="44.11844" lon="3.11994">
        <ele>831</ele>
      </trkpt>
      <trkpt lat="44.1188" lon="3.11968">
        <ele>831</ele>
      </trkpt>
      <trkpt lat="44.11907" lon="3.11957">
        <ele>830</ele>
      </trkpt>
      <trkpt lat="44.11944" lon="3.11942">
        <ele>829</ele>
      </trkpt>
      <trkpt lat="44.11978" lon="3.11918">
        <ele>829</ele>
      </trkpt>
      <trkpt lat="44.12001" lon="3.11919">
        <ele>829</ele>
      </trkpt>
      <trkpt lat="44.12042" lon="3.119">
        <ele>829</ele>
      </trkpt>
      <trkpt lat="44.12047" lon="3.11874">
        <ele>831</ele>
      </trkpt>
      <trkpt lat="44.12074" lon="3.11872">
        <ele>832</ele>
      </trkpt>
      <trkpt lat="44.12091" lon="3.11882">
        <ele>832</ele>
      </trkpt>
      <trkpt lat="44.12105" lon="3.11872">
        <ele>834</ele>
      </trkpt>
      <trkpt lat="44.12082" lon="3.11861">
        <ele>834</ele>
      </trkpt>
      <trkpt lat="44.12059" lon="3.11851">
        <ele>835</ele>
      </trkpt>
      <trkpt lat="44.12051" lon="3.11835">
        <ele>835</ele>
      </trkpt>
      <trkpt lat="44.12037" lon="3.11819">
        <ele>836</ele>
      </trkpt>
      <trkpt lat="44.12022" lon="3.11802">
        <ele>837</ele>
      </trkpt>
      <trkpt lat="44.12001" lon="3.11794">
        <ele>838</ele>
      </trkpt>
      <trkpt lat="44.11965" lon="3.11795">
        <ele>838</ele>
      </trkpt>
      <trkpt lat="44.1193" lon="3.1182">
        <ele>837</ele>
      </trkpt>
      <trkpt lat="44.11902" lon="3.11833">
        <ele>837</ele>
      </trkpt>
      <trkpt lat="44.11859" lon="3.11854">
        <ele>838</ele>
      </trkpt>
      <trkpt lat="44.11827" lon="3.11817">
        <ele>843</ele>
      </trkpt>
      <trkpt lat="44.11814" lon="3.11799">
        <ele>845</ele>
      </trkpt>
      <trkpt lat="44.118" lon="3.11785">
        <ele>847</ele>
      </trkpt>
      <trkpt lat="44.11787" lon="3.11775">
        <ele>848</ele>
      </trkpt>
      <trkpt lat="44.11764" lon="3.11747">
        <ele>853</ele>
      </trkpt>
      <trkpt lat="44.11737" lon="3.11736">
        <ele>855</ele>
      </trkpt>
      <trkpt lat="44.11702" lon="3.11721">
        <ele>856</ele>
      </trkpt>
      <trkpt lat="44.11675" lon="3.11711">
        <ele>857</ele>
      </trkpt>
      <trkpt lat="44.11641" lon="3.11698">
        <ele>856</ele>
      </trkpt>
      <trkpt lat="44.1163" lon="3.117">
        <ele>858</ele>
      </trkpt>
      <trkpt lat="44.11598" lon="3.1171">
        <ele>855</ele>
      </trkpt>
      <trkpt lat="44.11559" lon="3.11711">
        <ele>853</ele>
      </trkpt>
      <trkpt lat="44.11534" lon="3.11698">
        <ele>852</ele>
      </trkpt>
      <trkpt lat="44.11501" lon="3.11681">
        <ele>850</ele>
      </trkpt>
      <trkpt lat="44.11476" lon="3.11674">
        <ele>850</ele>
      </trkpt>
      <trkpt lat="44.11447" lon="3.11666">
        <ele>849</ele>
      </trkpt>
      <trkpt lat="44.11406" lon="3.11647">
        <ele>847</ele>
      </trkpt>
      <trkpt lat="44.11372" lon="3.1164">
        <ele>845</ele>
      </trkpt>
      <trkpt lat="44.11343" lon="3.11627">
        <ele>843</ele>
      </trkpt>
      <trkpt lat="44.11295" lon="3.11606">
        <ele>840</ele>
      </trkpt>
      <trkpt lat="44.11278" lon="3.11608">
        <ele>839</ele>
      </trkpt>
      <trkpt lat="44.11258" lon="3.11613">
        <ele>836</ele>
      </trkpt>
      <trkpt lat="44.11231" lon="3.1162">
        <ele>834</ele>
      </trkpt>
      <trkpt lat="44.11186" lon="3.11621">
        <ele>826</ele>
      </trkpt>
      <trkpt lat="44.11146" lon="3.11605">
        <ele>819</ele>
      </trkpt>
      <trkpt lat="44.1113" lon="3.11602">
        <ele>818</ele>
      </trkpt>
      <trkpt lat="44.11101" lon="3.11601">
        <ele>814</ele>
      </trkpt>
      <trkpt lat="44.11085" lon="3.11598">
        <ele>812</ele>
      </trkpt>
      <trkpt lat="44.11101" lon="3.11565">
        <ele>814</ele>
      </trkpt>
      <trkpt lat="44.11122" lon="3.11533">
        <ele>814</ele>
      </trkpt>
      <trkpt lat="44.11159" lon="3.11476">
        <ele>814</ele>
      </trkpt>
      <trkpt lat="44.11186" lon="3.11465">
        <ele>819</ele>
      </trkpt>
      <trkpt lat="44.11224" lon="3.11449">
        <ele>819</ele>
      </trkpt>
      <trkpt lat="44.11249" lon="3.11447">
        <ele>820</ele>
      </trkpt>
      <trkpt lat="44.11278" lon="3.11445">
        <ele>820</ele>
      </trkpt>
      <trkpt lat="44.11314" lon="3.11445">
        <ele>820</ele>
      </trkpt>
      <trkpt lat="44.11332" lon="3.1144">
        <ele>821</ele>
      </trkpt>
      <trkpt lat="44.1135" lon="3.11426">
        <ele>818</ele>
      </trkpt>
      <trkpt lat="44.11374" lon="3.11401">
        <ele>814</ele>
      </trkpt>
      <trkpt lat="44.11411" lon="3.11363">
        <ele>808</ele>
      </trkpt>
      <trkpt lat="44.11447" lon="3.1135">
        <ele>806</ele>
      </trkpt>
      <trkpt lat="44.11489" lon="3.11323">
        <ele>804</ele>
      </trkpt>
      <trkpt lat="44.11518" lon="3.11274">
        <ele>800</ele>
      </trkpt>
      <trkpt lat="44.11493" lon="3.11259">
        <ele>794</ele>
      </trkpt>
      <trkpt lat="44.11468" lon="3.11225">
        <ele>786</ele>
      </trkpt>
      <trkpt lat="44.11465" lon="3.11216">
        <ele>785</ele>
      </trkpt>
      <trkpt lat="44.11476" lon="3.11188">
        <ele>786</ele>
      </trkpt>
      <trkpt lat="44.11488" lon="3.11157">
        <ele>786</ele>
      </trkpt>
      <trkpt lat="44.11497" lon="3.11121">
        <ele>788</ele>
      </trkpt>
      <trkpt lat="44.11492" lon="3.11104">
        <ele>789</ele>
      </trkpt>
      <trkpt lat="44.11483" lon="3.11103">
        <ele>789</ele>
      </trkpt>
      <trkpt lat="44.11465" lon="3.11125">
        <ele>789</ele>
      </trkpt>
      <trkpt lat="44.11424" lon="3.11133">
        <ele>789</ele>
      </trkpt>
      <trkpt lat="44.1139" lon="3.11132">
        <ele>790</ele>
      </trkpt>
      <trkpt lat="44.11365" lon="3.11123">
        <ele>791</ele>
      </trkpt>
      <trkpt lat="44.11339" lon="3.11108">
        <ele>793</ele>
      </trkpt>
      <trkpt lat="44.11305" lon="3.11089">
        <ele>793</ele>
      </trkpt>
      <trkpt lat="44.11266" lon="3.11058">
        <ele>792</ele>
      </trkpt>
      <trkpt lat="44.1124" lon="3.11034">
        <ele>792</ele>
      </trkpt>
      <trkpt lat="44.1119" lon="3.10989">
        <ele>792</ele>
      </trkpt>
      <trkpt lat="44.11185" lon="3.10972">
        <ele>794</ele>
      </trkpt>
      <trkpt lat="44.11173" lon="3.10958">
        <ele>793</ele>
      </trkpt>
      <trkpt lat="44.11135" lon="3.10952">
        <ele>794</ele>
      </trkpt>
      <trkpt lat="44.11109" lon="3.10938">
        <ele>796</ele>
      </trkpt>
      <trkpt lat="44.11095" lon="3.10925">
        <ele>797</ele>
      </trkpt>
      <trkpt lat="44.11085" lon="3.10895">
        <ele>800</ele>
      </trkpt>
      <trkpt lat="44.1107" lon="3.10847">
        <ele>801</ele>
      </trkpt>
      <trkpt lat="44.11076" lon="3.10813">
        <ele>802</ele>
      </trkpt>
      <trkpt lat="44.11083" lon="3.10776">
        <ele>806</ele>
      </trkpt>
      <trkpt lat="44.11086" lon="3.10766">
        <ele>808</ele>
      </trkpt>
      <trkpt lat="44.11074" lon="3.10761">
        <ele>808</ele>
      </trkpt>
      <trkpt lat="44.11066" lon="3.10724">
        <ele>815</ele>
      </trkpt>
      <trkpt lat="44.11055" lon="3.10675">
        <ele>818</ele>
      </trkpt>
      <trkpt lat="44.11035" lon="3.10681">
        <ele>822</ele>
      </trkpt>
      <trkpt lat="44.11023" lon="3.10677">
        <ele>823</ele>
      </trkpt>
      <trkpt lat="44.11014" lon="3.10672">
        <ele>823</ele>
      </trkpt>
      <trkpt lat="44.11007" lon="3.10661">
        <ele>823</ele>
      </trkpt>
      <trkpt lat="44.10991" lon="3.10655">
        <ele>822</ele>
      </trkpt>
      <trkpt lat="44.10986" lon="3.10642">
        <ele>820</ele>
      </trkpt>
      <trkpt lat="44.10982" lon="3.10624">
        <ele>822</ele>
      </trkpt>
      <trkpt lat="44.10982" lon="3.10607">
        <ele>824</ele>
      </trkpt>
      <trkpt lat="44.10989" lon="3.10599">
        <ele>826</ele>
      </trkpt>
      <trkpt lat="44.10989" lon="3.10565">
        <ele>830</ele>
      </trkpt>
      <trkpt lat="44.10994" lon="3.1055">
        <ele>836</ele>
      </trkpt>
      <trkpt lat="44.10999" lon="3.10541">
        <ele>837</ele>
      </trkpt>
      <trkpt lat="44.10997" lon="3.10506">
        <ele>837</ele>
      </trkpt>
      <trkpt lat="44.11" lon="3.10471">
        <ele>835</ele>
      </trkpt>
      <trkpt lat="44.1101" lon="3.10423">
        <ele>834</ele>
      </trkpt>
      <trkpt lat="44.11015" lon="3.10385">
        <ele>834</ele>
      </trkpt>
      <trkpt lat="44.11021" lon="3.10332">
        <ele>837</ele>
      </trkpt>
      <trkpt lat="44.11021" lon="3.10291">
        <ele>838</ele>
      </trkpt>
      <trkpt lat="44.11017" lon="3.10281">
        <ele>835</ele>
      </trkpt>
      <trkpt lat="44.11018" lon="3.10267">
        <ele>835</ele>
      </trkpt>
      <trkpt lat="44.11026" lon="3.10254">
        <ele>837</ele>
      </trkpt>
      <trkpt lat="44.11052" lon="3.1027">
        <ele>837</ele>
      </trkpt>
      <trkpt lat="44.11066" lon="3.10273">
        <ele>836</ele>
      </trkpt>
      <trkpt lat="44.11071" lon="3.10263">
        <ele>834</ele>
      </trkpt>
      <trkpt lat="44.11079" lon="3.10277">
        <ele>835</ele>
      </trkpt>
      <trkpt lat="44.11083" lon="3.10292">
        <ele>834</ele>
      </trkpt>
      <trkpt lat="44.11084" lon="3.10306">
        <ele>835</ele>
      </trkpt>
      <trkpt lat="44.11091" lon="3.10323">
        <ele>834</ele>
      </trkpt>
      <trkpt lat="44.11117" lon="3.10373">
        <ele>834</ele>
      </trkpt>
      <trkpt lat="44.11133" lon="3.10391">
        <ele>834</ele>
      </trkpt>
      <trkpt lat="44.11141" lon="3.10397">
        <ele>833</ele>
      </trkpt>
      <trkpt lat="44.11151" lon="3.10397">
        <ele>831</ele>
      </trkpt>
      <trkpt lat="44.11154" lon="3.10415">
        <ele>832</ele>
      </trkpt>
      <trkpt lat="44.11171" lon="3.10434">
        <ele>829</ele>
      </trkpt>
      <trkpt lat="44.1118" lon="3.10435">
        <ele>829</ele>
      </trkpt>
      <trkpt lat="44.11196" lon="3.10426">
        <ele>825</ele>
      </trkpt>
      <trkpt lat="44.11226" lon="3.10413">
        <ele>818</ele>
      </trkpt>
      <trkpt lat="44.11232" lon="3.10406">
        <ele>814</ele>
      </trkpt>
      <trkpt lat="44.11242" lon="3.10389">
        <ele>808</ele>
      </trkpt>
      <trkpt lat="44.1125" lon="3.10384">
        <ele>808</ele>
      </trkpt>
      <trkpt lat="44.11252" lon="3.10372">
        <ele>803</ele>
      </trkpt>
      <trkpt lat="44.11261" lon="3.10358">
        <ele>791</ele>
      </trkpt>
      <trkpt lat="44.1128" lon="3.10352">
        <ele>787</ele>
      </trkpt>
      <trkpt lat="44.11286" lon="3.10346">
        <ele>783</ele>
      </trkpt>
      <trkpt lat="44.11288" lon="3.1034">
        <ele>783</ele>
      </trkpt>
      <trkpt lat="44.11285" lon="3.10335">
        <ele>779</ele>
      </trkpt>
      <trkpt lat="44.11271" lon="3.10323">
        <ele>775</ele>
      </trkpt>
      <trkpt lat="44.11265" lon="3.10315">
        <ele>772</ele>
      </trkpt>
      <trkpt lat="44.1127" lon="3.1031">
        <ele>772</ele>
      </trkpt>
      <trkpt lat="44.11277" lon="3.10309">
        <ele>767</ele>
      </trkpt>
      <trkpt lat="44.11277" lon="3.10303">
        <ele>767</ele>
      </trkpt>
      <trkpt lat="44.1128" lon="3.10298">
        <ele>759</ele>
      </trkpt>
      <trkpt lat="44.11292" lon="3.10295">
        <ele>758</ele>
      </trkpt>
      <trkpt lat="44.11293" lon="3.1029">
        <ele>758</ele>
      </trkpt>
      <trkpt lat="44.1129" lon="3.10285">
        <ele>756</ele>
      </trkpt>
      <trkpt lat="44.11275" lon="3.10273">
        <ele>754</ele>
      </trkpt>
      <trkpt lat="44.11273" lon="3.10269">
        <ele>749</ele>
      </trkpt>
      <trkpt lat="44.11273" lon="3.10256">
        <ele>745</ele>
      </trkpt>
      <trkpt lat="44.11277" lon="3.10239">
        <ele>737</ele>
      </trkpt>
      <trkpt lat="44.11282" lon="3.1023">
        <ele>734</ele>
      </trkpt>
      <trkpt lat="44.11303" lon="3.10221">
        <ele>727</ele>
      </trkpt>
      <trkpt lat="44.11306" lon="3.10216">
        <ele>724</ele>
      </trkpt>
      <trkpt lat="44.11304" lon="3.10205">
        <ele>719</ele>
      </trkpt>
      <trkpt lat="44.11293" lon="3.10194">
        <ele>716</ele>
      </trkpt>
      <trkpt lat="44.11289" lon="3.10179">
        <ele>714</ele>
      </trkpt>
      <trkpt lat="44.11296" lon="3.10169">
        <ele>705</ele>
      </trkpt>
      <trkpt lat="44.11312" lon="3.10165">
        <ele>701</ele>
      </trkpt>
      <trkpt lat="44.11313" lon="3.1016">
        <ele>701</ele>
      </trkpt>
      <trkpt lat="44.11302" lon="3.10153">
        <ele>698</ele>
      </trkpt>
      <trkpt lat="44.11301" lon="3.10148">
        <ele>693</ele>
      </trkpt>
      <trkpt lat="44.11302" lon="3.10134">
        <ele>690</ele>
      </trkpt>
      <trkpt lat="44.11302" lon="3.10135">
        <ele>690</ele>
      </trkpt>
      <trkpt lat="44.11306" lon="3.10131">
        <ele>690</ele>
      </trkpt>
      <trkpt lat="44.11319" lon="3.10128">
        <ele>684</ele>
      </trkpt>
      <trkpt lat="44.11327" lon="3.10121">
        <ele>678</ele>
      </trkpt>
      <trkpt lat="44.11344" lon="3.10114">
        <ele>668</ele>
      </trkpt>
      <trkpt lat="44.11362" lon="3.10121">
        <ele>679</ele>
      </trkpt>
      <trkpt lat="44.11378" lon="3.10148">
        <ele>681</ele>
      </trkpt>
      <trkpt lat="44.114" lon="3.10166">
        <ele>684</ele>
      </trkpt>
      <trkpt lat="44.11424" lon="3.10185">
        <ele>684</ele>
      </trkpt>
      <trkpt lat="44.11435" lon="3.10202">
        <ele>692</ele>
      </trkpt>
      <trkpt lat="44.11438" lon="3.1021">
        <ele>680</ele>
      </trkpt>
      <trkpt lat="44.11445" lon="3.10218">
        <ele>688</ele>
      </trkpt>
      <trkpt lat="44.11449" lon="3.10214">
        <ele>688</ele>
      </trkpt>
      <trkpt lat="44.11472" lon="3.10222">
        <ele>677</ele>
      </trkpt>
      <trkpt lat="44.11508" lon="3.10234">
        <ele>666</ele>
      </trkpt>
      <trkpt lat="44.11547" lon="3.1023">
        <ele>647</ele>
      </trkpt>
      <trkpt lat="44.11549" lon="3.10232">
        <ele>647</ele>
      </trkpt>
      <trkpt lat="44.11547" lon="3.1023">
        <ele>647</ele>
      </trkpt>
      <trkpt lat="44.11551" lon="3.10229">
        <ele>641</ele>
      </trkpt>
      <trkpt lat="44.11545" lon="3.10208">
        <ele>638</ele>
      </trkpt>
      <trkpt lat="44.11551" lon="3.10199">
        <ele>631</ele>
      </trkpt>
      <trkpt lat="44.1155" lon="3.10192">
        <ele>631</ele>
      </trkpt>
      <trkpt lat="44.1154" lon="3.10171">
        <ele>633</ele>
      </trkpt>
      <trkpt lat="44.1154" lon="3.10165">
        <ele>630</ele>
      </trkpt>
      <trkpt lat="44.11551" lon="3.10155">
        <ele>618</ele>
      </trkpt>
      <trkpt lat="44.11553" lon="3.1015">
        <ele>618</ele>
      </trkpt>
      <trkpt lat="44.11553" lon="3.10126">
        <ele>608</ele>
      </trkpt>
      <trkpt lat="44.1155" lon="3.10115">
        <ele>604</ele>
      </trkpt>
      <trkpt lat="44.1155" lon="3.10101">
        <ele>601</ele>
      </trkpt>
      <trkpt lat="44.1154" lon="3.10086">
        <ele>605</ele>
      </trkpt>
      <trkpt lat="44.1154" lon="3.10084">
        <ele>602</ele>
      </trkpt>
      <trkpt lat="44.11523" lon="3.10077">
        <ele>602</ele>
      </trkpt>
      <trkpt lat="44.11501" lon="3.1006">
        <ele>604</ele>
      </trkpt>
      <trkpt lat="44.11494" lon="3.10052">
        <ele>606</ele>
      </trkpt>
      <trkpt lat="44.11493" lon="3.10042">
        <ele>603</ele>
      </trkpt>
      <trkpt lat="44.11488" lon="3.10032">
        <ele>604</ele>
      </trkpt>
      <trkpt lat="44.11476" lon="3.10025">
        <ele>602</ele>
      </trkpt>
      <trkpt lat="44.11468" lon="3.10015">
        <ele>599</ele>
      </trkpt>
      <trkpt lat="44.11464" lon="3.10008">
        <ele>602</ele>
      </trkpt>
      <trkpt lat="44.11454" lon="3.09973">
        <ele>595</ele>
      </trkpt>
      <trkpt lat="44.11442" lon="3.09942">
        <ele>588</ele>
      </trkpt>
      <trkpt lat="44.11441" lon="3.09943">
        <ele>588</ele>
      </trkpt>
      <trkpt lat="44.11442" lon="3.09942">
        <ele>588</ele>
      </trkpt>
      <trkpt lat="44.11441" lon="3.0993">
        <ele>585</ele>
      </trkpt>
      <trkpt lat="44.11445" lon="3.09929">
        <ele>583</ele>
      </trkpt>
      <trkpt lat="44.11452" lon="3.09936">
        <ele>580</ele>
      </trkpt>
      <trkpt lat="44.11464" lon="3.09919">
        <ele>573</ele>
      </trkpt>
      <trkpt lat="44.11475" lon="3.09916">
        <ele>568</ele>
      </trkpt>
      <trkpt lat="44.11477" lon="3.09927">
        <ele>569</ele>
      </trkpt>
      <trkpt lat="44.11489" lon="3.09878">
        <ele>560</ele>
      </trkpt>
      <trkpt lat="44.11497" lon="3.0986">
        <ele>555</ele>
      </trkpt>
      <trkpt lat="44.11496" lon="3.09856">
        <ele>555</ele>
      </trkpt>
      <trkpt lat="44.11498" lon="3.09848">
        <ele>553</ele>
      </trkpt>
      <trkpt lat="44.11506" lon="3.09834">
        <ele>550</ele>
      </trkpt>
      <trkpt lat="44.11507" lon="3.09826">
        <ele>549</ele>
      </trkpt>
      <trkpt lat="44.11511" lon="3.09822">
        <ele>547</ele>
      </trkpt>
      <trkpt lat="44.11515" lon="3.09813">
        <ele>545</ele>
      </trkpt>
      <trkpt lat="44.11514" lon="3.09799">
        <ele>542</ele>
      </trkpt>
      <trkpt lat="44.11516" lon="3.0978">
        <ele>540</ele>
      </trkpt>
      <trkpt lat="44.11516" lon="3.0976">
        <ele>537</ele>
      </trkpt>
      <trkpt lat="44.11518" lon="3.09749">
        <ele>533</ele>
      </trkpt>
      <trkpt lat="44.11516" lon="3.09732">
        <ele>531</ele>
      </trkpt>
      <trkpt lat="44.11519" lon="3.0971">
        <ele>527</ele>
      </trkpt>
      <trkpt lat="44.11519" lon="3.09696">
        <ele>525</ele>
      </trkpt>
      <trkpt lat="44.11513" lon="3.09667">
        <ele>521</ele>
      </trkpt>
      <trkpt lat="44.11507" lon="3.09632">
        <ele>518</ele>
      </trkpt>
      <trkpt lat="44.11501" lon="3.09611">
        <ele>516</ele>
      </trkpt>
      <trkpt lat="44.11493" lon="3.09571">
        <ele>511</ele>
      </trkpt>
      <trkpt lat="44.11484" lon="3.09532">
        <ele>507</ele>
      </trkpt>
      <trkpt lat="44.11472" lon="3.09474">
        <ele>502</ele>
      </trkpt>
      <trkpt lat="44.11474" lon="3.09453">
        <ele>500</ele>
      </trkpt>
      <trkpt lat="44.11483" lon="3.09429">
        <ele>496</ele>
      </trkpt>
      <trkpt lat="44.11483" lon="3.09424">
        <ele>496</ele>
      </trkpt>
      <trkpt lat="44.11481" lon="3.09418">
        <ele>494</ele>
      </trkpt>
      <trkpt lat="44.1146" lon="3.09406">
        <ele>491</ele>
      </trkpt>
      <trkpt lat="44.11453" lon="3.09399">
        <ele>489</ele>
      </trkpt>
      <trkpt lat="44.11439" lon="3.09392">
        <ele>488</ele>
      </trkpt>
      <trkpt lat="44.11424" lon="3.0938">
        <ele>485</ele>
      </trkpt>
      <trkpt lat="44.11409" lon="3.0936">
        <ele>484</ele>
      </trkpt>
      <trkpt lat="44.11424" lon="3.09351">
        <ele>480</ele>
      </trkpt>
      <trkpt lat="44.11453" lon="3.09352">
        <ele>477</ele>
      </trkpt>
      <trkpt lat="44.1148" lon="3.09347">
        <ele>473</ele>
      </trkpt>
      <trkpt lat="44.11516" lon="3.09341">
        <ele>472</ele>
      </trkpt>
      <trkpt lat="44.11543" lon="3.09332">
        <ele>470</ele>
      </trkpt>
      <trkpt lat="44.11578" lon="3.09321">
        <ele>466</ele>
      </trkpt>
      <trkpt lat="44.11616" lon="3.0932">
        <ele>464</ele>
      </trkpt>
      <trkpt lat="44.11637" lon="3.0933">
        <ele>463</ele>
      </trkpt>
      <trkpt lat="44.11643" lon="3.09325">
        <ele>461</ele>
      </trkpt>
      <trkpt lat="44.11636" lon="3.09302">
        <ele>459</ele>
      </trkpt>
      <trkpt lat="44.11632" lon="3.09296">
        <ele>455</ele>
      </trkpt>
      <trkpt lat="44.11622" lon="3.09287">
        <ele>458</ele>
      </trkpt>
      <trkpt lat="44.11606" lon="3.09261">
        <ele>456</ele>
      </trkpt>
      <trkpt lat="44.11602" lon="3.09256">
        <ele>455</ele>
      </trkpt>
      <trkpt lat="44.11586" lon="3.09243">
        <ele>453</ele>
      </trkpt>
      <trkpt lat="44.11569" lon="3.0922">
        <ele>448</ele>
      </trkpt>
      <trkpt lat="44.11547" lon="3.09212">
        <ele>446</ele>
      </trkpt>
      <trkpt lat="44.11543" lon="3.09205">
        <ele>444</ele>
      </trkpt>
      <trkpt lat="44.11543" lon="3.09197">
        <ele>442</ele>
      </trkpt>
      <trkpt lat="44.11524" lon="3.09177">
        <ele>437</ele>
      </trkpt>
      <trkpt lat="44.11496" lon="3.09148">
        <ele>431</ele>
      </trkpt>
      <trkpt lat="44.11475" lon="3.09116">
        <ele>429</ele>
      </trkpt>
      <trkpt lat="44.11437" lon="3.09059">
        <ele>414</ele>
      </trkpt>
      <trkpt lat="44.11418" lon="3.0902">
        <ele>411</ele>
      </trkpt>
      <trkpt lat="44.11418" lon="3.09011">
        <ele>409</ele>
      </trkpt>
      <trkpt lat="44.11407" lon="3.08991">
        <ele>407</ele>
      </trkpt>
      <trkpt lat="44.11402" lon="3.08987">
        <ele>404</ele>
      </trkpt>
      <trkpt lat="44.11396" lon="3.0896">
        <ele>399</ele>
      </trkpt>
      <trkpt lat="44.11406" lon="3.08952">
        <ele>396</ele>
      </trkpt>
      <trkpt lat="44.11411" lon="3.08943">
        <ele>394</ele>
      </trkpt>
      <trkpt lat="44.11424" lon="3.08934">
        <ele>391</ele>
      </trkpt>
      <trkpt lat="44.11427" lon="3.08918">
        <ele>386</ele>
      </trkpt>
      <trkpt lat="44.11449" lon="3.08916">
        <ele>385</ele>
      </trkpt>
      <trkpt lat="44.11466" lon="3.08919">
        <ele>384</ele>
      </trkpt>
      <trkpt lat="44.1148" lon="3.08925">
        <ele>385</ele>
      </trkpt>
      <trkpt lat="44.11488" lon="3.0894">
        <ele>389</ele>
      </trkpt>
      <trkpt lat="44.11479" lon="3.08942">
        <ele>390</ele>
      </trkpt>
      <trkpt lat="44.11462" lon="3.08953">
        <ele>393</ele>
      </trkpt>
      <trkpt lat="44.11453" lon="3.08952">
        <ele>393</ele>
      </trkpt>
    </trkseg>
  </trk>
</gpx>
