<?xml version="1.0" encoding="UTF-8"?>
<gpx xmlns="http://www.topografix.com/GPX/1/1" xmlns:xsi="http://www.w3.org/2001/XMLSchema-instance" version="1.1" creator="Trace de Trail" xsi:schemaLocation="http://www.topografix.com/GPX/1/1 http://www.topografix.com/GPX/1/1/gpx.xsd">
  <metadata>
    <name>HOKA LES TEMPLIERS 2026 - Monna Lisa</name>
    <desc>Parcours créé sur Trace de Trail</desc>
    <link href="https://tracedetrail.fr/fr/trace/325085">
      <text>Cartographie du parcours</text>
    </link>
  </metadata>
  <trk>
    <name>HOKA LES TEMPLIERS 2026 - Monna Lisa sur TraceDeTrail.fr</name>
    <src>Trace de Trail</src>
    <trkseg>
      <trkpt lat="44.11354" lon="3.08714">
        <ele>360</ele>
      </trkpt>
      <trkpt lat="44.11376" lon="3.08699">
        <ele>359</ele>
      </trkpt>
      <trkpt lat="44.11381" lon="3.0866">
        <ele>359</ele>
      </trkpt>
      <trkpt lat="44.1141" lon="3.08668">
        <ele>360</ele>
      </trkpt>
      <trkpt lat="44.11453" lon="3.08679">
        <ele>360</ele>
      </trkpt>
      <trkpt lat="44.11481" lon="3.08694">
        <ele>360</ele>
      </trkpt>
      <trkpt lat="44.1153" lon="3.08721">
        <ele>360</ele>
      </trkpt>
      <trkpt lat="44.1156" lon="3.08739">
        <ele>360</ele>
      </trkpt>
      <trkpt lat="44.11589" lon="3.08757">
        <ele>360</ele>
      </trkpt>
      <trkpt lat="44.11619" lon="3.08775">
        <ele>360</ele>
      </trkpt>
      <trkpt lat="44.11649" lon="3.08794">
        <ele>360</ele>
      </trkpt>
      <trkpt lat="44.11678" lon="3.08813">
        <ele>360</ele>
      </trkpt>
      <trkpt lat="44.1171" lon="3.08834">
        <ele>360</ele>
      </trkpt>
      <trkpt lat="44.11728" lon="3.08849">
        <ele>360</ele>
      </trkpt>
      <trkpt lat="44.11751" lon="3.08874">
        <ele>360</ele>
      </trkpt>
      <trkpt lat="44.11784" lon="3.08912">
        <ele>360</ele>
      </trkpt>
      <trkpt lat="44.11819" lon="3.08957">
        <ele>360</ele>
      </trkpt>
      <trkpt lat="44.11843" lon="3.0899">
        <ele>360</ele>
      </trkpt>
      <trkpt lat="44.11867" lon="3.09023">
        <ele>360</ele>
      </trkpt>
      <trkpt lat="44.11898" lon="3.09067">
        <ele>361</ele>
      </trkpt>
      <trkpt lat="44.11916" lon="3.09094">
        <ele>361</ele>
      </trkpt>
      <trkpt lat="44.11938" lon="3.09127">
        <ele>361</ele>
      </trkpt>
      <trkpt lat="44.1197" lon="3.09168">
        <ele>362</ele>
      </trkpt>
      <trkpt lat="44.11995" lon="3.09215">
        <ele>362</ele>
      </trkpt>
      <trkpt lat="44.12005" lon="3.09242">
        <ele>362</ele>
      </trkpt>
      <trkpt lat="44.12024" lon="3.09268">
        <ele>363</ele>
      </trkpt>
      <trkpt lat="44.12048" lon="3.09302">
        <ele>363</ele>
      </trkpt>
      <trkpt lat="44.1207" lon="3.09336">
        <ele>364</ele>
      </trkpt>
      <trkpt lat="44.12092" lon="3.09376">
        <ele>364</ele>
      </trkpt>
      <trkpt lat="44.12114" lon="3.09417">
        <ele>364</ele>
      </trkpt>
      <trkpt lat="44.12136" lon="3.09457">
        <ele>365</ele>
      </trkpt>
      <trkpt lat="44.12158" lon="3.09498">
        <ele>365</ele>
      </trkpt>
      <trkpt lat="44.12186" lon="3.0954">
        <ele>365</ele>
      </trkpt>
      <trkpt lat="44.1221" lon="3.09568">
        <ele>365</ele>
      </trkpt>
      <trkpt lat="44.12252" lon="3.09617">
        <ele>365</ele>
      </trkpt>
      <trkpt lat="44.12277" lon="3.0965">
        <ele>365</ele>
      </trkpt>
      <trkpt lat="44.12303" lon="3.09683">
        <ele>365</ele>
      </trkpt>
      <trkpt lat="44.12341" lon="3.09732">
        <ele>365</ele>
      </trkpt>
      <trkpt lat="44.12358" lon="3.09766">
        <ele>366</ele>
      </trkpt>
      <trkpt lat="44.12375" lon="3.09809">
        <ele>366</ele>
      </trkpt>
      <trkpt lat="44.12385" lon="3.09843">
        <ele>366</ele>
      </trkpt>
      <trkpt lat="44.12393" lon="3.09883">
        <ele>366</ele>
      </trkpt>
      <trkpt lat="44.12402" lon="3.09907">
        <ele>366</ele>
      </trkpt>
      <trkpt lat="44.12422" lon="3.09951">
        <ele>366</ele>
      </trkpt>
      <trkpt lat="44.12442" lon="3.09984">
        <ele>366</ele>
      </trkpt>
      <trkpt lat="44.12471" lon="3.10011">
        <ele>366</ele>
      </trkpt>
      <trkpt lat="44.12494" lon="3.10025">
        <ele>366</ele>
      </trkpt>
      <trkpt lat="44.12519" lon="3.10041">
        <ele>366</ele>
      </trkpt>
      <trkpt lat="44.12552" lon="3.10053">
        <ele>365</ele>
      </trkpt>
      <trkpt lat="44.12587" lon="3.10061">
        <ele>365</ele>
      </trkpt>
      <trkpt lat="44.12631" lon="3.10065">
        <ele>365</ele>
      </trkpt>
      <trkpt lat="44.12668" lon="3.10061">
        <ele>364</ele>
      </trkpt>
      <trkpt lat="44.12699" lon="3.1006">
        <ele>364</ele>
      </trkpt>
      <trkpt lat="44.12751" lon="3.10058">
        <ele>365</ele>
      </trkpt>
      <trkpt lat="44.12771" lon="3.10054">
        <ele>367</ele>
      </trkpt>
      <trkpt lat="44.12776" lon="3.10064">
        <ele>367</ele>
      </trkpt>
      <trkpt lat="44.12806" lon="3.10054">
        <ele>367</ele>
      </trkpt>
      <trkpt lat="44.12833" lon="3.10048">
        <ele>369</ele>
      </trkpt>
      <trkpt lat="44.1287" lon="3.10041">
        <ele>378</ele>
      </trkpt>
      <trkpt lat="44.12897" lon="3.10031">
        <ele>376</ele>
      </trkpt>
      <trkpt lat="44.12932" lon="3.10018">
        <ele>379</ele>
      </trkpt>
      <trkpt lat="44.12944" lon="3.10029">
        <ele>380</ele>
      </trkpt>
      <trkpt lat="44.12948" lon="3.1005">
        <ele>382</ele>
      </trkpt>
      <trkpt lat="44.12942" lon="3.10069">
        <ele>384</ele>
      </trkpt>
      <trkpt lat="44.12924" lon="3.1008">
        <ele>387</ele>
      </trkpt>
      <trkpt lat="44.12902" lon="3.10094">
        <ele>391</ele>
      </trkpt>
      <trkpt lat="44.12894" lon="3.1011">
        <ele>393</ele>
      </trkpt>
      <trkpt lat="44.12893" lon="3.10124">
        <ele>395</ele>
      </trkpt>
      <trkpt lat="44.12905" lon="3.10152">
        <ele>397</ele>
      </trkpt>
      <trkpt lat="44.12929" lon="3.10196">
        <ele>400</ele>
      </trkpt>
      <trkpt lat="44.12942" lon="3.10215">
        <ele>402</ele>
      </trkpt>
      <trkpt lat="44.12968" lon="3.10234">
        <ele>404</ele>
      </trkpt>
      <trkpt lat="44.12968" lon="3.10243">
        <ele>405</ele>
      </trkpt>
      <trkpt lat="44.12964" lon="3.10249">
        <ele>405</ele>
      </trkpt>
      <trkpt lat="44.12945" lon="3.10246">
        <ele>408</ele>
      </trkpt>
      <trkpt lat="44.12925" lon="3.10243">
        <ele>411</ele>
      </trkpt>
      <trkpt lat="44.12897" lon="3.10243">
        <ele>411</ele>
      </trkpt>
      <trkpt lat="44.12875" lon="3.10248">
        <ele>412</ele>
      </trkpt>
      <trkpt lat="44.1286" lon="3.10262">
        <ele>418</ele>
      </trkpt>
      <trkpt lat="44.12852" lon="3.10277">
        <ele>420</ele>
      </trkpt>
      <trkpt lat="44.12843" lon="3.103">
        <ele>422</ele>
      </trkpt>
      <trkpt lat="44.12844" lon="3.10302">
        <ele>424</ele>
      </trkpt>
      <trkpt lat="44.12854" lon="3.10294">
        <ele>423</ele>
      </trkpt>
      <trkpt lat="44.1287" lon="3.10285">
        <ele>426</ele>
      </trkpt>
      <trkpt lat="44.1289" lon="3.10281">
        <ele>426</ele>
      </trkpt>
      <trkpt lat="44.12911" lon="3.10284">
        <ele>426</ele>
      </trkpt>
      <trkpt lat="44.12922" lon="3.10288">
        <ele>428</ele>
      </trkpt>
      <trkpt lat="44.1295" lon="3.10306">
        <ele>427</ele>
      </trkpt>
      <trkpt lat="44.12967" lon="3.1031">
        <ele>427</ele>
      </trkpt>
      <trkpt lat="44.12988" lon="3.10318">
        <ele>427</ele>
      </trkpt>
      <trkpt lat="44.13017" lon="3.1033">
        <ele>432</ele>
      </trkpt>
      <trkpt lat="44.1306" lon="3.10342">
        <ele>434</ele>
      </trkpt>
      <trkpt lat="44.13095" lon="3.1035">
        <ele>434</ele>
      </trkpt>
      <trkpt lat="44.13123" lon="3.10354">
        <ele>433</ele>
      </trkpt>
      <trkpt lat="44.13165" lon="3.10359">
        <ele>433</ele>
      </trkpt>
      <trkpt lat="44.13207" lon="3.10358">
        <ele>436</ele>
      </trkpt>
      <trkpt lat="44.1325" lon="3.10383">
        <ele>440</ele>
      </trkpt>
      <trkpt lat="44.13297" lon="3.10389">
        <ele>445</ele>
      </trkpt>
      <trkpt lat="44.13328" lon="3.10389">
        <ele>450</ele>
      </trkpt>
      <trkpt lat="44.13345" lon="3.10392">
        <ele>459</ele>
      </trkpt>
      <trkpt lat="44.13357" lon="3.10398">
        <ele>461</ele>
      </trkpt>
      <trkpt lat="44.13357" lon="3.10403">
        <ele>464</ele>
      </trkpt>
      <trkpt lat="44.13349" lon="3.10405">
        <ele>463</ele>
      </trkpt>
      <trkpt lat="44.13348" lon="3.10409">
        <ele>463</ele>
      </trkpt>
      <trkpt lat="44.13349" lon="3.10413">
        <ele>466</ele>
      </trkpt>
      <trkpt lat="44.13377" lon="3.10414">
        <ele>471</ele>
      </trkpt>
      <trkpt lat="44.13383" lon="3.10426">
        <ele>476</ele>
      </trkpt>
      <trkpt lat="44.13394" lon="3.1047">
        <ele>474</ele>
      </trkpt>
      <trkpt lat="44.13407" lon="3.10487">
        <ele>479</ele>
      </trkpt>
      <trkpt lat="44.13423" lon="3.10498">
        <ele>477</ele>
      </trkpt>
      <trkpt lat="44.1345" lon="3.10513">
        <ele>480</ele>
      </trkpt>
      <trkpt lat="44.13489" lon="3.10536">
        <ele>481</ele>
      </trkpt>
      <trkpt lat="44.13519" lon="3.10555">
        <ele>484</ele>
      </trkpt>
      <trkpt lat="44.13548" lon="3.10569">
        <ele>485</ele>
      </trkpt>
      <trkpt lat="44.13598" lon="3.10593">
        <ele>486</ele>
      </trkpt>
      <trkpt lat="44.13625" lon="3.1061">
        <ele>486</ele>
      </trkpt>
      <trkpt lat="44.13671" lon="3.10638">
        <ele>485</ele>
      </trkpt>
      <trkpt lat="44.13694" lon="3.10653">
        <ele>485</ele>
      </trkpt>
      <trkpt lat="44.13719" lon="3.1067">
        <ele>485</ele>
      </trkpt>
      <trkpt lat="44.13733" lon="3.10677">
        <ele>481</ele>
      </trkpt>
      <trkpt lat="44.1375" lon="3.10681">
        <ele>479</ele>
      </trkpt>
      <trkpt lat="44.13768" lon="3.10685">
        <ele>478</ele>
      </trkpt>
      <trkpt lat="44.13789" lon="3.10686">
        <ele>475</ele>
      </trkpt>
      <trkpt lat="44.13833" lon="3.10695">
        <ele>473</ele>
      </trkpt>
      <trkpt lat="44.13841" lon="3.10692">
        <ele>473</ele>
      </trkpt>
      <trkpt lat="44.13861" lon="3.10654">
        <ele>470</ele>
      </trkpt>
      <trkpt lat="44.13866" lon="3.10651">
        <ele>470</ele>
      </trkpt>
      <trkpt lat="44.13894" lon="3.10679">
        <ele>468</ele>
      </trkpt>
      <trkpt lat="44.13921" lon="3.10706">
        <ele>466</ele>
      </trkpt>
      <trkpt lat="44.13969" lon="3.10754">
        <ele>466</ele>
      </trkpt>
      <trkpt lat="44.13989" lon="3.10792">
        <ele>466</ele>
      </trkpt>
      <trkpt lat="44.14009" lon="3.10831">
        <ele>466</ele>
      </trkpt>
      <trkpt lat="44.14037" lon="3.10885">
        <ele>466</ele>
      </trkpt>
      <trkpt lat="44.14049" lon="3.10914">
        <ele>467</ele>
      </trkpt>
      <trkpt lat="44.14081" lon="3.10956">
        <ele>467</ele>
      </trkpt>
      <trkpt lat="44.14098" lon="3.10985">
        <ele>468</ele>
      </trkpt>
      <trkpt lat="44.14103" lon="3.11032">
        <ele>469</ele>
      </trkpt>
      <trkpt lat="44.14101" lon="3.11059">
        <ele>469</ele>
      </trkpt>
      <trkpt lat="44.14105" lon="3.11087">
        <ele>471</ele>
      </trkpt>
      <trkpt lat="44.14115" lon="3.11119">
        <ele>472</ele>
      </trkpt>
      <trkpt lat="44.14112" lon="3.11156">
        <ele>476</ele>
      </trkpt>
      <trkpt lat="44.14121" lon="3.11194">
        <ele>480</ele>
      </trkpt>
      <trkpt lat="44.14137" lon="3.11206">
        <ele>481</ele>
      </trkpt>
      <trkpt lat="44.14163" lon="3.11188">
        <ele>480</ele>
      </trkpt>
      <trkpt lat="44.14187" lon="3.11164">
        <ele>480</ele>
      </trkpt>
      <trkpt lat="44.14212" lon="3.11143">
        <ele>481</ele>
      </trkpt>
      <trkpt lat="44.14236" lon="3.11117">
        <ele>482</ele>
      </trkpt>
      <trkpt lat="44.14275" lon="3.11074">
        <ele>482</ele>
      </trkpt>
      <trkpt lat="44.14298" lon="3.11055">
        <ele>482</ele>
      </trkpt>
      <trkpt lat="44.14325" lon="3.11047">
        <ele>482</ele>
      </trkpt>
      <trkpt lat="44.14361" lon="3.11036">
        <ele>483</ele>
      </trkpt>
      <trkpt lat="44.144" lon="3.11031">
        <ele>486</ele>
      </trkpt>
      <trkpt lat="44.14433" lon="3.11024">
        <ele>486</ele>
      </trkpt>
      <trkpt lat="44.1447" lon="3.11018">
        <ele>488</ele>
      </trkpt>
      <trkpt lat="44.14506" lon="3.11012">
        <ele>492</ele>
      </trkpt>
      <trkpt lat="44.14543" lon="3.11006">
        <ele>493</ele>
      </trkpt>
      <trkpt lat="44.14588" lon="3.10998">
        <ele>493</ele>
      </trkpt>
      <trkpt lat="44.14613" lon="3.11">
        <ele>493</ele>
      </trkpt>
      <trkpt lat="44.1464" lon="3.10996">
        <ele>493</ele>
      </trkpt>
      <trkpt lat="44.14673" lon="3.10992">
        <ele>493</ele>
      </trkpt>
      <trkpt lat="44.14693" lon="3.10984">
        <ele>493</ele>
      </trkpt>
      <trkpt lat="44.14717" lon="3.10982">
        <ele>495</ele>
      </trkpt>
      <trkpt lat="44.14751" lon="3.10968">
        <ele>496</ele>
      </trkpt>
      <trkpt lat="44.14765" lon="3.10964">
        <ele>499</ele>
      </trkpt>
      <trkpt lat="44.14786" lon="3.10961">
        <ele>503</ele>
      </trkpt>
      <trkpt lat="44.14797" lon="3.10957">
        <ele>504</ele>
      </trkpt>
      <trkpt lat="44.14812" lon="3.10951">
        <ele>509</ele>
      </trkpt>
      <trkpt lat="44.14832" lon="3.1094">
        <ele>509</ele>
      </trkpt>
      <trkpt lat="44.14862" lon="3.10937">
        <ele>510</ele>
      </trkpt>
      <trkpt lat="44.14881" lon="3.10932">
        <ele>512</ele>
      </trkpt>
      <trkpt lat="44.14901" lon="3.10919">
        <ele>511</ele>
      </trkpt>
      <trkpt lat="44.14931" lon="3.10898">
        <ele>512</ele>
      </trkpt>
      <trkpt lat="44.14954" lon="3.10885">
        <ele>512</ele>
      </trkpt>
      <trkpt lat="44.14989" lon="3.10874">
        <ele>510</ele>
      </trkpt>
      <trkpt lat="44.15019" lon="3.10868">
        <ele>508</ele>
      </trkpt>
      <trkpt lat="44.1507" lon="3.10858">
        <ele>508</ele>
      </trkpt>
      <trkpt lat="44.15093" lon="3.10861">
        <ele>508</ele>
      </trkpt>
      <trkpt lat="44.15119" lon="3.10877">
        <ele>508</ele>
      </trkpt>
      <trkpt lat="44.15121" lon="3.1089">
        <ele>508</ele>
      </trkpt>
      <trkpt lat="44.15103" lon="3.10902">
        <ele>512</ele>
      </trkpt>
      <trkpt lat="44.1506" lon="3.10926">
        <ele>517</ele>
      </trkpt>
      <trkpt lat="44.1504" lon="3.10944">
        <ele>523</ele>
      </trkpt>
      <trkpt lat="44.15018" lon="3.1097">
        <ele>531</ele>
      </trkpt>
      <trkpt lat="44.14984" lon="3.11011">
        <ele>543</ele>
      </trkpt>
      <trkpt lat="44.14979" lon="3.11025">
        <ele>546</ele>
      </trkpt>
      <trkpt lat="44.14967" lon="3.11039">
        <ele>549</ele>
      </trkpt>
      <trkpt lat="44.14964" lon="3.1106">
        <ele>553</ele>
      </trkpt>
      <trkpt lat="44.1497" lon="3.11076">
        <ele>559</ele>
      </trkpt>
      <trkpt lat="44.14963" lon="3.11102">
        <ele>568</ele>
      </trkpt>
      <trkpt lat="44.14971" lon="3.11114">
        <ele>571</ele>
      </trkpt>
      <trkpt lat="44.14969" lon="3.11122">
        <ele>578</ele>
      </trkpt>
      <trkpt lat="44.14958" lon="3.11122">
        <ele>579</ele>
      </trkpt>
      <trkpt lat="44.14941" lon="3.11138">
        <ele>583</ele>
      </trkpt>
      <trkpt lat="44.14931" lon="3.11155">
        <ele>592</ele>
      </trkpt>
      <trkpt lat="44.14932" lon="3.1116">
        <ele>595</ele>
      </trkpt>
      <trkpt lat="44.1496" lon="3.11171">
        <ele>602</ele>
      </trkpt>
      <trkpt lat="44.14979" lon="3.11185">
        <ele>609</ele>
      </trkpt>
      <trkpt lat="44.15013" lon="3.11222">
        <ele>621</ele>
      </trkpt>
      <trkpt lat="44.15027" lon="3.1125">
        <ele>630</ele>
      </trkpt>
      <trkpt lat="44.15037" lon="3.11277">
        <ele>635</ele>
      </trkpt>
      <trkpt lat="44.15039" lon="3.11338">
        <ele>653</ele>
      </trkpt>
      <trkpt lat="44.15045" lon="3.11366">
        <ele>660</ele>
      </trkpt>
      <trkpt lat="44.15052" lon="3.11387">
        <ele>660</ele>
      </trkpt>
      <trkpt lat="44.15057" lon="3.11412">
        <ele>671</ele>
      </trkpt>
      <trkpt lat="44.15064" lon="3.11443">
        <ele>680</ele>
      </trkpt>
      <trkpt lat="44.15062" lon="3.11463">
        <ele>689</ele>
      </trkpt>
      <trkpt lat="44.15072" lon="3.11482">
        <ele>697</ele>
      </trkpt>
      <trkpt lat="44.1507" lon="3.1149">
        <ele>697</ele>
      </trkpt>
      <trkpt lat="44.15062" lon="3.1149">
        <ele>699</ele>
      </trkpt>
      <trkpt lat="44.15052" lon="3.11495">
        <ele>707</ele>
      </trkpt>
      <trkpt lat="44.1504" lon="3.11495">
        <ele>720</ele>
      </trkpt>
      <trkpt lat="44.15036" lon="3.11503">
        <ele>722</ele>
      </trkpt>
      <trkpt lat="44.15038" lon="3.11525">
        <ele>729</ele>
      </trkpt>
      <trkpt lat="44.15049" lon="3.11551">
        <ele>737</ele>
      </trkpt>
      <trkpt lat="44.15069" lon="3.11568">
        <ele>739</ele>
      </trkpt>
      <trkpt lat="44.15095" lon="3.11584">
        <ele>753</ele>
      </trkpt>
      <trkpt lat="44.15101" lon="3.11612">
        <ele>762</ele>
      </trkpt>
      <trkpt lat="44.15124" lon="3.11649">
        <ele>763</ele>
      </trkpt>
      <trkpt lat="44.15142" lon="3.11667">
        <ele>765</ele>
      </trkpt>
      <trkpt lat="44.15144" lon="3.11681">
        <ele>769</ele>
      </trkpt>
      <trkpt lat="44.15138" lon="3.11692">
        <ele>767</ele>
      </trkpt>
      <trkpt lat="44.15137" lon="3.11709">
        <ele>779</ele>
      </trkpt>
      <trkpt lat="44.1515" lon="3.11729">
        <ele>767</ele>
      </trkpt>
      <trkpt lat="44.15163" lon="3.11751">
        <ele>764</ele>
      </trkpt>
      <trkpt lat="44.15196" lon="3.11789">
        <ele>762</ele>
      </trkpt>
      <trkpt lat="44.15203" lon="3.11818">
        <ele>762</ele>
      </trkpt>
      <trkpt lat="44.15214" lon="3.11835">
        <ele>760</ele>
      </trkpt>
      <trkpt lat="44.15226" lon="3.11858">
        <ele>763</ele>
      </trkpt>
      <trkpt lat="44.15234" lon="3.11891">
        <ele>767</ele>
      </trkpt>
      <trkpt lat="44.15236" lon="3.11906">
        <ele>771</ele>
      </trkpt>
      <trkpt lat="44.15248" lon="3.11925">
        <ele>775</ele>
      </trkpt>
      <trkpt lat="44.15261" lon="3.11945">
        <ele>778</ele>
      </trkpt>
      <trkpt lat="44.15279" lon="3.11965">
        <ele>783</ele>
      </trkpt>
      <trkpt lat="44.15282" lon="3.11973">
        <ele>787</ele>
      </trkpt>
      <trkpt lat="44.15278" lon="3.1199">
        <ele>796</ele>
      </trkpt>
      <trkpt lat="44.1528" lon="3.12008">
        <ele>802</ele>
      </trkpt>
      <trkpt lat="44.15293" lon="3.12033">
        <ele>808</ele>
      </trkpt>
      <trkpt lat="44.15306" lon="3.12039">
        <ele>807</ele>
      </trkpt>
      <trkpt lat="44.15308" lon="3.12046">
        <ele>811</ele>
      </trkpt>
      <trkpt lat="44.15304" lon="3.12051">
        <ele>815</ele>
      </trkpt>
      <trkpt lat="44.15291" lon="3.12053">
        <ele>817</ele>
      </trkpt>
      <trkpt lat="44.15288" lon="3.12059">
        <ele>820</ele>
      </trkpt>
      <trkpt lat="44.15293" lon="3.12067">
        <ele>822</ele>
      </trkpt>
      <trkpt lat="44.15296" lon="3.12089">
        <ele>827</ele>
      </trkpt>
      <trkpt lat="44.15308" lon="3.12106">
        <ele>831</ele>
      </trkpt>
      <trkpt lat="44.15318" lon="3.12113">
        <ele>832</ele>
      </trkpt>
      <trkpt lat="44.15339" lon="3.12136">
        <ele>835</ele>
      </trkpt>
      <trkpt lat="44.15361" lon="3.12151">
        <ele>836</ele>
      </trkpt>
      <trkpt lat="44.15372" lon="3.12165">
        <ele>836</ele>
      </trkpt>
      <trkpt lat="44.15358" lon="3.12203">
        <ele>836</ele>
      </trkpt>
      <trkpt lat="44.15344" lon="3.12242">
        <ele>836</ele>
      </trkpt>
      <trkpt lat="44.15321" lon="3.12304">
        <ele>835</ele>
      </trkpt>
      <trkpt lat="44.15301" lon="3.12333">
        <ele>831</ele>
      </trkpt>
      <trkpt lat="44.15274" lon="3.12373">
        <ele>828</ele>
      </trkpt>
      <trkpt lat="44.15262" lon="3.12421">
        <ele>828</ele>
      </trkpt>
      <trkpt lat="44.15227" lon="3.12429">
        <ele>828</ele>
      </trkpt>
      <trkpt lat="44.15198" lon="3.1245">
        <ele>828</ele>
      </trkpt>
      <trkpt lat="44.1517" lon="3.12471">
        <ele>828</ele>
      </trkpt>
      <trkpt lat="44.15141" lon="3.12492">
        <ele>828</ele>
      </trkpt>
      <trkpt lat="44.15116" lon="3.12517">
        <ele>827</ele>
      </trkpt>
      <trkpt lat="44.15095" lon="3.12544">
        <ele>827</ele>
      </trkpt>
      <trkpt lat="44.15064" lon="3.12585">
        <ele>826</ele>
      </trkpt>
      <trkpt lat="44.15103" lon="3.12623">
        <ele>826</ele>
      </trkpt>
      <trkpt lat="44.15119" lon="3.1265">
        <ele>826</ele>
      </trkpt>
      <trkpt lat="44.15158" lon="3.12616">
        <ele>827</ele>
      </trkpt>
      <trkpt lat="44.15196" lon="3.12629">
        <ele>827</ele>
      </trkpt>
      <trkpt lat="44.15233" lon="3.12642">
        <ele>827</ele>
      </trkpt>
      <trkpt lat="44.15271" lon="3.12655">
        <ele>828</ele>
      </trkpt>
      <trkpt lat="44.15308" lon="3.12668">
        <ele>828</ele>
      </trkpt>
      <trkpt lat="44.15346" lon="3.12681">
        <ele>827</ele>
      </trkpt>
      <trkpt lat="44.15354" lon="3.12672">
        <ele>827</ele>
      </trkpt>
      <trkpt lat="44.15382" lon="3.12697">
        <ele>826</ele>
      </trkpt>
      <trkpt lat="44.15411" lon="3.12723">
        <ele>825</ele>
      </trkpt>
      <trkpt lat="44.15439" lon="3.12748">
        <ele>824</ele>
      </trkpt>
      <trkpt lat="44.15469" lon="3.12775">
        <ele>822</ele>
      </trkpt>
      <trkpt lat="44.1551" lon="3.12809">
        <ele>821</ele>
      </trkpt>
      <trkpt lat="44.15495" lon="3.1284">
        <ele>820</ele>
      </trkpt>
      <trkpt lat="44.15475" lon="3.1288">
        <ele>819</ele>
      </trkpt>
      <trkpt lat="44.15505" lon="3.12899">
        <ele>818</ele>
      </trkpt>
      <trkpt lat="44.15534" lon="3.12917">
        <ele>818</ele>
      </trkpt>
      <trkpt lat="44.15566" lon="3.12937">
        <ele>818</ele>
      </trkpt>
      <trkpt lat="44.15594" lon="3.12952">
        <ele>819</ele>
      </trkpt>
      <trkpt lat="44.15598" lon="3.12975">
        <ele>820</ele>
      </trkpt>
      <trkpt lat="44.15591" lon="3.13008">
        <ele>821</ele>
      </trkpt>
      <trkpt lat="44.15579" lon="3.13067">
        <ele>823</ele>
      </trkpt>
      <trkpt lat="44.15563" lon="3.13104">
        <ele>825</ele>
      </trkpt>
      <trkpt lat="44.15535" lon="3.13172">
        <ele>826</ele>
      </trkpt>
      <trkpt lat="44.15557" lon="3.13199">
        <ele>827</ele>
      </trkpt>
      <trkpt lat="44.15593" lon="3.13243">
        <ele>827</ele>
      </trkpt>
      <trkpt lat="44.15618" lon="3.13194">
        <ele>827</ele>
      </trkpt>
      <trkpt lat="44.15643" lon="3.13146">
        <ele>827</ele>
      </trkpt>
      <trkpt lat="44.15668" lon="3.13097">
        <ele>826</ele>
      </trkpt>
      <trkpt lat="44.15693" lon="3.13048">
        <ele>825</ele>
      </trkpt>
      <trkpt lat="44.15718" lon="3.13">
        <ele>823</ele>
      </trkpt>
      <trkpt lat="44.15743" lon="3.12951">
        <ele>823</ele>
      </trkpt>
      <trkpt lat="44.15768" lon="3.12902">
        <ele>821</ele>
      </trkpt>
      <trkpt lat="44.15815" lon="3.1281">
        <ele>818</ele>
      </trkpt>
      <trkpt lat="44.1582" lon="3.12816">
        <ele>818</ele>
      </trkpt>
      <trkpt lat="44.1584" lon="3.12824">
        <ele>819</ele>
      </trkpt>
      <trkpt lat="44.15861" lon="3.12832">
        <ele>820</ele>
      </trkpt>
      <trkpt lat="44.15873" lon="3.12852">
        <ele>821</ele>
      </trkpt>
      <trkpt lat="44.15886" lon="3.12863">
        <ele>821</ele>
      </trkpt>
      <trkpt lat="44.15899" lon="3.12875">
        <ele>821</ele>
      </trkpt>
      <trkpt lat="44.15908" lon="3.12889">
        <ele>822</ele>
      </trkpt>
      <trkpt lat="44.15923" lon="3.12888">
        <ele>822</ele>
      </trkpt>
      <trkpt lat="44.15938" lon="3.12899">
        <ele>823</ele>
      </trkpt>
      <trkpt lat="44.15946" lon="3.12916">
        <ele>822</ele>
      </trkpt>
      <trkpt lat="44.15947" lon="3.12939">
        <ele>823</ele>
      </trkpt>
      <trkpt lat="44.15959" lon="3.12967">
        <ele>822</ele>
      </trkpt>
      <trkpt lat="44.15965" lon="3.1297">
        <ele>821</ele>
      </trkpt>
      <trkpt lat="44.15963" lon="3.12984">
        <ele>822</ele>
      </trkpt>
      <trkpt lat="44.15973" lon="3.13018">
        <ele>820</ele>
      </trkpt>
      <trkpt lat="44.15984" lon="3.13025">
        <ele>819</ele>
      </trkpt>
      <trkpt lat="44.15992" lon="3.13036">
        <ele>820</ele>
      </trkpt>
      <trkpt lat="44.16013" lon="3.13047">
        <ele>820</ele>
      </trkpt>
      <trkpt lat="44.16031" lon="3.13042">
        <ele>821</ele>
      </trkpt>
      <trkpt lat="44.16041" lon="3.13045">
        <ele>821</ele>
      </trkpt>
      <trkpt lat="44.16052" lon="3.13044">
        <ele>821</ele>
      </trkpt>
      <trkpt lat="44.16059" lon="3.13054">
        <ele>820</ele>
      </trkpt>
      <trkpt lat="44.16071" lon="3.13055">
        <ele>822</ele>
      </trkpt>
      <trkpt lat="44.16076" lon="3.13013">
        <ele>823</ele>
      </trkpt>
      <trkpt lat="44.1611" lon="3.12984">
        <ele>827</ele>
      </trkpt>
      <trkpt lat="44.16122" lon="3.12979">
        <ele>825</ele>
      </trkpt>
      <trkpt lat="44.16137" lon="3.12981">
        <ele>828</ele>
      </trkpt>
      <trkpt lat="44.16142" lon="3.12988">
        <ele>828</ele>
      </trkpt>
      <trkpt lat="44.16144" lon="3.13002">
        <ele>829</ele>
      </trkpt>
      <trkpt lat="44.16134" lon="3.13011">
        <ele>828</ele>
      </trkpt>
      <trkpt lat="44.16133" lon="3.13019">
        <ele>828</ele>
      </trkpt>
      <trkpt lat="44.16145" lon="3.13034">
        <ele>829</ele>
      </trkpt>
      <trkpt lat="44.16169" lon="3.13034">
        <ele>829</ele>
      </trkpt>
      <trkpt lat="44.16172" lon="3.13038">
        <ele>829</ele>
      </trkpt>
      <trkpt lat="44.1617" lon="3.13055">
        <ele>829</ele>
      </trkpt>
      <trkpt lat="44.16173" lon="3.13076">
        <ele>829</ele>
      </trkpt>
      <trkpt lat="44.16185" lon="3.13088">
        <ele>829</ele>
      </trkpt>
      <trkpt lat="44.16201" lon="3.13101">
        <ele>829</ele>
      </trkpt>
      <trkpt lat="44.16221" lon="3.13114">
        <ele>831</ele>
      </trkpt>
      <trkpt lat="44.1624" lon="3.13131">
        <ele>833</ele>
      </trkpt>
      <trkpt lat="44.16251" lon="3.13149">
        <ele>834</ele>
      </trkpt>
      <trkpt lat="44.16267" lon="3.13164">
        <ele>836</ele>
      </trkpt>
      <trkpt lat="44.16286" lon="3.13182">
        <ele>837</ele>
      </trkpt>
      <trkpt lat="44.16308" lon="3.13196">
        <ele>837</ele>
      </trkpt>
      <trkpt lat="44.16332" lon="3.13211">
        <ele>837</ele>
      </trkpt>
      <trkpt lat="44.16356" lon="3.13229">
        <ele>837</ele>
      </trkpt>
      <trkpt lat="44.16387" lon="3.13253">
        <ele>836</ele>
      </trkpt>
      <trkpt lat="44.16413" lon="3.13265">
        <ele>835</ele>
      </trkpt>
      <trkpt lat="44.16448" lon="3.13282">
        <ele>834</ele>
      </trkpt>
      <trkpt lat="44.16474" lon="3.13288">
        <ele>833</ele>
      </trkpt>
      <trkpt lat="44.16499" lon="3.13299">
        <ele>832</ele>
      </trkpt>
      <trkpt lat="44.16517" lon="3.13297">
        <ele>827</ele>
      </trkpt>
      <trkpt lat="44.16529" lon="3.13304">
        <ele>832</ele>
      </trkpt>
      <trkpt lat="44.16537" lon="3.1332">
        <ele>832</ele>
      </trkpt>
      <trkpt lat="44.16552" lon="3.13331">
        <ele>833</ele>
      </trkpt>
      <trkpt lat="44.16566" lon="3.13334">
        <ele>832</ele>
      </trkpt>
      <trkpt lat="44.16573" lon="3.13341">
        <ele>833</ele>
      </trkpt>
      <trkpt lat="44.16587" lon="3.13364">
        <ele>833</ele>
      </trkpt>
      <trkpt lat="44.166" lon="3.13376">
        <ele>833</ele>
      </trkpt>
      <trkpt lat="44.16607" lon="3.13386">
        <ele>833</ele>
      </trkpt>
      <trkpt lat="44.1661" lon="3.13397">
        <ele>833</ele>
      </trkpt>
      <trkpt lat="44.1662" lon="3.13392">
        <ele>834</ele>
      </trkpt>
      <trkpt lat="44.16629" lon="3.13382">
        <ele>833</ele>
      </trkpt>
      <trkpt lat="44.16647" lon="3.13388">
        <ele>832</ele>
      </trkpt>
      <trkpt lat="44.16665" lon="3.13399">
        <ele>834</ele>
      </trkpt>
      <trkpt lat="44.16666" lon="3.1341">
        <ele>836</ele>
      </trkpt>
      <trkpt lat="44.16675" lon="3.13411">
        <ele>836</ele>
      </trkpt>
      <trkpt lat="44.16696" lon="3.13436">
        <ele>816</ele>
      </trkpt>
      <trkpt lat="44.16713" lon="3.1345">
        <ele>825</ele>
      </trkpt>
      <trkpt lat="44.16719" lon="3.13468">
        <ele>836</ele>
      </trkpt>
      <trkpt lat="44.16731" lon="3.13489">
        <ele>829</ele>
      </trkpt>
      <trkpt lat="44.16739" lon="3.13515">
        <ele>830</ele>
      </trkpt>
      <trkpt lat="44.16748" lon="3.13525">
        <ele>833</ele>
      </trkpt>
      <trkpt lat="44.16763" lon="3.13524">
        <ele>830</ele>
      </trkpt>
      <trkpt lat="44.16784" lon="3.13527">
        <ele>830</ele>
      </trkpt>
      <trkpt lat="44.16802" lon="3.13541">
        <ele>829</ele>
      </trkpt>
      <trkpt lat="44.16819" lon="3.136">
        <ele>829</ele>
      </trkpt>
      <trkpt lat="44.16841" lon="3.13603">
        <ele>828</ele>
      </trkpt>
      <trkpt lat="44.16849" lon="3.13626">
        <ele>827</ele>
      </trkpt>
      <trkpt lat="44.16867" lon="3.13653">
        <ele>827</ele>
      </trkpt>
      <trkpt lat="44.16885" lon="3.13649">
        <ele>823</ele>
      </trkpt>
      <trkpt lat="44.16911" lon="3.1367">
        <ele>824</ele>
      </trkpt>
      <trkpt lat="44.16915" lon="3.13702">
        <ele>823</ele>
      </trkpt>
      <trkpt lat="44.16936" lon="3.13733">
        <ele>822</ele>
      </trkpt>
      <trkpt lat="44.16949" lon="3.13791">
        <ele>818</ele>
      </trkpt>
      <trkpt lat="44.16944" lon="3.13816">
        <ele>816</ele>
      </trkpt>
      <trkpt lat="44.16916" lon="3.1382">
        <ele>814</ele>
      </trkpt>
      <trkpt lat="44.16891" lon="3.13821">
        <ele>813</ele>
      </trkpt>
      <trkpt lat="44.16861" lon="3.1381">
        <ele>813</ele>
      </trkpt>
      <trkpt lat="44.16806" lon="3.13791">
        <ele>819</ele>
      </trkpt>
      <trkpt lat="44.16764" lon="3.13805">
        <ele>820</ele>
      </trkpt>
      <trkpt lat="44.16744" lon="3.13841">
        <ele>821</ele>
      </trkpt>
      <trkpt lat="44.16724" lon="3.13876">
        <ele>821</ele>
      </trkpt>
      <trkpt lat="44.16702" lon="3.13915">
        <ele>819</ele>
      </trkpt>
      <trkpt lat="44.16675" lon="3.13947">
        <ele>818</ele>
      </trkpt>
      <trkpt lat="44.16648" lon="3.13979">
        <ele>810</ele>
      </trkpt>
      <trkpt lat="44.16598" lon="3.14038">
        <ele>803</ele>
      </trkpt>
      <trkpt lat="44.16582" lon="3.14074">
        <ele>800</ele>
      </trkpt>
      <trkpt lat="44.16556" lon="3.14134">
        <ele>799</ele>
      </trkpt>
      <trkpt lat="44.16555" lon="3.14172">
        <ele>798</ele>
      </trkpt>
      <trkpt lat="44.16565" lon="3.1419">
        <ele>798</ele>
      </trkpt>
      <trkpt lat="44.16584" lon="3.14191">
        <ele>798</ele>
      </trkpt>
      <trkpt lat="44.16608" lon="3.14192">
        <ele>799</ele>
      </trkpt>
      <trkpt lat="44.16619" lon="3.14206">
        <ele>800</ele>
      </trkpt>
      <trkpt lat="44.16615" lon="3.14227">
        <ele>802</ele>
      </trkpt>
      <trkpt lat="44.16587" lon="3.14263">
        <ele>801</ele>
      </trkpt>
      <trkpt lat="44.16574" lon="3.14292">
        <ele>801</ele>
      </trkpt>
      <trkpt lat="44.16561" lon="3.14322">
        <ele>801</ele>
      </trkpt>
      <trkpt lat="44.16543" lon="3.1432">
        <ele>800</ele>
      </trkpt>
      <trkpt lat="44.16528" lon="3.14303">
        <ele>801</ele>
      </trkpt>
      <trkpt lat="44.16497" lon="3.14342">
        <ele>801</ele>
      </trkpt>
      <trkpt lat="44.16482" lon="3.14385">
        <ele>799</ele>
      </trkpt>
      <trkpt lat="44.1652" lon="3.14394">
        <ele>794</ele>
      </trkpt>
      <trkpt lat="44.1652" lon="3.14408">
        <ele>793</ele>
      </trkpt>
      <trkpt lat="44.16514" lon="3.14417">
        <ele>793</ele>
      </trkpt>
      <trkpt lat="44.16508" lon="3.1445">
        <ele>785</ele>
      </trkpt>
      <trkpt lat="44.16535" lon="3.14446">
        <ele>782</ele>
      </trkpt>
      <trkpt lat="44.16572" lon="3.14441">
        <ele>770</ele>
      </trkpt>
      <trkpt lat="44.16548" lon="3.14473">
        <ele>769</ele>
      </trkpt>
      <trkpt lat="44.16577" lon="3.14468">
        <ele>760</ele>
      </trkpt>
      <trkpt lat="44.16624" lon="3.1446">
        <ele>744</ele>
      </trkpt>
      <trkpt lat="44.16665" lon="3.14432">
        <ele>734</ele>
      </trkpt>
      <trkpt lat="44.16689" lon="3.14408">
        <ele>732</ele>
      </trkpt>
      <trkpt lat="44.16725" lon="3.14372">
        <ele>718</ele>
      </trkpt>
      <trkpt lat="44.16734" lon="3.14339">
        <ele>718</ele>
      </trkpt>
      <trkpt lat="44.16745" lon="3.14302">
        <ele>712</ele>
      </trkpt>
      <trkpt lat="44.1675" lon="3.14252">
        <ele>712</ele>
      </trkpt>
      <trkpt lat="44.16755" lon="3.14201">
        <ele>709</ele>
      </trkpt>
      <trkpt lat="44.1676" lon="3.14151">
        <ele>716</ele>
      </trkpt>
      <trkpt lat="44.16765" lon="3.14098">
        <ele>724</ele>
      </trkpt>
      <trkpt lat="44.16791" lon="3.14084">
        <ele>723</ele>
      </trkpt>
      <trkpt lat="44.16826" lon="3.14065">
        <ele>723</ele>
      </trkpt>
      <trkpt lat="44.16837" lon="3.14096">
        <ele>717</ele>
      </trkpt>
      <trkpt lat="44.16849" lon="3.14129">
        <ele>710</ele>
      </trkpt>
      <trkpt lat="44.16873" lon="3.14133">
        <ele>706</ele>
      </trkpt>
      <trkpt lat="44.16899" lon="3.14137">
        <ele>702</ele>
      </trkpt>
      <trkpt lat="44.16927" lon="3.14156">
        <ele>686</ele>
      </trkpt>
      <trkpt lat="44.16981" lon="3.14193">
        <ele>663</ele>
      </trkpt>
      <trkpt lat="44.17007" lon="3.14185">
        <ele>660</ele>
      </trkpt>
      <trkpt lat="44.17038" lon="3.14176">
        <ele>652</ele>
      </trkpt>
      <trkpt lat="44.17063" lon="3.1416">
        <ele>640</ele>
      </trkpt>
      <trkpt lat="44.17097" lon="3.14139">
        <ele>633</ele>
      </trkpt>
      <trkpt lat="44.17089" lon="3.14175">
        <ele>626</ele>
      </trkpt>
      <trkpt lat="44.17078" lon="3.14221">
        <ele>617</ele>
      </trkpt>
      <trkpt lat="44.17062" lon="3.14252">
        <ele>607</ele>
      </trkpt>
      <trkpt lat="44.1704" lon="3.14295">
        <ele>599</ele>
      </trkpt>
      <trkpt lat="44.1702" lon="3.14306">
        <ele>597</ele>
      </trkpt>
      <trkpt lat="44.17003" lon="3.14294">
        <ele>597</ele>
      </trkpt>
      <trkpt lat="44.16983" lon="3.1429">
        <ele>597</ele>
      </trkpt>
      <trkpt lat="44.16965" lon="3.14303">
        <ele>598</ele>
      </trkpt>
      <trkpt lat="44.1697" lon="3.14325">
        <ele>600</ele>
      </trkpt>
      <trkpt lat="44.16966" lon="3.14352">
        <ele>600</ele>
      </trkpt>
      <trkpt lat="44.16942" lon="3.14384">
        <ele>602</ele>
      </trkpt>
      <trkpt lat="44.16926" lon="3.14418">
        <ele>608</ele>
      </trkpt>
      <trkpt lat="44.16901" lon="3.14469">
        <ele>609</ele>
      </trkpt>
      <trkpt lat="44.1687" lon="3.14487">
        <ele>619</ele>
      </trkpt>
      <trkpt lat="44.16884" lon="3.14449">
        <ele>627</ele>
      </trkpt>
      <trkpt lat="44.16859" lon="3.14459">
        <ele>641</ele>
      </trkpt>
      <trkpt lat="44.16828" lon="3.14472">
        <ele>647</ele>
      </trkpt>
      <trkpt lat="44.16797" lon="3.14469">
        <ele>654</ele>
      </trkpt>
      <trkpt lat="44.1677" lon="3.14506">
        <ele>661</ele>
      </trkpt>
      <trkpt lat="44.16746" lon="3.14531">
        <ele>661</ele>
      </trkpt>
      <trkpt lat="44.1672" lon="3.14541">
        <ele>672</ele>
      </trkpt>
      <trkpt lat="44.16686" lon="3.14553">
        <ele>671</ele>
      </trkpt>
      <trkpt lat="44.1671" lon="3.14585">
        <ele>671</ele>
      </trkpt>
      <trkpt lat="44.16688" lon="3.1458">
        <ele>677</ele>
      </trkpt>
      <trkpt lat="44.16694" lon="3.14606">
        <ele>681</ele>
      </trkpt>
      <trkpt lat="44.16685" lon="3.14607">
        <ele>683</ele>
      </trkpt>
      <trkpt lat="44.16688" lon="3.14618">
        <ele>686</ele>
      </trkpt>
      <trkpt lat="44.16672" lon="3.14616">
        <ele>689</ele>
      </trkpt>
      <trkpt lat="44.16657" lon="3.14614">
        <ele>692</ele>
      </trkpt>
      <trkpt lat="44.16649" lon="3.14622">
        <ele>700</ele>
      </trkpt>
      <trkpt lat="44.16654" lon="3.14635">
        <ele>704</ele>
      </trkpt>
      <trkpt lat="44.16656" lon="3.14658">
        <ele>715</ele>
      </trkpt>
      <trkpt lat="44.16667" lon="3.14676">
        <ele>726</ele>
      </trkpt>
      <trkpt lat="44.16679" lon="3.14696">
        <ele>736</ele>
      </trkpt>
      <trkpt lat="44.16631" lon="3.14694">
        <ele>744</ele>
      </trkpt>
      <trkpt lat="44.166" lon="3.14706">
        <ele>750</ele>
      </trkpt>
      <trkpt lat="44.1654" lon="3.14729">
        <ele>758</ele>
      </trkpt>
      <trkpt lat="44.16529" lon="3.14768">
        <ele>768</ele>
      </trkpt>
      <trkpt lat="44.16512" lon="3.14829">
        <ele>779</ele>
      </trkpt>
      <trkpt lat="44.16509" lon="3.14896">
        <ele>779</ele>
      </trkpt>
      <trkpt lat="44.16525" lon="3.14954">
        <ele>791</ele>
      </trkpt>
      <trkpt lat="44.16518" lon="3.15012">
        <ele>796</ele>
      </trkpt>
      <trkpt lat="44.16521" lon="3.15045">
        <ele>796</ele>
      </trkpt>
      <trkpt lat="44.16517" lon="3.15097">
        <ele>797</ele>
      </trkpt>
      <trkpt lat="44.16529" lon="3.15122">
        <ele>797</ele>
      </trkpt>
      <trkpt lat="44.16505" lon="3.15099">
        <ele>797</ele>
      </trkpt>
      <trkpt lat="44.16478" lon="3.15106">
        <ele>798</ele>
      </trkpt>
      <trkpt lat="44.16445" lon="3.15115">
        <ele>798</ele>
      </trkpt>
      <trkpt lat="44.16412" lon="3.15131">
        <ele>799</ele>
      </trkpt>
      <trkpt lat="44.16379" lon="3.15147">
        <ele>804</ele>
      </trkpt>
      <trkpt lat="44.16329" lon="3.15171">
        <ele>813</ele>
      </trkpt>
      <trkpt lat="44.16296" lon="3.1518">
        <ele>815</ele>
      </trkpt>
      <trkpt lat="44.16263" lon="3.15189">
        <ele>817</ele>
      </trkpt>
      <trkpt lat="44.16223" lon="3.152">
        <ele>818</ele>
      </trkpt>
      <trkpt lat="44.16194" lon="3.15221">
        <ele>818</ele>
      </trkpt>
      <trkpt lat="44.16164" lon="3.1523">
        <ele>820</ele>
      </trkpt>
      <trkpt lat="44.16133" lon="3.15266">
        <ele>825</ele>
      </trkpt>
      <trkpt lat="44.1612" lon="3.15298">
        <ele>827</ele>
      </trkpt>
      <trkpt lat="44.16095" lon="3.153">
        <ele>832</ele>
      </trkpt>
      <trkpt lat="44.16086" lon="3.15334">
        <ele>835</ele>
      </trkpt>
      <trkpt lat="44.16075" lon="3.15374">
        <ele>835</ele>
      </trkpt>
      <trkpt lat="44.16064" lon="3.15373">
        <ele>837</ele>
      </trkpt>
      <trkpt lat="44.16063" lon="3.15338">
        <ele>836</ele>
      </trkpt>
      <trkpt lat="44.16062" lon="3.15284">
        <ele>836</ele>
      </trkpt>
      <trkpt lat="44.16028" lon="3.15304">
        <ele>838</ele>
      </trkpt>
      <trkpt lat="44.15999" lon="3.15315">
        <ele>838</ele>
      </trkpt>
      <trkpt lat="44.15949" lon="3.15333">
        <ele>839</ele>
      </trkpt>
      <trkpt lat="44.15926" lon="3.15321">
        <ele>839</ele>
      </trkpt>
      <trkpt lat="44.159" lon="3.15337">
        <ele>839</ele>
      </trkpt>
      <trkpt lat="44.15865" lon="3.15359">
        <ele>839</ele>
      </trkpt>
      <trkpt lat="44.15866" lon="3.15421">
        <ele>838</ele>
      </trkpt>
      <trkpt lat="44.15877" lon="3.15455">
        <ele>838</ele>
      </trkpt>
      <trkpt lat="44.1589" lon="3.15499">
        <ele>838</ele>
      </trkpt>
      <trkpt lat="44.15873" lon="3.15532">
        <ele>838</ele>
      </trkpt>
      <trkpt lat="44.15858" lon="3.1555">
        <ele>837</ele>
      </trkpt>
      <trkpt lat="44.15847" lon="3.15511">
        <ele>837</ele>
      </trkpt>
      <trkpt lat="44.1583" lon="3.15449">
        <ele>836</ele>
      </trkpt>
      <trkpt lat="44.15821" lon="3.1543">
        <ele>836</ele>
      </trkpt>
      <trkpt lat="44.15803" lon="3.1542">
        <ele>835</ele>
      </trkpt>
      <trkpt lat="44.15781" lon="3.15408">
        <ele>834</ele>
      </trkpt>
      <trkpt lat="44.15763" lon="3.15409">
        <ele>833</ele>
      </trkpt>
      <trkpt lat="44.15745" lon="3.15378">
        <ele>830</ele>
      </trkpt>
      <trkpt lat="44.15736" lon="3.15344">
        <ele>827</ele>
      </trkpt>
      <trkpt lat="44.15716" lon="3.15324">
        <ele>824</ele>
      </trkpt>
      <trkpt lat="44.15696" lon="3.15304">
        <ele>822</ele>
      </trkpt>
      <trkpt lat="44.15656" lon="3.15292">
        <ele>822</ele>
      </trkpt>
      <trkpt lat="44.15629" lon="3.15295">
        <ele>824</ele>
      </trkpt>
      <trkpt lat="44.15595" lon="3.15299">
        <ele>826</ele>
      </trkpt>
      <trkpt lat="44.15548" lon="3.15298">
        <ele>829</ele>
      </trkpt>
      <trkpt lat="44.15532" lon="3.1529">
        <ele>830</ele>
      </trkpt>
      <trkpt lat="44.15529" lon="3.15254">
        <ele>831</ele>
      </trkpt>
      <trkpt lat="44.1552" lon="3.15238">
        <ele>831</ele>
      </trkpt>
      <trkpt lat="44.15512" lon="3.15206">
        <ele>832</ele>
      </trkpt>
      <trkpt lat="44.15516" lon="3.15168">
        <ele>834</ele>
      </trkpt>
      <trkpt lat="44.15521" lon="3.1512">
        <ele>836</ele>
      </trkpt>
      <trkpt lat="44.1553" lon="3.15087">
        <ele>838</ele>
      </trkpt>
      <trkpt lat="44.1554" lon="3.15049">
        <ele>838</ele>
      </trkpt>
      <trkpt lat="44.15536" lon="3.15001">
        <ele>838</ele>
      </trkpt>
      <trkpt lat="44.15532" lon="3.14953">
        <ele>838</ele>
      </trkpt>
      <trkpt lat="44.15526" lon="3.14882">
        <ele>839</ele>
      </trkpt>
      <trkpt lat="44.15524" lon="3.14871">
        <ele>839</ele>
      </trkpt>
      <trkpt lat="44.15543" lon="3.14868">
        <ele>839</ele>
      </trkpt>
      <trkpt lat="44.15555" lon="3.14863">
        <ele>839</ele>
      </trkpt>
      <trkpt lat="44.15559" lon="3.14848">
        <ele>839</ele>
      </trkpt>
      <trkpt lat="44.15557" lon="3.14797">
        <ele>838</ele>
      </trkpt>
      <trkpt lat="44.15577" lon="3.14763">
        <ele>836</ele>
      </trkpt>
      <trkpt lat="44.1558" lon="3.14746">
        <ele>836</ele>
      </trkpt>
      <trkpt lat="44.15586" lon="3.14737">
        <ele>835</ele>
      </trkpt>
      <trkpt lat="44.15595" lon="3.14735">
        <ele>834</ele>
      </trkpt>
      <trkpt lat="44.15608" lon="3.14742">
        <ele>833</ele>
      </trkpt>
      <trkpt lat="44.15618" lon="3.14731">
        <ele>831</ele>
      </trkpt>
      <trkpt lat="44.15617" lon="3.14703">
        <ele>832</ele>
      </trkpt>
      <trkpt lat="44.15615" lon="3.14672">
        <ele>832</ele>
      </trkpt>
      <trkpt lat="44.15628" lon="3.14659">
        <ele>832</ele>
      </trkpt>
      <trkpt lat="44.1563" lon="3.14643">
        <ele>832</ele>
      </trkpt>
      <trkpt lat="44.15658" lon="3.14617">
        <ele>830</ele>
      </trkpt>
      <trkpt lat="44.15674" lon="3.14624">
        <ele>828</ele>
      </trkpt>
      <trkpt lat="44.1569" lon="3.14618">
        <ele>827</ele>
      </trkpt>
      <trkpt lat="44.15707" lon="3.14611">
        <ele>826</ele>
      </trkpt>
      <trkpt lat="44.15719" lon="3.1459">
        <ele>825</ele>
      </trkpt>
      <trkpt lat="44.15741" lon="3.14575">
        <ele>824</ele>
      </trkpt>
      <trkpt lat="44.15776" lon="3.14538">
        <ele>823</ele>
      </trkpt>
      <trkpt lat="44.15813" lon="3.14531">
        <ele>823</ele>
      </trkpt>
      <trkpt lat="44.15842" lon="3.14516">
        <ele>822</ele>
      </trkpt>
      <trkpt lat="44.1587" lon="3.14516">
        <ele>821</ele>
      </trkpt>
      <trkpt lat="44.15911" lon="3.14517">
        <ele>820</ele>
      </trkpt>
      <trkpt lat="44.15945" lon="3.14498">
        <ele>820</ele>
      </trkpt>
      <trkpt lat="44.15963" lon="3.14501">
        <ele>819</ele>
      </trkpt>
      <trkpt lat="44.15984" lon="3.14495">
        <ele>818</ele>
      </trkpt>
      <trkpt lat="44.15999" lon="3.14504">
        <ele>817</ele>
      </trkpt>
      <trkpt lat="44.16015" lon="3.14504">
        <ele>815</ele>
      </trkpt>
      <trkpt lat="44.16032" lon="3.14504">
        <ele>812</ele>
      </trkpt>
      <trkpt lat="44.16039" lon="3.14488">
        <ele>812</ele>
      </trkpt>
      <trkpt lat="44.16062" lon="3.14492">
        <ele>809</ele>
      </trkpt>
      <trkpt lat="44.16081" lon="3.14473">
        <ele>809</ele>
      </trkpt>
      <trkpt lat="44.16076" lon="3.14435">
        <ele>810</ele>
      </trkpt>
      <trkpt lat="44.1607" lon="3.14384">
        <ele>810</ele>
      </trkpt>
      <trkpt lat="44.16077" lon="3.14318">
        <ele>810</ele>
      </trkpt>
      <trkpt lat="44.16078" lon="3.14283">
        <ele>810</ele>
      </trkpt>
      <trkpt lat="44.16067" lon="3.14237">
        <ele>811</ele>
      </trkpt>
      <trkpt lat="44.16056" lon="3.14191">
        <ele>812</ele>
      </trkpt>
      <trkpt lat="44.16038" lon="3.14117">
        <ele>815</ele>
      </trkpt>
      <trkpt lat="44.16012" lon="3.14127">
        <ele>815</ele>
      </trkpt>
      <trkpt lat="44.15986" lon="3.1413">
        <ele>816</ele>
      </trkpt>
      <trkpt lat="44.15977" lon="3.14135">
        <ele>816</ele>
      </trkpt>
      <trkpt lat="44.1597" lon="3.14118">
        <ele>817</ele>
      </trkpt>
      <trkpt lat="44.15966" lon="3.14082">
        <ele>817</ele>
      </trkpt>
      <trkpt lat="44.15953" lon="3.14041">
        <ele>817</ele>
      </trkpt>
      <trkpt lat="44.15957" lon="3.14006">
        <ele>817</ele>
      </trkpt>
      <trkpt lat="44.15949" lon="3.13979">
        <ele>817</ele>
      </trkpt>
      <trkpt lat="44.15924" lon="3.13952">
        <ele>819</ele>
      </trkpt>
      <trkpt lat="44.15909" lon="3.13958">
        <ele>821</ele>
      </trkpt>
      <trkpt lat="44.15891" lon="3.13955">
        <ele>822</ele>
      </trkpt>
      <trkpt lat="44.15868" lon="3.1396">
        <ele>824</ele>
      </trkpt>
      <trkpt lat="44.1584" lon="3.13949">
        <ele>829</ele>
      </trkpt>
      <trkpt lat="44.15795" lon="3.13933">
        <ele>834</ele>
      </trkpt>
      <trkpt lat="44.1577" lon="3.13942">
        <ele>838</ele>
      </trkpt>
      <trkpt lat="44.15728" lon="3.13922">
        <ele>841</ele>
      </trkpt>
      <trkpt lat="44.15686" lon="3.1391">
        <ele>842</ele>
      </trkpt>
      <trkpt lat="44.15655" lon="3.13897">
        <ele>842</ele>
      </trkpt>
      <trkpt lat="44.15624" lon="3.13883">
        <ele>842</ele>
      </trkpt>
      <trkpt lat="44.1559" lon="3.13869">
        <ele>841</ele>
      </trkpt>
      <trkpt lat="44.15563" lon="3.13855">
        <ele>840</ele>
      </trkpt>
      <trkpt lat="44.15524" lon="3.13834">
        <ele>838</ele>
      </trkpt>
      <trkpt lat="44.15496" lon="3.13811">
        <ele>836</ele>
      </trkpt>
      <trkpt lat="44.15442" lon="3.13766">
        <ele>833</ele>
      </trkpt>
      <trkpt lat="44.15426" lon="3.13749">
        <ele>832</ele>
      </trkpt>
      <trkpt lat="44.15445" lon="3.137">
        <ele>832</ele>
      </trkpt>
      <trkpt lat="44.15464" lon="3.13651">
        <ele>832</ele>
      </trkpt>
      <trkpt lat="44.15483" lon="3.13602">
        <ele>831</ele>
      </trkpt>
      <trkpt lat="44.15502" lon="3.13554">
        <ele>831</ele>
      </trkpt>
      <trkpt lat="44.15535" lon="3.1347">
        <ele>831</ele>
      </trkpt>
      <trkpt lat="44.15521" lon="3.1344">
        <ele>830</ele>
      </trkpt>
      <trkpt lat="44.1551" lon="3.13436">
        <ele>829</ele>
      </trkpt>
      <trkpt lat="44.15488" lon="3.13454">
        <ele>829</ele>
      </trkpt>
      <trkpt lat="44.15468" lon="3.13464">
        <ele>828</ele>
      </trkpt>
      <trkpt lat="44.1544" lon="3.13452">
        <ele>827</ele>
      </trkpt>
      <trkpt lat="44.15399" lon="3.1342">
        <ele>825</ele>
      </trkpt>
      <trkpt lat="44.15375" lon="3.13406">
        <ele>825</ele>
      </trkpt>
      <trkpt lat="44.15347" lon="3.1339">
        <ele>825</ele>
      </trkpt>
      <trkpt lat="44.15323" lon="3.13373">
        <ele>825</ele>
      </trkpt>
      <trkpt lat="44.15301" lon="3.13349">
        <ele>825</ele>
      </trkpt>
      <trkpt lat="44.15283" lon="3.13337">
        <ele>825</ele>
      </trkpt>
      <trkpt lat="44.15266" lon="3.13333">
        <ele>825</ele>
      </trkpt>
      <trkpt lat="44.15245" lon="3.13341">
        <ele>825</ele>
      </trkpt>
      <trkpt lat="44.15231" lon="3.13352">
        <ele>825</ele>
      </trkpt>
      <trkpt lat="44.15221" lon="3.13371">
        <ele>825</ele>
      </trkpt>
      <trkpt lat="44.1521" lon="3.13391">
        <ele>825</ele>
      </trkpt>
      <trkpt lat="44.1518" lon="3.13423">
        <ele>825</ele>
      </trkpt>
      <trkpt lat="44.15168" lon="3.13451">
        <ele>825</ele>
      </trkpt>
      <trkpt lat="44.15159" lon="3.13496">
        <ele>825</ele>
      </trkpt>
      <trkpt lat="44.1515" lon="3.13541">
        <ele>825</ele>
      </trkpt>
      <trkpt lat="44.15139" lon="3.13599">
        <ele>826</ele>
      </trkpt>
      <trkpt lat="44.1512" lon="3.13623">
        <ele>826</ele>
      </trkpt>
      <trkpt lat="44.15098" lon="3.13651">
        <ele>825</ele>
      </trkpt>
      <trkpt lat="44.15081" lon="3.13658">
        <ele>826</ele>
      </trkpt>
      <trkpt lat="44.15065" lon="3.13657">
        <ele>824</ele>
      </trkpt>
      <trkpt lat="44.15047" lon="3.13656">
        <ele>822</ele>
      </trkpt>
      <trkpt lat="44.15023" lon="3.13665">
        <ele>822</ele>
      </trkpt>
      <trkpt lat="44.14993" lon="3.13668">
        <ele>820</ele>
      </trkpt>
      <trkpt lat="44.1496" lon="3.13659">
        <ele>820</ele>
      </trkpt>
      <trkpt lat="44.14928" lon="3.13649">
        <ele>820</ele>
      </trkpt>
      <trkpt lat="44.14889" lon="3.13638">
        <ele>822</ele>
      </trkpt>
      <trkpt lat="44.14884" lon="3.13633">
        <ele>822</ele>
      </trkpt>
      <trkpt lat="44.14884" lon="3.13625">
        <ele>822</ele>
      </trkpt>
      <trkpt lat="44.14898" lon="3.13588">
        <ele>822</ele>
      </trkpt>
      <trkpt lat="44.14911" lon="3.13552">
        <ele>821</ele>
      </trkpt>
      <trkpt lat="44.14928" lon="3.13507">
        <ele>821</ele>
      </trkpt>
      <trkpt lat="44.14942" lon="3.13465">
        <ele>819</ele>
      </trkpt>
      <trkpt lat="44.14956" lon="3.13422">
        <ele>818</ele>
      </trkpt>
      <trkpt lat="44.14973" lon="3.1337">
        <ele>817</ele>
      </trkpt>
      <trkpt lat="44.14978" lon="3.13329">
        <ele>816</ele>
      </trkpt>
      <trkpt lat="44.14974" lon="3.13288">
        <ele>815</ele>
      </trkpt>
      <trkpt lat="44.14967" lon="3.13225">
        <ele>815</ele>
      </trkpt>
      <trkpt lat="44.14959" lon="3.13192">
        <ele>815</ele>
      </trkpt>
      <trkpt lat="44.14946" lon="3.13159">
        <ele>815</ele>
      </trkpt>
      <trkpt lat="44.14929" lon="3.13117">
        <ele>815</ele>
      </trkpt>
      <trkpt lat="44.14927" lon="3.13106">
        <ele>814</ele>
      </trkpt>
      <trkpt lat="44.14926" lon="3.13076">
        <ele>812</ele>
      </trkpt>
      <trkpt lat="44.14924" lon="3.13044">
        <ele>809</ele>
      </trkpt>
      <trkpt lat="44.1492" lon="3.1301">
        <ele>808</ele>
      </trkpt>
      <trkpt lat="44.14915" lon="3.12975">
        <ele>806</ele>
      </trkpt>
      <trkpt lat="44.14906" lon="3.12941">
        <ele>806</ele>
      </trkpt>
      <trkpt lat="44.14895" lon="3.12902">
        <ele>805</ele>
      </trkpt>
      <trkpt lat="44.14858" lon="3.12865">
        <ele>804</ele>
      </trkpt>
      <trkpt lat="44.14842" lon="3.12839">
        <ele>804</ele>
      </trkpt>
      <trkpt lat="44.14825" lon="3.12813">
        <ele>804</ele>
      </trkpt>
      <trkpt lat="44.14802" lon="3.1279">
        <ele>804</ele>
      </trkpt>
      <trkpt lat="44.1477" lon="3.12757">
        <ele>803</ele>
      </trkpt>
      <trkpt lat="44.14753" lon="3.12731">
        <ele>803</ele>
      </trkpt>
      <trkpt lat="44.14733" lon="3.12702">
        <ele>801</ele>
      </trkpt>
      <trkpt lat="44.14722" lon="3.12677">
        <ele>800</ele>
      </trkpt>
      <trkpt lat="44.1471" lon="3.12656">
        <ele>799</ele>
      </trkpt>
      <trkpt lat="44.14695" lon="3.1264">
        <ele>799</ele>
      </trkpt>
      <trkpt lat="44.14675" lon="3.1262">
        <ele>799</ele>
      </trkpt>
      <trkpt lat="44.14654" lon="3.12585">
        <ele>799</ele>
      </trkpt>
      <trkpt lat="44.14639" lon="3.12529">
        <ele>800</ele>
      </trkpt>
      <trkpt lat="44.14616" lon="3.12514">
        <ele>801</ele>
      </trkpt>
      <trkpt lat="44.14592" lon="3.12499">
        <ele>803</ele>
      </trkpt>
      <trkpt lat="44.14566" lon="3.12444">
        <ele>802</ele>
      </trkpt>
      <trkpt lat="44.14562" lon="3.12442">
        <ele>805</ele>
      </trkpt>
      <trkpt lat="44.14545" lon="3.124">
        <ele>802</ele>
      </trkpt>
      <trkpt lat="44.14539" lon="3.12394">
        <ele>799</ele>
      </trkpt>
      <trkpt lat="44.14535" lon="3.12395">
        <ele>799</ele>
      </trkpt>
      <trkpt lat="44.14534" lon="3.12356">
        <ele>797</ele>
      </trkpt>
      <trkpt lat="44.14523" lon="3.12351">
        <ele>792</ele>
      </trkpt>
      <trkpt lat="44.14521" lon="3.12352">
        <ele>792</ele>
      </trkpt>
      <trkpt lat="44.14519" lon="3.12355">
        <ele>788</ele>
      </trkpt>
      <trkpt lat="44.14516" lon="3.12368">
        <ele>787</ele>
      </trkpt>
      <trkpt lat="44.14513" lon="3.12369">
        <ele>787</ele>
      </trkpt>
      <trkpt lat="44.14507" lon="3.12359">
        <ele>783</ele>
      </trkpt>
      <trkpt lat="44.14504" lon="3.12357">
        <ele>783</ele>
      </trkpt>
      <trkpt lat="44.14501" lon="3.12358">
        <ele>783</ele>
      </trkpt>
      <trkpt lat="44.14502" lon="3.12362">
        <ele>782</ele>
      </trkpt>
      <trkpt lat="44.145" lon="3.12367">
        <ele>782</ele>
      </trkpt>
      <trkpt lat="44.14495" lon="3.12368">
        <ele>774</ele>
      </trkpt>
      <trkpt lat="44.14494" lon="3.12373">
        <ele>774</ele>
      </trkpt>
      <trkpt lat="44.1449" lon="3.12376">
        <ele>768</ele>
      </trkpt>
      <trkpt lat="44.14487" lon="3.12375">
        <ele>768</ele>
      </trkpt>
      <trkpt lat="44.14471" lon="3.12341">
        <ele>766</ele>
      </trkpt>
      <trkpt lat="44.14454" lon="3.12292">
        <ele>756</ele>
      </trkpt>
      <trkpt lat="44.14448" lon="3.12259">
        <ele>751</ele>
      </trkpt>
      <trkpt lat="44.1443" lon="3.12234">
        <ele>736</ele>
      </trkpt>
      <trkpt lat="44.14414" lon="3.122">
        <ele>732</ele>
      </trkpt>
      <trkpt lat="44.14393" lon="3.12167">
        <ele>723</ele>
      </trkpt>
      <trkpt lat="44.14373" lon="3.12128">
        <ele>710</ele>
      </trkpt>
      <trkpt lat="44.1437" lon="3.12104">
        <ele>703</ele>
      </trkpt>
      <trkpt lat="44.14375" lon="3.12069">
        <ele>704</ele>
      </trkpt>
      <trkpt lat="44.14369" lon="3.12072">
        <ele>698</ele>
      </trkpt>
      <trkpt lat="44.14352" lon="3.12094">
        <ele>695</ele>
      </trkpt>
      <trkpt lat="44.14348" lon="3.12109">
        <ele>687</ele>
      </trkpt>
      <trkpt lat="44.14349" lon="3.12122">
        <ele>697</ele>
      </trkpt>
      <trkpt lat="44.14348" lon="3.12137">
        <ele>689</ele>
      </trkpt>
      <trkpt lat="44.14351" lon="3.12169">
        <ele>696</ele>
      </trkpt>
      <trkpt lat="44.14351" lon="3.12205">
        <ele>695</ele>
      </trkpt>
      <trkpt lat="44.14354" lon="3.1224">
        <ele>692</ele>
      </trkpt>
      <trkpt lat="44.14366" lon="3.1228">
        <ele>694</ele>
      </trkpt>
      <trkpt lat="44.14367" lon="3.12296">
        <ele>691</ele>
      </trkpt>
      <trkpt lat="44.14361" lon="3.12342">
        <ele>697</ele>
      </trkpt>
      <trkpt lat="44.14359" lon="3.12372">
        <ele>697</ele>
      </trkpt>
      <trkpt lat="44.14355" lon="3.1239">
        <ele>699</ele>
      </trkpt>
      <trkpt lat="44.14344" lon="3.12416">
        <ele>700</ele>
      </trkpt>
      <trkpt lat="44.14338" lon="3.12436">
        <ele>701</ele>
      </trkpt>
      <trkpt lat="44.14324" lon="3.12453">
        <ele>702</ele>
      </trkpt>
      <trkpt lat="44.1432" lon="3.12468">
        <ele>703</ele>
      </trkpt>
      <trkpt lat="44.14328" lon="3.12488">
        <ele>706</ele>
      </trkpt>
      <trkpt lat="44.14326" lon="3.12503">
        <ele>709</ele>
      </trkpt>
      <trkpt lat="44.14322" lon="3.12507">
        <ele>709</ele>
      </trkpt>
      <trkpt lat="44.14331" lon="3.12528">
        <ele>714</ele>
      </trkpt>
      <trkpt lat="44.1434" lon="3.12552">
        <ele>721</ele>
      </trkpt>
      <trkpt lat="44.14353" lon="3.12573">
        <ele>726</ele>
      </trkpt>
      <trkpt lat="44.14367" lon="3.12587">
        <ele>727</ele>
      </trkpt>
      <trkpt lat="44.14379" lon="3.12608">
        <ele>733</ele>
      </trkpt>
      <trkpt lat="44.14393" lon="3.12633">
        <ele>733</ele>
      </trkpt>
      <trkpt lat="44.14394" lon="3.12669">
        <ele>736</ele>
      </trkpt>
      <trkpt lat="44.14396" lon="3.12711">
        <ele>746</ele>
      </trkpt>
      <trkpt lat="44.14424" lon="3.12747">
        <ele>752</ele>
      </trkpt>
      <trkpt lat="44.14441" lon="3.12777">
        <ele>761</ele>
      </trkpt>
      <trkpt lat="44.14462" lon="3.12804">
        <ele>770</ele>
      </trkpt>
      <trkpt lat="44.14471" lon="3.12847">
        <ele>772</ele>
      </trkpt>
      <trkpt lat="44.14468" lon="3.12866">
        <ele>775</ele>
      </trkpt>
      <trkpt lat="44.14451" lon="3.12852">
        <ele>774</ele>
      </trkpt>
      <trkpt lat="44.14431" lon="3.12836">
        <ele>776</ele>
      </trkpt>
      <trkpt lat="44.14393" lon="3.12828">
        <ele>787</ele>
      </trkpt>
      <trkpt lat="44.14407" lon="3.12854">
        <ele>790</ele>
      </trkpt>
      <trkpt lat="44.14407" lon="3.12874">
        <ele>792</ele>
      </trkpt>
      <trkpt lat="44.14404" lon="3.12891">
        <ele>794</ele>
      </trkpt>
      <trkpt lat="44.14401" lon="3.12895">
        <ele>794</ele>
      </trkpt>
      <trkpt lat="44.14402" lon="3.12907">
        <ele>795</ele>
      </trkpt>
      <trkpt lat="44.144" lon="3.12946">
        <ele>798</ele>
      </trkpt>
      <trkpt lat="44.14406" lon="3.1298">
        <ele>800</ele>
      </trkpt>
      <trkpt lat="44.14409" lon="3.13014">
        <ele>799</ele>
      </trkpt>
      <trkpt lat="44.14411" lon="3.13059">
        <ele>799</ele>
      </trkpt>
      <trkpt lat="44.14409" lon="3.13072">
        <ele>800</ele>
      </trkpt>
      <trkpt lat="44.14413" lon="3.13101">
        <ele>799</ele>
      </trkpt>
      <trkpt lat="44.1441" lon="3.13125">
        <ele>799</ele>
      </trkpt>
      <trkpt lat="44.14404" lon="3.13156">
        <ele>799</ele>
      </trkpt>
      <trkpt lat="44.14394" lon="3.13208">
        <ele>799</ele>
      </trkpt>
      <trkpt lat="44.14381" lon="3.13244">
        <ele>800</ele>
      </trkpt>
      <trkpt lat="44.14379" lon="3.13262">
        <ele>801</ele>
      </trkpt>
      <trkpt lat="44.14382" lon="3.13289">
        <ele>801</ele>
      </trkpt>
      <trkpt lat="44.14385" lon="3.1332">
        <ele>803</ele>
      </trkpt>
      <trkpt lat="44.14388" lon="3.13378">
        <ele>806</ele>
      </trkpt>
      <trkpt lat="44.14402" lon="3.13427">
        <ele>809</ele>
      </trkpt>
      <trkpt lat="44.14406" lon="3.13451">
        <ele>810</ele>
      </trkpt>
      <trkpt lat="44.14413" lon="3.13473">
        <ele>812</ele>
      </trkpt>
      <trkpt lat="44.14421" lon="3.13499">
        <ele>812</ele>
      </trkpt>
      <trkpt lat="44.14428" lon="3.13511">
        <ele>814</ele>
      </trkpt>
      <trkpt lat="44.1439" lon="3.13511">
        <ele>812</ele>
      </trkpt>
      <trkpt lat="44.14352" lon="3.1351">
        <ele>810</ele>
      </trkpt>
      <trkpt lat="44.14314" lon="3.1351">
        <ele>810</ele>
      </trkpt>
      <trkpt lat="44.14276" lon="3.1351">
        <ele>811</ele>
      </trkpt>
      <trkpt lat="44.14211" lon="3.13509">
        <ele>813</ele>
      </trkpt>
      <trkpt lat="44.14209" lon="3.1353">
        <ele>816</ele>
      </trkpt>
      <trkpt lat="44.14204" lon="3.13538">
        <ele>816</ele>
      </trkpt>
      <trkpt lat="44.14201" lon="3.13556">
        <ele>816</ele>
      </trkpt>
      <trkpt lat="44.14185" lon="3.13574">
        <ele>816</ele>
      </trkpt>
      <trkpt lat="44.14165" lon="3.13596">
        <ele>817</ele>
      </trkpt>
      <trkpt lat="44.14148" lon="3.13622">
        <ele>817</ele>
      </trkpt>
      <trkpt lat="44.1414" lon="3.13639">
        <ele>817</ele>
      </trkpt>
      <trkpt lat="44.14139" lon="3.1364">
        <ele>817</ele>
      </trkpt>
      <trkpt lat="44.14121" lon="3.13633">
        <ele>818</ele>
      </trkpt>
      <trkpt lat="44.14114" lon="3.13634">
        <ele>818</ele>
      </trkpt>
      <trkpt lat="44.14103" lon="3.13637">
        <ele>818</ele>
      </trkpt>
      <trkpt lat="44.14095" lon="3.13642">
        <ele>818</ele>
      </trkpt>
      <trkpt lat="44.14078" lon="3.13649">
        <ele>819</ele>
      </trkpt>
      <trkpt lat="44.14071" lon="3.1365">
        <ele>819</ele>
      </trkpt>
      <trkpt lat="44.14062" lon="3.13649">
        <ele>820</ele>
      </trkpt>
      <trkpt lat="44.14039" lon="3.13635">
        <ele>825</ele>
      </trkpt>
      <trkpt lat="44.14036" lon="3.13635">
        <ele>825</ele>
      </trkpt>
      <trkpt lat="44.14025" lon="3.13639">
        <ele>826</ele>
      </trkpt>
      <trkpt lat="44.14012" lon="3.13648">
        <ele>826</ele>
      </trkpt>
      <trkpt lat="44.13991" lon="3.13651">
        <ele>827</ele>
      </trkpt>
      <trkpt lat="44.13976" lon="3.13655">
        <ele>827</ele>
      </trkpt>
      <trkpt lat="44.13971" lon="3.13654">
        <ele>827</ele>
      </trkpt>
      <trkpt lat="44.13955" lon="3.13646">
        <ele>826</ele>
      </trkpt>
      <trkpt lat="44.1394" lon="3.13635">
        <ele>825</ele>
      </trkpt>
      <trkpt lat="44.13923" lon="3.13624">
        <ele>824</ele>
      </trkpt>
      <trkpt lat="44.13882" lon="3.13615">
        <ele>821</ele>
      </trkpt>
      <trkpt lat="44.1387" lon="3.13607">
        <ele>821</ele>
      </trkpt>
      <trkpt lat="44.13854" lon="3.13586">
        <ele>819</ele>
      </trkpt>
      <trkpt lat="44.13849" lon="3.13581">
        <ele>819</ele>
      </trkpt>
      <trkpt lat="44.13844" lon="3.13579">
        <ele>819</ele>
      </trkpt>
      <trkpt lat="44.13827" lon="3.13577">
        <ele>819</ele>
      </trkpt>
      <trkpt lat="44.13808" lon="3.13577">
        <ele>819</ele>
      </trkpt>
      <trkpt lat="44.13777" lon="3.1358">
        <ele>819</ele>
      </trkpt>
      <trkpt lat="44.13746" lon="3.13584">
        <ele>819</ele>
      </trkpt>
      <trkpt lat="44.13687" lon="3.1359">
        <ele>817</ele>
      </trkpt>
      <trkpt lat="44.13673" lon="3.13596">
        <ele>817</ele>
      </trkpt>
      <trkpt lat="44.13662" lon="3.13609">
        <ele>816</ele>
      </trkpt>
      <trkpt lat="44.13653" lon="3.13626">
        <ele>816</ele>
      </trkpt>
      <trkpt lat="44.13643" lon="3.13655">
        <ele>816</ele>
      </trkpt>
      <trkpt lat="44.13626" lon="3.13702">
        <ele>815</ele>
      </trkpt>
      <trkpt lat="44.1362" lon="3.1371">
        <ele>815</ele>
      </trkpt>
      <trkpt lat="44.13618" lon="3.13706">
        <ele>815</ele>
      </trkpt>
      <trkpt lat="44.13626" lon="3.13695">
        <ele>815</ele>
      </trkpt>
      <trkpt lat="44.13635" lon="3.13672">
        <ele>815</ele>
      </trkpt>
      <trkpt lat="44.13634" lon="3.13655">
        <ele>815</ele>
      </trkpt>
      <trkpt lat="44.13629" lon="3.13619">
        <ele>814</ele>
      </trkpt>
      <trkpt lat="44.13622" lon="3.13576">
        <ele>813</ele>
      </trkpt>
      <trkpt lat="44.13614" lon="3.13551">
        <ele>813</ele>
      </trkpt>
      <trkpt lat="44.136" lon="3.13534">
        <ele>813</ele>
      </trkpt>
      <trkpt lat="44.13585" lon="3.13521">
        <ele>813</ele>
      </trkpt>
      <trkpt lat="44.13567" lon="3.13505">
        <ele>815</ele>
      </trkpt>
      <trkpt lat="44.13559" lon="3.13492">
        <ele>816</ele>
      </trkpt>
      <trkpt lat="44.13544" lon="3.13491">
        <ele>817</ele>
      </trkpt>
      <trkpt lat="44.13517" lon="3.13491">
        <ele>818</ele>
      </trkpt>
      <trkpt lat="44.13483" lon="3.13492">
        <ele>818</ele>
      </trkpt>
      <trkpt lat="44.13458" lon="3.13487">
        <ele>817</ele>
      </trkpt>
      <trkpt lat="44.13431" lon="3.13472">
        <ele>817</ele>
      </trkpt>
      <trkpt lat="44.13416" lon="3.13457">
        <ele>816</ele>
      </trkpt>
      <trkpt lat="44.13409" lon="3.13447">
        <ele>814</ele>
      </trkpt>
      <trkpt lat="44.13405" lon="3.13437">
        <ele>814</ele>
      </trkpt>
      <trkpt lat="44.13389" lon="3.13429">
        <ele>812</ele>
      </trkpt>
      <trkpt lat="44.13373" lon="3.13407">
        <ele>812</ele>
      </trkpt>
      <trkpt lat="44.13355" lon="3.13395">
        <ele>812</ele>
      </trkpt>
      <trkpt lat="44.13326" lon="3.13397">
        <ele>812</ele>
      </trkpt>
      <trkpt lat="44.1329" lon="3.1341">
        <ele>809</ele>
      </trkpt>
      <trkpt lat="44.13254" lon="3.13422">
        <ele>806</ele>
      </trkpt>
      <trkpt lat="44.13219" lon="3.13435">
        <ele>806</ele>
      </trkpt>
      <trkpt lat="44.13174" lon="3.13451">
        <ele>807</ele>
      </trkpt>
      <trkpt lat="44.13168" lon="3.1344">
        <ele>807</ele>
      </trkpt>
      <trkpt lat="44.13166" lon="3.13407">
        <ele>807</ele>
      </trkpt>
      <trkpt lat="44.13163" lon="3.13361">
        <ele>807</ele>
      </trkpt>
      <trkpt lat="44.13165" lon="3.1334">
        <ele>807</ele>
      </trkpt>
      <trkpt lat="44.13176" lon="3.13308">
        <ele>807</ele>
      </trkpt>
      <trkpt lat="44.13174" lon="3.13251">
        <ele>808</ele>
      </trkpt>
      <trkpt lat="44.1318" lon="3.13214">
        <ele>808</ele>
      </trkpt>
      <trkpt lat="44.13188" lon="3.13168">
        <ele>807</ele>
      </trkpt>
      <trkpt lat="44.13188" lon="3.13136">
        <ele>807</ele>
      </trkpt>
      <trkpt lat="44.132" lon="3.13099">
        <ele>809</ele>
      </trkpt>
      <trkpt lat="44.1319" lon="3.13075">
        <ele>809</ele>
      </trkpt>
      <trkpt lat="44.13168" lon="3.13049">
        <ele>809</ele>
      </trkpt>
      <trkpt lat="44.13151" lon="3.13024">
        <ele>808</ele>
      </trkpt>
      <trkpt lat="44.13138" lon="3.12984">
        <ele>807</ele>
      </trkpt>
      <trkpt lat="44.13126" lon="3.12968">
        <ele>807</ele>
      </trkpt>
      <trkpt lat="44.13095" lon="3.12962">
        <ele>806</ele>
      </trkpt>
      <trkpt lat="44.13082" lon="3.12976">
        <ele>805</ele>
      </trkpt>
      <trkpt lat="44.13065" lon="3.12985">
        <ele>806</ele>
      </trkpt>
      <trkpt lat="44.13048" lon="3.12985">
        <ele>808</ele>
      </trkpt>
      <trkpt lat="44.13035" lon="3.12969">
        <ele>808</ele>
      </trkpt>
      <trkpt lat="44.13011" lon="3.12934">
        <ele>810</ele>
      </trkpt>
      <trkpt lat="44.13003" lon="3.12904">
        <ele>810</ele>
      </trkpt>
      <trkpt lat="44.12985" lon="3.12868">
        <ele>809</ele>
      </trkpt>
      <trkpt lat="44.12988" lon="3.12823">
        <ele>809</ele>
      </trkpt>
      <trkpt lat="44.12976" lon="3.12769">
        <ele>806</ele>
      </trkpt>
      <trkpt lat="44.12969" lon="3.12715">
        <ele>805</ele>
      </trkpt>
      <trkpt lat="44.12962" lon="3.12661">
        <ele>804</ele>
      </trkpt>
      <trkpt lat="44.12954" lon="3.12607">
        <ele>804</ele>
      </trkpt>
      <trkpt lat="44.12947" lon="3.12553">
        <ele>804</ele>
      </trkpt>
      <trkpt lat="44.12937" lon="3.12478">
        <ele>806</ele>
      </trkpt>
      <trkpt lat="44.12946" lon="3.1244">
        <ele>807</ele>
      </trkpt>
      <trkpt lat="44.1296" lon="3.12383">
        <ele>808</ele>
      </trkpt>
      <trkpt lat="44.12967" lon="3.12348">
        <ele>809</ele>
      </trkpt>
      <trkpt lat="44.12965" lon="3.12314">
        <ele>809</ele>
      </trkpt>
      <trkpt lat="44.1296" lon="3.12282">
        <ele>811</ele>
      </trkpt>
      <trkpt lat="44.12949" lon="3.12255">
        <ele>813</ele>
      </trkpt>
      <trkpt lat="44.12948" lon="3.12197">
        <ele>818</ele>
      </trkpt>
      <trkpt lat="44.12952" lon="3.12172">
        <ele>820</ele>
      </trkpt>
      <trkpt lat="44.1296" lon="3.12151">
        <ele>822</ele>
      </trkpt>
      <trkpt lat="44.12964" lon="3.1211">
        <ele>825</ele>
      </trkpt>
      <trkpt lat="44.12971" lon="3.12081">
        <ele>826</ele>
      </trkpt>
      <trkpt lat="44.12996" lon="3.12056">
        <ele>828</ele>
      </trkpt>
      <trkpt lat="44.13023" lon="3.12053">
        <ele>831</ele>
      </trkpt>
      <trkpt lat="44.13055" lon="3.12027">
        <ele>833</ele>
      </trkpt>
      <trkpt lat="44.13072" lon="3.11987">
        <ele>833</ele>
      </trkpt>
      <trkpt lat="44.13088" lon="3.11939">
        <ele>833</ele>
      </trkpt>
      <trkpt lat="44.13121" lon="3.11924">
        <ele>833</ele>
      </trkpt>
      <trkpt lat="44.13135" lon="3.119">
        <ele>832</ele>
      </trkpt>
      <trkpt lat="44.13139" lon="3.11847">
        <ele>829</ele>
      </trkpt>
      <trkpt lat="44.13145" lon="3.1181">
        <ele>827</ele>
      </trkpt>
      <trkpt lat="44.13171" lon="3.11769">
        <ele>824</ele>
      </trkpt>
      <trkpt lat="44.13178" lon="3.11739">
        <ele>822</ele>
      </trkpt>
      <trkpt lat="44.13197" lon="3.11695">
        <ele>823</ele>
      </trkpt>
      <trkpt lat="44.13216" lon="3.11651">
        <ele>824</ele>
      </trkpt>
      <trkpt lat="44.13235" lon="3.11608">
        <ele>824</ele>
      </trkpt>
      <trkpt lat="44.13257" lon="3.11557">
        <ele>825</ele>
      </trkpt>
      <trkpt lat="44.13295" lon="3.11554">
        <ele>827</ele>
      </trkpt>
      <trkpt lat="44.13333" lon="3.11552">
        <ele>828</ele>
      </trkpt>
      <trkpt lat="44.13371" lon="3.11549">
        <ele>829</ele>
      </trkpt>
      <trkpt lat="44.13439" lon="3.11545">
        <ele>832</ele>
      </trkpt>
      <trkpt lat="44.13486" lon="3.11559">
        <ele>833</ele>
      </trkpt>
      <trkpt lat="44.13511" lon="3.11569">
        <ele>833</ele>
      </trkpt>
      <trkpt lat="44.13538" lon="3.1158">
        <ele>830</ele>
      </trkpt>
      <trkpt lat="44.13553" lon="3.11602">
        <ele>828</ele>
      </trkpt>
      <trkpt lat="44.1356" lon="3.11552">
        <ele>827</ele>
      </trkpt>
      <trkpt lat="44.13566" lon="3.11542">
        <ele>827</ele>
      </trkpt>
      <trkpt lat="44.13573" lon="3.11519">
        <ele>822</ele>
      </trkpt>
      <trkpt lat="44.1359" lon="3.11506">
        <ele>817</ele>
      </trkpt>
      <trkpt lat="44.13588" lon="3.11497">
        <ele>817</ele>
      </trkpt>
      <trkpt lat="44.13594" lon="3.11494">
        <ele>815</ele>
      </trkpt>
      <trkpt lat="44.13594" lon="3.11474">
        <ele>810</ele>
      </trkpt>
      <trkpt lat="44.13601" lon="3.11435">
        <ele>797</ele>
      </trkpt>
      <trkpt lat="44.13615" lon="3.11432">
        <ele>796</ele>
      </trkpt>
      <trkpt lat="44.1362" lon="3.11423">
        <ele>793</ele>
      </trkpt>
      <trkpt lat="44.1363" lon="3.11419">
        <ele>786</ele>
      </trkpt>
      <trkpt lat="44.13632" lon="3.11407">
        <ele>783</ele>
      </trkpt>
      <trkpt lat="44.13623" lon="3.11397">
        <ele>781</ele>
      </trkpt>
      <trkpt lat="44.13626" lon="3.1139">
        <ele>781</ele>
      </trkpt>
      <trkpt lat="44.13649" lon="3.11389">
        <ele>775</ele>
      </trkpt>
      <trkpt lat="44.13674" lon="3.11388">
        <ele>769</ele>
      </trkpt>
      <trkpt lat="44.13665" lon="3.11364">
        <ele>764</ele>
      </trkpt>
      <trkpt lat="44.13698" lon="3.11374">
        <ele>759</ele>
      </trkpt>
      <trkpt lat="44.13705" lon="3.11386">
        <ele>758</ele>
      </trkpt>
      <trkpt lat="44.13709" lon="3.11363">
        <ele>754</ele>
      </trkpt>
      <trkpt lat="44.13699" lon="3.11335">
        <ele>747</ele>
      </trkpt>
      <trkpt lat="44.13672" lon="3.11303">
        <ele>739</ele>
      </trkpt>
      <trkpt lat="44.13709" lon="3.11294">
        <ele>728</ele>
      </trkpt>
      <trkpt lat="44.13687" lon="3.11255">
        <ele>714</ele>
      </trkpt>
      <trkpt lat="44.13691" lon="3.11242">
        <ele>711</ele>
      </trkpt>
      <trkpt lat="44.13663" lon="3.11232">
        <ele>702</ele>
      </trkpt>
      <trkpt lat="44.13608" lon="3.11213">
        <ele>692</ele>
      </trkpt>
      <trkpt lat="44.13622" lon="3.11197">
        <ele>679</ele>
      </trkpt>
      <trkpt lat="44.13604" lon="3.11183">
        <ele>674</ele>
      </trkpt>
      <trkpt lat="44.1358" lon="3.11164">
        <ele>663</ele>
      </trkpt>
      <trkpt lat="44.13605" lon="3.11155">
        <ele>657</ele>
      </trkpt>
      <trkpt lat="44.13633" lon="3.11144">
        <ele>648</ele>
      </trkpt>
      <trkpt lat="44.13662" lon="3.11126">
        <ele>639</ele>
      </trkpt>
      <trkpt lat="44.13715" lon="3.11093">
        <ele>622</ele>
      </trkpt>
      <trkpt lat="44.13731" lon="3.11092">
        <ele>619</ele>
      </trkpt>
      <trkpt lat="44.13715" lon="3.11072">
        <ele>613</ele>
      </trkpt>
      <trkpt lat="44.13693" lon="3.11045">
        <ele>602</ele>
      </trkpt>
      <trkpt lat="44.13673" lon="3.11018">
        <ele>589</ele>
      </trkpt>
      <trkpt lat="44.13647" lon="3.10981">
        <ele>578</ele>
      </trkpt>
      <trkpt lat="44.13678" lon="3.10964">
        <ele>566</ele>
      </trkpt>
      <trkpt lat="44.13709" lon="3.10946">
        <ele>556</ele>
      </trkpt>
      <trkpt lat="44.13745" lon="3.10926">
        <ele>543</ele>
      </trkpt>
      <trkpt lat="44.13786" lon="3.10916">
        <ele>530</ele>
      </trkpt>
      <trkpt lat="44.13752" lon="3.10906">
        <ele>527</ele>
      </trkpt>
      <trkpt lat="44.13723" lon="3.10892">
        <ele>526</ele>
      </trkpt>
      <trkpt lat="44.13698" lon="3.10891">
        <ele>526</ele>
      </trkpt>
      <trkpt lat="44.13666" lon="3.10894">
        <ele>527</ele>
      </trkpt>
      <trkpt lat="44.13649" lon="3.10898">
        <ele>527</ele>
      </trkpt>
      <trkpt lat="44.1363" lon="3.10898">
        <ele>527</ele>
      </trkpt>
      <trkpt lat="44.13608" lon="3.10898">
        <ele>528</ele>
      </trkpt>
      <trkpt lat="44.13584" lon="3.109">
        <ele>528</ele>
      </trkpt>
      <trkpt lat="44.13558" lon="3.10883">
        <ele>528</ele>
      </trkpt>
      <trkpt lat="44.13578" lon="3.10833">
        <ele>522</ele>
      </trkpt>
      <trkpt lat="44.13577" lon="3.10818">
        <ele>517</ele>
      </trkpt>
      <trkpt lat="44.13551" lon="3.10821">
        <ele>520</ele>
      </trkpt>
      <trkpt lat="44.13509" lon="3.10827">
        <ele>519</ele>
      </trkpt>
      <trkpt lat="44.13476" lon="3.10821">
        <ele>518</ele>
      </trkpt>
      <trkpt lat="44.13443" lon="3.10816">
        <ele>518</ele>
      </trkpt>
      <trkpt lat="44.13403" lon="3.10809">
        <ele>518</ele>
      </trkpt>
      <trkpt lat="44.13381" lon="3.10818">
        <ele>519</ele>
      </trkpt>
      <trkpt lat="44.13358" lon="3.10817">
        <ele>526</ele>
      </trkpt>
      <trkpt lat="44.13331" lon="3.1081">
        <ele>528</ele>
      </trkpt>
      <trkpt lat="44.13306" lon="3.108">
        <ele>528</ele>
      </trkpt>
      <trkpt lat="44.13277" lon="3.10776">
        <ele>529</ele>
      </trkpt>
      <trkpt lat="44.1325" lon="3.10751">
        <ele>531</ele>
      </trkpt>
      <trkpt lat="44.13236" lon="3.1072">
        <ele>534</ele>
      </trkpt>
      <trkpt lat="44.13218" lon="3.10681">
        <ele>539</ele>
      </trkpt>
      <trkpt lat="44.13198" lon="3.10652">
        <ele>543</ele>
      </trkpt>
      <trkpt lat="44.13184" lon="3.10652">
        <ele>544</ele>
      </trkpt>
      <trkpt lat="44.13162" lon="3.10671">
        <ele>545</ele>
      </trkpt>
      <trkpt lat="44.13141" lon="3.10692">
        <ele>546</ele>
      </trkpt>
      <trkpt lat="44.1312" lon="3.1072">
        <ele>547</ele>
      </trkpt>
      <trkpt lat="44.13098" lon="3.10739">
        <ele>547</ele>
      </trkpt>
      <trkpt lat="44.13075" lon="3.10759">
        <ele>547</ele>
      </trkpt>
      <trkpt lat="44.13082" lon="3.10797">
        <ele>548</ele>
      </trkpt>
      <trkpt lat="44.13091" lon="3.10851">
        <ele>549</ele>
      </trkpt>
      <trkpt lat="44.13092" lon="3.10871">
        <ele>551</ele>
      </trkpt>
      <trkpt lat="44.13089" lon="3.10887">
        <ele>549</ele>
      </trkpt>
      <trkpt lat="44.13072" lon="3.10933">
        <ele>549</ele>
      </trkpt>
      <trkpt lat="44.13069" lon="3.10956">
        <ele>546</ele>
      </trkpt>
      <trkpt lat="44.13067" lon="3.10986">
        <ele>549</ele>
      </trkpt>
      <trkpt lat="44.13064" lon="3.11028">
        <ele>549</ele>
      </trkpt>
      <trkpt lat="44.13047" lon="3.11032">
        <ele>555</ele>
      </trkpt>
      <trkpt lat="44.13045" lon="3.1101">
        <ele>547</ele>
      </trkpt>
      <trkpt lat="44.13042" lon="3.10986">
        <ele>546</ele>
      </trkpt>
      <trkpt lat="44.13037" lon="3.10966">
        <ele>544</ele>
      </trkpt>
      <trkpt lat="44.1304" lon="3.1094">
        <ele>540</ele>
      </trkpt>
      <trkpt lat="44.13026" lon="3.10902">
        <ele>531</ele>
      </trkpt>
      <trkpt lat="44.13028" lon="3.10887">
        <ele>529</ele>
      </trkpt>
      <trkpt lat="44.13016" lon="3.1086">
        <ele>523</ele>
      </trkpt>
      <trkpt lat="44.13003" lon="3.10843">
        <ele>519</ele>
      </trkpt>
      <trkpt lat="44.12998" lon="3.10827">
        <ele>516</ele>
      </trkpt>
      <trkpt lat="44.1298" lon="3.10795">
        <ele>510</ele>
      </trkpt>
      <trkpt lat="44.12968" lon="3.10764">
        <ele>506</ele>
      </trkpt>
      <trkpt lat="44.12956" lon="3.10744">
        <ele>502</ele>
      </trkpt>
      <trkpt lat="44.1294" lon="3.10744">
        <ele>501</ele>
      </trkpt>
      <trkpt lat="44.12907" lon="3.10724">
        <ele>493</ele>
      </trkpt>
      <trkpt lat="44.12889" lon="3.10719">
        <ele>488</ele>
      </trkpt>
      <trkpt lat="44.12866" lon="3.10699">
        <ele>483</ele>
      </trkpt>
      <trkpt lat="44.12842" lon="3.10678">
        <ele>479</ele>
      </trkpt>
      <trkpt lat="44.12814" lon="3.10654">
        <ele>475</ele>
      </trkpt>
      <trkpt lat="44.12806" lon="3.10627">
        <ele>469</ele>
      </trkpt>
      <trkpt lat="44.12789" lon="3.10605">
        <ele>468</ele>
      </trkpt>
      <trkpt lat="44.12787" lon="3.1058">
        <ele>463</ele>
      </trkpt>
      <trkpt lat="44.12776" lon="3.10549">
        <ele>456</ele>
      </trkpt>
      <trkpt lat="44.12755" lon="3.10494">
        <ele>446</ele>
      </trkpt>
      <trkpt lat="44.1276" lon="3.10479">
        <ele>443</ele>
      </trkpt>
      <trkpt lat="44.12747" lon="3.10443">
        <ele>443</ele>
      </trkpt>
      <trkpt lat="44.12742" lon="3.10393">
        <ele>436</ele>
      </trkpt>
      <trkpt lat="44.12736" lon="3.10372">
        <ele>435</ele>
      </trkpt>
      <trkpt lat="44.12724" lon="3.10354">
        <ele>431</ele>
      </trkpt>
      <trkpt lat="44.12711" lon="3.10335">
        <ele>429</ele>
      </trkpt>
      <trkpt lat="44.12693" lon="3.10324">
        <ele>427</ele>
      </trkpt>
      <trkpt lat="44.12656" lon="3.10328">
        <ele>427</ele>
      </trkpt>
      <trkpt lat="44.12619" lon="3.10332">
        <ele>432</ele>
      </trkpt>
      <trkpt lat="44.12582" lon="3.10337">
        <ele>432</ele>
      </trkpt>
      <trkpt lat="44.12536" lon="3.10342">
        <ele>429</ele>
      </trkpt>
      <trkpt lat="44.12519" lon="3.10355">
        <ele>429</ele>
      </trkpt>
      <trkpt lat="44.1249" lon="3.10362">
        <ele>429</ele>
      </trkpt>
      <trkpt lat="44.12474" lon="3.1036">
        <ele>430</ele>
      </trkpt>
      <trkpt lat="44.12451" lon="3.10342">
        <ele>429</ele>
      </trkpt>
      <trkpt lat="44.12435" lon="3.10341">
        <ele>436</ele>
      </trkpt>
      <trkpt lat="44.12419" lon="3.10326">
        <ele>442</ele>
      </trkpt>
      <trkpt lat="44.124" lon="3.10317">
        <ele>451</ele>
      </trkpt>
      <trkpt lat="44.12389" lon="3.10306">
        <ele>456</ele>
      </trkpt>
      <trkpt lat="44.12387" lon="3.10277">
        <ele>460</ele>
      </trkpt>
      <trkpt lat="44.12389" lon="3.10257">
        <ele>464</ele>
      </trkpt>
      <trkpt lat="44.12386" lon="3.10241">
        <ele>465</ele>
      </trkpt>
      <trkpt lat="44.12381" lon="3.10233">
        <ele>467</ele>
      </trkpt>
      <trkpt lat="44.12372" lon="3.10228">
        <ele>470</ele>
      </trkpt>
      <trkpt lat="44.12366" lon="3.10229">
        <ele>471</ele>
      </trkpt>
      <trkpt lat="44.12357" lon="3.10218">
        <ele>472</ele>
      </trkpt>
      <trkpt lat="44.12343" lon="3.10213">
        <ele>474</ele>
      </trkpt>
      <trkpt lat="44.12326" lon="3.10202">
        <ele>477</ele>
      </trkpt>
      <trkpt lat="44.12317" lon="3.10189">
        <ele>478</ele>
      </trkpt>
      <trkpt lat="44.12311" lon="3.10186">
        <ele>478</ele>
      </trkpt>
      <trkpt lat="44.123" lon="3.10187">
        <ele>482</ele>
      </trkpt>
      <trkpt lat="44.12281" lon="3.10173">
        <ele>484</ele>
      </trkpt>
      <trkpt lat="44.12253" lon="3.10152">
        <ele>488</ele>
      </trkpt>
      <trkpt lat="44.1224" lon="3.10147">
        <ele>491</ele>
      </trkpt>
      <trkpt lat="44.12223" lon="3.10136">
        <ele>493</ele>
      </trkpt>
      <trkpt lat="44.12204" lon="3.10123">
        <ele>496</ele>
      </trkpt>
      <trkpt lat="44.12182" lon="3.10111">
        <ele>500</ele>
      </trkpt>
      <trkpt lat="44.12158" lon="3.10102">
        <ele>503</ele>
      </trkpt>
      <trkpt lat="44.12137" lon="3.10081">
        <ele>507</ele>
      </trkpt>
      <trkpt lat="44.12123" lon="3.10077">
        <ele>508</ele>
      </trkpt>
      <trkpt lat="44.12106" lon="3.10055">
        <ele>510</ele>
      </trkpt>
      <trkpt lat="44.12081" lon="3.10023">
        <ele>511</ele>
      </trkpt>
      <trkpt lat="44.12046" lon="3.09985">
        <ele>511</ele>
      </trkpt>
      <trkpt lat="44.12024" lon="3.09969">
        <ele>511</ele>
      </trkpt>
      <trkpt lat="44.12" lon="3.09953">
        <ele>510</ele>
      </trkpt>
      <trkpt lat="44.11969" lon="3.09919">
        <ele>510</ele>
      </trkpt>
      <trkpt lat="44.11946" lon="3.09907">
        <ele>511</ele>
      </trkpt>
      <trkpt lat="44.11928" lon="3.09886">
        <ele>509</ele>
      </trkpt>
      <trkpt lat="44.11913" lon="3.09858">
        <ele>507</ele>
      </trkpt>
      <trkpt lat="44.11896" lon="3.09835">
        <ele>506</ele>
      </trkpt>
      <trkpt lat="44.11884" lon="3.09806">
        <ele>504</ele>
      </trkpt>
      <trkpt lat="44.11869" lon="3.0978">
        <ele>504</ele>
      </trkpt>
      <trkpt lat="44.11843" lon="3.0975">
        <ele>504</ele>
      </trkpt>
      <trkpt lat="44.11826" lon="3.09713">
        <ele>505</ele>
      </trkpt>
      <trkpt lat="44.11819" lon="3.09685">
        <ele>506</ele>
      </trkpt>
      <trkpt lat="44.11792" lon="3.09646">
        <ele>506</ele>
      </trkpt>
      <trkpt lat="44.11764" lon="3.09596">
        <ele>506</ele>
      </trkpt>
      <trkpt lat="44.11728" lon="3.09557">
        <ele>508</ele>
      </trkpt>
      <trkpt lat="44.11705" lon="3.09543">
        <ele>508</ele>
      </trkpt>
      <trkpt lat="44.11695" lon="3.09515">
        <ele>502</ele>
      </trkpt>
      <trkpt lat="44.11677" lon="3.09488">
        <ele>498</ele>
      </trkpt>
      <trkpt lat="44.11654" lon="3.09454">
        <ele>493</ele>
      </trkpt>
      <trkpt lat="44.11644" lon="3.0942">
        <ele>483</ele>
      </trkpt>
      <trkpt lat="44.11631" lon="3.09377">
        <ele>473</ele>
      </trkpt>
      <trkpt lat="44.11621" lon="3.09329">
        <ele>463</ele>
      </trkpt>
      <trkpt lat="44.11628" lon="3.09314">
        <ele>462</ele>
      </trkpt>
      <trkpt lat="44.11626" lon="3.09295">
        <ele>459</ele>
      </trkpt>
      <trkpt lat="44.1161" lon="3.09262">
        <ele>456</ele>
      </trkpt>
      <trkpt lat="44.1159" lon="3.09241">
        <ele>453</ele>
      </trkpt>
      <trkpt lat="44.11568" lon="3.09218">
        <ele>448</ele>
      </trkpt>
      <trkpt lat="44.11543" lon="3.0921">
        <ele>446</ele>
      </trkpt>
      <trkpt lat="44.11542" lon="3.09201">
        <ele>444</ele>
      </trkpt>
      <trkpt lat="44.11548" lon="3.09198">
        <ele>442</ele>
      </trkpt>
      <trkpt lat="44.11567" lon="3.092">
        <ele>444</ele>
      </trkpt>
      <trkpt lat="44.11588" lon="3.09203">
        <ele>441</ele>
      </trkpt>
      <trkpt lat="44.11619" lon="3.09225">
        <ele>441</ele>
      </trkpt>
      <trkpt lat="44.1165" lon="3.09247">
        <ele>439</ele>
      </trkpt>
      <trkpt lat="44.11697" lon="3.0928">
        <ele>431</ele>
      </trkpt>
      <trkpt lat="44.11684" lon="3.09257">
        <ele>427</ele>
      </trkpt>
      <trkpt lat="44.11664" lon="3.09234">
        <ele>426</ele>
      </trkpt>
      <trkpt lat="44.1164" lon="3.09207">
        <ele>425</ele>
      </trkpt>
      <trkpt lat="44.11618" lon="3.09188">
        <ele>424</ele>
      </trkpt>
      <trkpt lat="44.11593" lon="3.09167">
        <ele>421</ele>
      </trkpt>
      <trkpt lat="44.11566" lon="3.09149">
        <ele>418</ele>
      </trkpt>
      <trkpt lat="44.11525" lon="3.09122">
        <ele>418</ele>
      </trkpt>
      <trkpt lat="44.11496" lon="3.09093">
        <ele>414</ele>
      </trkpt>
      <trkpt lat="44.11467" lon="3.09065">
        <ele>410</ele>
      </trkpt>
      <trkpt lat="44.11414" lon="3.09014">
        <ele>409</ele>
      </trkpt>
      <trkpt lat="44.11411" lon="3.08997">
        <ele>403</ele>
      </trkpt>
      <trkpt lat="44.11401" lon="3.08982">
        <ele>404</ele>
      </trkpt>
      <trkpt lat="44.11399" lon="3.0897">
        <ele>404</ele>
      </trkpt>
      <trkpt lat="44.11394" lon="3.08963">
        <ele>399</ele>
      </trkpt>
      <trkpt lat="44.11392" lon="3.08957">
        <ele>397</ele>
      </trkpt>
      <trkpt lat="44.11395" lon="3.08953">
        <ele>397</ele>
      </trkpt>
      <trkpt lat="44.11405" lon="3.08952">
        <ele>396</ele>
      </trkpt>
      <trkpt lat="44.11412" lon="3.08939">
        <ele>391</ele>
      </trkpt>
      <trkpt lat="44.11416" lon="3.08938">
        <ele>391</ele>
      </trkpt>
      <trkpt lat="44.11419" lon="3.08934">
        <ele>391</ele>
      </trkpt>
      <trkpt lat="44.1142" lon="3.08919">
        <ele>386</ele>
      </trkpt>
      <trkpt lat="44.11425" lon="3.08914">
        <ele>386</ele>
      </trkpt>
      <trkpt lat="44.11436" lon="3.0891">
        <ele>385</ele>
      </trkpt>
      <trkpt lat="44.11455" lon="3.08919">
        <ele>386</ele>
      </trkpt>
      <trkpt lat="44.11475" lon="3.08929">
        <ele>386</ele>
      </trkpt>
      <trkpt lat="44.11479" lon="3.08936">
        <ele>387</ele>
      </trkpt>
      <trkpt lat="44.11478" lon="3.08943">
        <ele>390</ele>
      </trkpt>
      <trkpt lat="44.11462" lon="3.08952">
        <ele>393</ele>
      </trkpt>
      <trkpt lat="44.11449" lon="3.08952">
        <ele>393</ele>
      </trkpt>
      <trkpt lat="44.11431" lon="3.08948">
        <ele>394</ele>
      </trkpt>
      <trkpt lat="44.11421" lon="3.08958">
        <ele>395</ele>
      </trkpt>
      <trkpt lat="44.11419" lon="3.08974">
        <ele>400</ele>
      </trkpt>
    </trkseg>
  </trk>
</gpx>
