<?xml version="1.0" encoding="UTF-8"?>
<gpx xmlns="http://www.topografix.com/GPX/1/1" xmlns:xsi="http://www.w3.org/2001/XMLSchema-instance" version="1.1" creator="Trace de Trail" xsi:schemaLocation="http://www.topografix.com/GPX/1/1 http://www.topografix.com/GPX/1/1/gpx.xsd">
  <metadata>
    <name>HOKA LES TEMPLIERS 2026 - La Templiere</name>
    <desc>Parcours créé sur Trace de Trail</desc>
    <link href="https://tracedetrail.fr/fr/trace/325080">
      <text>Cartographie du parcours</text>
    </link>
  </metadata>
  <trk>
    <name>HOKA LES TEMPLIERS 2026 - La Templiere sur TraceDeTrail.fr</name>
    <src>Trace de Trail</src>
    <trkseg>
      <trkpt lat="44.11355" lon="3.08695">
        <ele>359</ele>
      </trkpt>
      <trkpt lat="44.11372" lon="3.08699">
        <ele>359</ele>
      </trkpt>
      <trkpt lat="44.11378" lon="3.0869">
        <ele>359</ele>
      </trkpt>
      <trkpt lat="44.11379" lon="3.08674">
        <ele>359</ele>
      </trkpt>
      <trkpt lat="44.11385" lon="3.08667">
        <ele>360</ele>
      </trkpt>
      <trkpt lat="44.11417" lon="3.0867">
        <ele>360</ele>
      </trkpt>
      <trkpt lat="44.11449" lon="3.08678">
        <ele>360</ele>
      </trkpt>
      <trkpt lat="44.1149" lon="3.08696">
        <ele>360</ele>
      </trkpt>
      <trkpt lat="44.11527" lon="3.08718">
        <ele>360</ele>
      </trkpt>
      <trkpt lat="44.11563" lon="3.0874">
        <ele>360</ele>
      </trkpt>
      <trkpt lat="44.116" lon="3.08762">
        <ele>360</ele>
      </trkpt>
      <trkpt lat="44.11637" lon="3.08784">
        <ele>360</ele>
      </trkpt>
      <trkpt lat="44.117" lon="3.08822">
        <ele>360</ele>
      </trkpt>
      <trkpt lat="44.1174" lon="3.08856">
        <ele>360</ele>
      </trkpt>
      <trkpt lat="44.11763" lon="3.08883">
        <ele>360</ele>
      </trkpt>
      <trkpt lat="44.11781" lon="3.08905">
        <ele>360</ele>
      </trkpt>
      <trkpt lat="44.118" lon="3.08927">
        <ele>360</ele>
      </trkpt>
      <trkpt lat="44.11818" lon="3.08954">
        <ele>360</ele>
      </trkpt>
      <trkpt lat="44.11835" lon="3.08974">
        <ele>360</ele>
      </trkpt>
      <trkpt lat="44.11861" lon="3.09011">
        <ele>360</ele>
      </trkpt>
      <trkpt lat="44.11886" lon="3.09049">
        <ele>360</ele>
      </trkpt>
      <trkpt lat="44.11912" lon="3.09086">
        <ele>361</ele>
      </trkpt>
      <trkpt lat="44.11945" lon="3.09134">
        <ele>361</ele>
      </trkpt>
      <trkpt lat="44.11972" lon="3.09179">
        <ele>362</ele>
      </trkpt>
      <trkpt lat="44.11986" lon="3.09209">
        <ele>363</ele>
      </trkpt>
      <trkpt lat="44.12002" lon="3.09243">
        <ele>365</ele>
      </trkpt>
      <trkpt lat="44.12015" lon="3.09263">
        <ele>365</ele>
      </trkpt>
      <trkpt lat="44.12031" lon="3.0928">
        <ele>365</ele>
      </trkpt>
      <trkpt lat="44.12045" lon="3.09303">
        <ele>365</ele>
      </trkpt>
      <trkpt lat="44.12059" lon="3.09319">
        <ele>364</ele>
      </trkpt>
      <trkpt lat="44.1207" lon="3.09338">
        <ele>365</ele>
      </trkpt>
      <trkpt lat="44.12084" lon="3.0936">
        <ele>365</ele>
      </trkpt>
      <trkpt lat="44.12106" lon="3.094">
        <ele>366</ele>
      </trkpt>
      <trkpt lat="44.12128" lon="3.0944">
        <ele>366</ele>
      </trkpt>
      <trkpt lat="44.12151" lon="3.09481">
        <ele>365</ele>
      </trkpt>
      <trkpt lat="44.12174" lon="3.09523">
        <ele>365</ele>
      </trkpt>
      <trkpt lat="44.12197" lon="3.09553">
        <ele>365</ele>
      </trkpt>
      <trkpt lat="44.12223" lon="3.09583">
        <ele>365</ele>
      </trkpt>
      <trkpt lat="44.12248" lon="3.09613">
        <ele>365</ele>
      </trkpt>
      <trkpt lat="44.1228" lon="3.0965">
        <ele>365</ele>
      </trkpt>
      <trkpt lat="44.12297" lon="3.09676">
        <ele>365</ele>
      </trkpt>
      <trkpt lat="44.12325" lon="3.09709">
        <ele>365</ele>
      </trkpt>
      <trkpt lat="44.12349" lon="3.09745">
        <ele>365</ele>
      </trkpt>
      <trkpt lat="44.12364" lon="3.09775">
        <ele>364</ele>
      </trkpt>
      <trkpt lat="44.1238" lon="3.09818">
        <ele>364</ele>
      </trkpt>
      <trkpt lat="44.12394" lon="3.09866">
        <ele>366</ele>
      </trkpt>
      <trkpt lat="44.12401" lon="3.099">
        <ele>366</ele>
      </trkpt>
      <trkpt lat="44.12413" lon="3.09929">
        <ele>366</ele>
      </trkpt>
      <trkpt lat="44.12426" lon="3.09956">
        <ele>366</ele>
      </trkpt>
      <trkpt lat="44.12451" lon="3.09993">
        <ele>366</ele>
      </trkpt>
      <trkpt lat="44.12473" lon="3.10012">
        <ele>366</ele>
      </trkpt>
      <trkpt lat="44.12503" lon="3.10033">
        <ele>366</ele>
      </trkpt>
      <trkpt lat="44.12534" lon="3.10049">
        <ele>364</ele>
      </trkpt>
      <trkpt lat="44.12563" lon="3.10055">
        <ele>364</ele>
      </trkpt>
      <trkpt lat="44.1261" lon="3.10065">
        <ele>365</ele>
      </trkpt>
      <trkpt lat="44.12631" lon="3.10067">
        <ele>365</ele>
      </trkpt>
      <trkpt lat="44.12662" lon="3.10066">
        <ele>366</ele>
      </trkpt>
      <trkpt lat="44.12718" lon="3.10063">
        <ele>365</ele>
      </trkpt>
      <trkpt lat="44.12734" lon="3.10061">
        <ele>367</ele>
      </trkpt>
      <trkpt lat="44.12751" lon="3.10059">
        <ele>365</ele>
      </trkpt>
      <trkpt lat="44.1277" lon="3.10056">
        <ele>365</ele>
      </trkpt>
      <trkpt lat="44.12807" lon="3.10049">
        <ele>366</ele>
      </trkpt>
      <trkpt lat="44.12844" lon="3.10042">
        <ele>373</ele>
      </trkpt>
      <trkpt lat="44.1288" lon="3.10034">
        <ele>376</ele>
      </trkpt>
      <trkpt lat="44.12929" lon="3.10025">
        <ele>377</ele>
      </trkpt>
      <trkpt lat="44.12938" lon="3.10026">
        <ele>380</ele>
      </trkpt>
      <trkpt lat="44.12943" lon="3.10031">
        <ele>381</ele>
      </trkpt>
      <trkpt lat="44.12946" lon="3.10044">
        <ele>382</ele>
      </trkpt>
      <trkpt lat="44.12946" lon="3.1006">
        <ele>384</ele>
      </trkpt>
      <trkpt lat="44.1294" lon="3.1007">
        <ele>384</ele>
      </trkpt>
      <trkpt lat="44.12927" lon="3.10081">
        <ele>387</ele>
      </trkpt>
      <trkpt lat="44.12916" lon="3.10089">
        <ele>386</ele>
      </trkpt>
      <trkpt lat="44.12903" lon="3.10095">
        <ele>391</ele>
      </trkpt>
      <trkpt lat="44.12895" lon="3.10106">
        <ele>393</ele>
      </trkpt>
      <trkpt lat="44.12891" lon="3.10117">
        <ele>393</ele>
      </trkpt>
      <trkpt lat="44.12891" lon="3.10126">
        <ele>395</ele>
      </trkpt>
      <trkpt lat="44.12895" lon="3.10137">
        <ele>395</ele>
      </trkpt>
      <trkpt lat="44.12916" lon="3.1017">
        <ele>398</ele>
      </trkpt>
      <trkpt lat="44.12927" lon="3.10194">
        <ele>400</ele>
      </trkpt>
      <trkpt lat="44.1294" lon="3.10215">
        <ele>402</ele>
      </trkpt>
      <trkpt lat="44.12962" lon="3.10228">
        <ele>402</ele>
      </trkpt>
      <trkpt lat="44.12967" lon="3.10234">
        <ele>404</ele>
      </trkpt>
      <trkpt lat="44.12966" lon="3.10241">
        <ele>405</ele>
      </trkpt>
      <trkpt lat="44.12963" lon="3.10249">
        <ele>405</ele>
      </trkpt>
      <trkpt lat="44.1294" lon="3.10247">
        <ele>408</ele>
      </trkpt>
      <trkpt lat="44.12903" lon="3.10244">
        <ele>413</ele>
      </trkpt>
      <trkpt lat="44.12887" lon="3.10247">
        <ele>413</ele>
      </trkpt>
      <trkpt lat="44.12863" lon="3.10261">
        <ele>418</ele>
      </trkpt>
      <trkpt lat="44.12853" lon="3.10276">
        <ele>420</ele>
      </trkpt>
      <trkpt lat="44.12848" lon="3.10293">
        <ele>422</ele>
      </trkpt>
      <trkpt lat="44.1285" lon="3.10297">
        <ele>423</ele>
      </trkpt>
      <trkpt lat="44.12854" lon="3.10298">
        <ele>423</ele>
      </trkpt>
      <trkpt lat="44.12873" lon="3.10285">
        <ele>426</ele>
      </trkpt>
      <trkpt lat="44.12891" lon="3.10282">
        <ele>427</ele>
      </trkpt>
      <trkpt lat="44.12911" lon="3.10283">
        <ele>428</ele>
      </trkpt>
      <trkpt lat="44.12923" lon="3.1029">
        <ele>430</ele>
      </trkpt>
      <trkpt lat="44.12932" lon="3.10298">
        <ele>428</ele>
      </trkpt>
      <trkpt lat="44.12951" lon="3.10306">
        <ele>427</ele>
      </trkpt>
      <trkpt lat="44.12975" lon="3.10314">
        <ele>428</ele>
      </trkpt>
      <trkpt lat="44.13001" lon="3.10323">
        <ele>430</ele>
      </trkpt>
      <trkpt lat="44.13024" lon="3.10333">
        <ele>433</ele>
      </trkpt>
      <trkpt lat="44.13053" lon="3.1034">
        <ele>433</ele>
      </trkpt>
      <trkpt lat="44.13095" lon="3.1035">
        <ele>434</ele>
      </trkpt>
      <trkpt lat="44.13122" lon="3.10353">
        <ele>433</ele>
      </trkpt>
      <trkpt lat="44.13159" lon="3.10358">
        <ele>433</ele>
      </trkpt>
      <trkpt lat="44.13194" lon="3.10357">
        <ele>433</ele>
      </trkpt>
      <trkpt lat="44.13206" lon="3.10358">
        <ele>432</ele>
      </trkpt>
      <trkpt lat="44.13213" lon="3.1036">
        <ele>435</ele>
      </trkpt>
      <trkpt lat="44.13239" lon="3.10377">
        <ele>437</ele>
      </trkpt>
      <trkpt lat="44.13257" lon="3.10384">
        <ele>440</ele>
      </trkpt>
      <trkpt lat="44.13278" lon="3.10386">
        <ele>440</ele>
      </trkpt>
      <trkpt lat="44.13308" lon="3.1039">
        <ele>447</ele>
      </trkpt>
      <trkpt lat="44.13324" lon="3.10389">
        <ele>450</ele>
      </trkpt>
      <trkpt lat="44.13338" lon="3.1039">
        <ele>452</ele>
      </trkpt>
      <trkpt lat="44.13348" lon="3.10393">
        <ele>459</ele>
      </trkpt>
      <trkpt lat="44.13358" lon="3.104">
        <ele>464</ele>
      </trkpt>
      <trkpt lat="44.13357" lon="3.10404">
        <ele>464</ele>
      </trkpt>
      <trkpt lat="44.13348" lon="3.10406">
        <ele>463</ele>
      </trkpt>
      <trkpt lat="44.13348" lon="3.1041">
        <ele>466</ele>
      </trkpt>
      <trkpt lat="44.13351" lon="3.10414">
        <ele>467</ele>
      </trkpt>
      <trkpt lat="44.13366" lon="3.10412">
        <ele>468</ele>
      </trkpt>
      <trkpt lat="44.13378" lon="3.10415">
        <ele>471</ele>
      </trkpt>
      <trkpt lat="44.13392" lon="3.10442">
        <ele>477</ele>
      </trkpt>
      <trkpt lat="44.13398" lon="3.10458">
        <ele>478</ele>
      </trkpt>
      <trkpt lat="44.13403" lon="3.1048">
        <ele>479</ele>
      </trkpt>
      <trkpt lat="44.13419" lon="3.10497">
        <ele>479</ele>
      </trkpt>
      <trkpt lat="44.13452" lon="3.10515">
        <ele>479</ele>
      </trkpt>
      <trkpt lat="44.13484" lon="3.10534">
        <ele>481</ele>
      </trkpt>
      <trkpt lat="44.1354" lon="3.10565">
        <ele>485</ele>
      </trkpt>
      <trkpt lat="44.13566" lon="3.10578">
        <ele>486</ele>
      </trkpt>
      <trkpt lat="44.13601" lon="3.10596">
        <ele>486</ele>
      </trkpt>
      <trkpt lat="44.13627" lon="3.10611">
        <ele>487</ele>
      </trkpt>
      <trkpt lat="44.1366" lon="3.10634">
        <ele>488</ele>
      </trkpt>
      <trkpt lat="44.1365" lon="3.10666">
        <ele>489</ele>
      </trkpt>
      <trkpt lat="44.13621" lon="3.10674">
        <ele>490</ele>
      </trkpt>
      <trkpt lat="44.13575" lon="3.10686">
        <ele>491</ele>
      </trkpt>
      <trkpt lat="44.13558" lon="3.10697">
        <ele>492</ele>
      </trkpt>
      <trkpt lat="44.1354" lon="3.10715">
        <ele>495</ele>
      </trkpt>
      <trkpt lat="44.1351" lon="3.10744">
        <ele>498</ele>
      </trkpt>
      <trkpt lat="44.13488" lon="3.10773">
        <ele>504</ele>
      </trkpt>
      <trkpt lat="44.1347" lon="3.10782">
        <ele>508</ele>
      </trkpt>
      <trkpt lat="44.13448" lon="3.10784">
        <ele>510</ele>
      </trkpt>
      <trkpt lat="44.13423" lon="3.1079">
        <ele>516</ele>
      </trkpt>
      <trkpt lat="44.13391" lon="3.10814">
        <ele>519</ele>
      </trkpt>
      <trkpt lat="44.13377" lon="3.10821">
        <ele>524</ele>
      </trkpt>
      <trkpt lat="44.1336" lon="3.10819">
        <ele>523</ele>
      </trkpt>
      <trkpt lat="44.13323" lon="3.10808">
        <ele>527</ele>
      </trkpt>
      <trkpt lat="44.13306" lon="3.10798">
        <ele>526</ele>
      </trkpt>
      <trkpt lat="44.13286" lon="3.1078">
        <ele>527</ele>
      </trkpt>
      <trkpt lat="44.13251" lon="3.1075">
        <ele>529</ele>
      </trkpt>
      <trkpt lat="44.13227" lon="3.10695">
        <ele>538</ele>
      </trkpt>
      <trkpt lat="44.13204" lon="3.10662">
        <ele>540</ele>
      </trkpt>
      <trkpt lat="44.13194" lon="3.10656">
        <ele>543</ele>
      </trkpt>
      <trkpt lat="44.1318" lon="3.1066">
        <ele>544</ele>
      </trkpt>
      <trkpt lat="44.13145" lon="3.1069">
        <ele>546</ele>
      </trkpt>
      <trkpt lat="44.1312" lon="3.10725">
        <ele>547</ele>
      </trkpt>
      <trkpt lat="44.13109" lon="3.10734">
        <ele>548</ele>
      </trkpt>
      <trkpt lat="44.13094" lon="3.1074">
        <ele>545</ele>
      </trkpt>
      <trkpt lat="44.13084" lon="3.10751">
        <ele>547</ele>
      </trkpt>
      <trkpt lat="44.13077" lon="3.10773">
        <ele>545</ele>
      </trkpt>
      <trkpt lat="44.13079" lon="3.10786">
        <ele>542</ele>
      </trkpt>
      <trkpt lat="44.13085" lon="3.10807">
        <ele>545</ele>
      </trkpt>
      <trkpt lat="44.13092" lon="3.10849">
        <ele>548</ele>
      </trkpt>
      <trkpt lat="44.13093" lon="3.10866">
        <ele>550</ele>
      </trkpt>
      <trkpt lat="44.13088" lon="3.10894">
        <ele>548</ele>
      </trkpt>
      <trkpt lat="44.13076" lon="3.10924">
        <ele>548</ele>
      </trkpt>
      <trkpt lat="44.1307" lon="3.10954">
        <ele>548</ele>
      </trkpt>
      <trkpt lat="44.13068" lon="3.10985">
        <ele>549</ele>
      </trkpt>
      <trkpt lat="44.13068" lon="3.11017">
        <ele>553</ele>
      </trkpt>
      <trkpt lat="44.13066" lon="3.11024">
        <ele>554</ele>
      </trkpt>
      <trkpt lat="44.13055" lon="3.11036">
        <ele>552</ele>
      </trkpt>
      <trkpt lat="44.13046" lon="3.11042">
        <ele>558</ele>
      </trkpt>
      <trkpt lat="44.13042" lon="3.11028">
        <ele>552</ele>
      </trkpt>
      <trkpt lat="44.13046" lon="3.10999">
        <ele>548</ele>
      </trkpt>
      <trkpt lat="44.13042" lon="3.10959">
        <ele>541</ele>
      </trkpt>
      <trkpt lat="44.13042" lon="3.10929">
        <ele>536</ele>
      </trkpt>
      <trkpt lat="44.13032" lon="3.10898">
        <ele>531</ele>
      </trkpt>
      <trkpt lat="44.13021" lon="3.10872">
        <ele>526</ele>
      </trkpt>
      <trkpt lat="44.13009" lon="3.10858">
        <ele>521</ele>
      </trkpt>
      <trkpt lat="44.13002" lon="3.10827">
        <ele>517</ele>
      </trkpt>
      <trkpt lat="44.12983" lon="3.10796">
        <ele>510</ele>
      </trkpt>
      <trkpt lat="44.12969" lon="3.10768">
        <ele>506</ele>
      </trkpt>
      <trkpt lat="44.12955" lon="3.10738">
        <ele>500</ele>
      </trkpt>
      <trkpt lat="44.12943" lon="3.10723">
        <ele>497</ele>
      </trkpt>
      <trkpt lat="44.12924" lon="3.10717">
        <ele>493</ele>
      </trkpt>
      <trkpt lat="44.12899" lon="3.10709">
        <ele>487</ele>
      </trkpt>
      <trkpt lat="44.12875" lon="3.10696">
        <ele>483</ele>
      </trkpt>
      <trkpt lat="44.12849" lon="3.10674">
        <ele>479</ele>
      </trkpt>
      <trkpt lat="44.12818" lon="3.10644">
        <ele>472</ele>
      </trkpt>
      <trkpt lat="44.12794" lon="3.10604">
        <ele>466</ele>
      </trkpt>
      <trkpt lat="44.12782" lon="3.10571">
        <ele>461</ele>
      </trkpt>
      <trkpt lat="44.12768" lon="3.10531">
        <ele>454</ele>
      </trkpt>
      <trkpt lat="44.12753" lon="3.10495">
        <ele>446</ele>
      </trkpt>
      <trkpt lat="44.12758" lon="3.10472">
        <ele>444</ele>
      </trkpt>
      <trkpt lat="44.12755" lon="3.1046">
        <ele>442</ele>
      </trkpt>
      <trkpt lat="44.12748" lon="3.10445">
        <ele>443</ele>
      </trkpt>
      <trkpt lat="44.12747" lon="3.104">
        <ele>440</ele>
      </trkpt>
      <trkpt lat="44.12732" lon="3.10366">
        <ele>433</ele>
      </trkpt>
      <trkpt lat="44.12715" lon="3.10347">
        <ele>432</ele>
      </trkpt>
      <trkpt lat="44.12704" lon="3.10326">
        <ele>427</ele>
      </trkpt>
      <trkpt lat="44.12675" lon="3.10324">
        <ele>427</ele>
      </trkpt>
      <trkpt lat="44.12649" lon="3.10327">
        <ele>427</ele>
      </trkpt>
      <trkpt lat="44.12617" lon="3.10331">
        <ele>429</ele>
      </trkpt>
      <trkpt lat="44.12572" lon="3.10334">
        <ele>428</ele>
      </trkpt>
      <trkpt lat="44.12548" lon="3.10338">
        <ele>427</ele>
      </trkpt>
      <trkpt lat="44.12507" lon="3.10357">
        <ele>427</ele>
      </trkpt>
      <trkpt lat="44.12482" lon="3.10356">
        <ele>428</ele>
      </trkpt>
      <trkpt lat="44.12464" lon="3.10348">
        <ele>427</ele>
      </trkpt>
      <trkpt lat="44.12459" lon="3.10341">
        <ele>429</ele>
      </trkpt>
      <trkpt lat="44.12427" lon="3.10336">
        <ele>440</ele>
      </trkpt>
      <trkpt lat="44.12402" lon="3.1032">
        <ele>450</ele>
      </trkpt>
      <trkpt lat="44.12392" lon="3.10311">
        <ele>451</ele>
      </trkpt>
      <trkpt lat="44.12389" lon="3.10291">
        <ele>456</ele>
      </trkpt>
      <trkpt lat="44.12391" lon="3.10269">
        <ele>459</ele>
      </trkpt>
      <trkpt lat="44.12383" lon="3.10235">
        <ele>467</ele>
      </trkpt>
      <trkpt lat="44.12357" lon="3.10219">
        <ele>472</ele>
      </trkpt>
      <trkpt lat="44.12318" lon="3.10195">
        <ele>481</ele>
      </trkpt>
      <trkpt lat="44.12313" lon="3.10186">
        <ele>478</ele>
      </trkpt>
      <trkpt lat="44.12302" lon="3.10189">
        <ele>481</ele>
      </trkpt>
      <trkpt lat="44.12292" lon="3.10184">
        <ele>482</ele>
      </trkpt>
      <trkpt lat="44.12279" lon="3.10173">
        <ele>485</ele>
      </trkpt>
      <trkpt lat="44.12251" lon="3.10157">
        <ele>488</ele>
      </trkpt>
      <trkpt lat="44.12205" lon="3.1013">
        <ele>495</ele>
      </trkpt>
      <trkpt lat="44.12173" lon="3.10108">
        <ele>501</ele>
      </trkpt>
      <trkpt lat="44.12154" lon="3.10101">
        <ele>503</ele>
      </trkpt>
      <trkpt lat="44.12138" lon="3.10081">
        <ele>507</ele>
      </trkpt>
      <trkpt lat="44.12124" lon="3.10077">
        <ele>508</ele>
      </trkpt>
      <trkpt lat="44.12116" lon="3.10073">
        <ele>508</ele>
      </trkpt>
      <trkpt lat="44.12106" lon="3.10064">
        <ele>510</ele>
      </trkpt>
      <trkpt lat="44.12102" lon="3.10047">
        <ele>510</ele>
      </trkpt>
      <trkpt lat="44.12096" lon="3.10038">
        <ele>511</ele>
      </trkpt>
      <trkpt lat="44.12077" lon="3.10019">
        <ele>512</ele>
      </trkpt>
      <trkpt lat="44.12056" lon="3.09994">
        <ele>512</ele>
      </trkpt>
      <trkpt lat="44.12022" lon="3.09965">
        <ele>512</ele>
      </trkpt>
      <trkpt lat="44.1201" lon="3.09957">
        <ele>511</ele>
      </trkpt>
      <trkpt lat="44.12001" lon="3.09954">
        <ele>512</ele>
      </trkpt>
      <trkpt lat="44.11989" lon="3.09947">
        <ele>513</ele>
      </trkpt>
      <trkpt lat="44.11971" lon="3.09932">
        <ele>512</ele>
      </trkpt>
      <trkpt lat="44.11948" lon="3.09912">
        <ele>511</ele>
      </trkpt>
      <trkpt lat="44.11913" lon="3.09875">
        <ele>510</ele>
      </trkpt>
      <trkpt lat="44.11894" lon="3.0983">
        <ele>506</ele>
      </trkpt>
      <trkpt lat="44.11869" lon="3.09783">
        <ele>504</ele>
      </trkpt>
      <trkpt lat="44.11851" lon="3.09757">
        <ele>504</ele>
      </trkpt>
      <trkpt lat="44.11832" lon="3.09729">
        <ele>504</ele>
      </trkpt>
      <trkpt lat="44.11815" lon="3.09678">
        <ele>505</ele>
      </trkpt>
      <trkpt lat="44.11792" lon="3.09651">
        <ele>508</ele>
      </trkpt>
      <trkpt lat="44.11784" lon="3.09638">
        <ele>508</ele>
      </trkpt>
      <trkpt lat="44.11776" lon="3.09618">
        <ele>508</ele>
      </trkpt>
      <trkpt lat="44.11761" lon="3.09604">
        <ele>509</ele>
      </trkpt>
      <trkpt lat="44.11749" lon="3.09587">
        <ele>508</ele>
      </trkpt>
      <trkpt lat="44.11735" lon="3.09567">
        <ele>508</ele>
      </trkpt>
      <trkpt lat="44.11717" lon="3.0955">
        <ele>505</ele>
      </trkpt>
      <trkpt lat="44.11711" lon="3.09548">
        <ele>508</ele>
      </trkpt>
      <trkpt lat="44.11705" lon="3.09542">
        <ele>508</ele>
      </trkpt>
      <trkpt lat="44.11693" lon="3.09511">
        <ele>502</ele>
      </trkpt>
      <trkpt lat="44.1168" lon="3.09493">
        <ele>499</ele>
      </trkpt>
      <trkpt lat="44.11667" lon="3.09471">
        <ele>496</ele>
      </trkpt>
      <trkpt lat="44.11648" lon="3.0944">
        <ele>488</ele>
      </trkpt>
      <trkpt lat="44.11646" lon="3.09425">
        <ele>486</ele>
      </trkpt>
      <trkpt lat="44.11637" lon="3.09401">
        <ele>481</ele>
      </trkpt>
      <trkpt lat="44.11627" lon="3.09376">
        <ele>475</ele>
      </trkpt>
      <trkpt lat="44.11628" lon="3.0936">
        <ele>473</ele>
      </trkpt>
      <trkpt lat="44.11626" lon="3.09345">
        <ele>468</ele>
      </trkpt>
      <trkpt lat="44.11621" lon="3.09333">
        <ele>466</ele>
      </trkpt>
      <trkpt lat="44.11621" lon="3.09325">
        <ele>463</ele>
      </trkpt>
      <trkpt lat="44.11628" lon="3.09321">
        <ele>463</ele>
      </trkpt>
      <trkpt lat="44.11631" lon="3.09312">
        <ele>461</ele>
      </trkpt>
      <trkpt lat="44.11629" lon="3.09302">
        <ele>460</ele>
      </trkpt>
      <trkpt lat="44.11624" lon="3.0929">
        <ele>458</ele>
      </trkpt>
      <trkpt lat="44.11611" lon="3.09267">
        <ele>456</ele>
      </trkpt>
      <trkpt lat="44.11603" lon="3.09256">
        <ele>455</ele>
      </trkpt>
      <trkpt lat="44.11586" lon="3.09243">
        <ele>453</ele>
      </trkpt>
      <trkpt lat="44.11568" lon="3.09219">
        <ele>448</ele>
      </trkpt>
      <trkpt lat="44.11544" lon="3.09216">
        <ele>446</ele>
      </trkpt>
      <trkpt lat="44.1155" lon="3.09196">
        <ele>442</ele>
      </trkpt>
      <trkpt lat="44.11568" lon="3.09201">
        <ele>444</ele>
      </trkpt>
      <trkpt lat="44.11588" lon="3.09205">
        <ele>441</ele>
      </trkpt>
      <trkpt lat="44.1161" lon="3.09222">
        <ele>441</ele>
      </trkpt>
      <trkpt lat="44.11636" lon="3.0924">
        <ele>437</ele>
      </trkpt>
      <trkpt lat="44.11662" lon="3.09258">
        <ele>433</ele>
      </trkpt>
      <trkpt lat="44.11698" lon="3.09282">
        <ele>431</ele>
      </trkpt>
      <trkpt lat="44.11679" lon="3.09249">
        <ele>427</ele>
      </trkpt>
      <trkpt lat="44.1166" lon="3.09227">
        <ele>427</ele>
      </trkpt>
      <trkpt lat="44.11639" lon="3.09203">
        <ele>427</ele>
      </trkpt>
      <trkpt lat="44.11608" lon="3.0918">
        <ele>427</ele>
      </trkpt>
      <trkpt lat="44.11577" lon="3.09158">
        <ele>421</ele>
      </trkpt>
      <trkpt lat="44.11526" lon="3.09121">
        <ele>418</ele>
      </trkpt>
      <trkpt lat="44.11501" lon="3.09096">
        <ele>410</ele>
      </trkpt>
      <trkpt lat="44.11457" lon="3.09051">
        <ele>410</ele>
      </trkpt>
      <trkpt lat="44.11418" lon="3.0902">
        <ele>407</ele>
      </trkpt>
      <trkpt lat="44.11418" lon="3.09011">
        <ele>409</ele>
      </trkpt>
      <trkpt lat="44.11407" lon="3.0899">
        <ele>404</ele>
      </trkpt>
      <trkpt lat="44.11402" lon="3.08986">
        <ele>404</ele>
      </trkpt>
      <trkpt lat="44.11395" lon="3.08967">
        <ele>399</ele>
      </trkpt>
      <trkpt lat="44.11396" lon="3.0896">
        <ele>399</ele>
      </trkpt>
      <trkpt lat="44.11406" lon="3.08952">
        <ele>396</ele>
      </trkpt>
      <trkpt lat="44.11411" lon="3.08943">
        <ele>394</ele>
      </trkpt>
      <trkpt lat="44.1142" lon="3.08937">
        <ele>391</ele>
      </trkpt>
      <trkpt lat="44.11427" lon="3.08918">
        <ele>386</ele>
      </trkpt>
      <trkpt lat="44.11447" lon="3.08915">
        <ele>386</ele>
      </trkpt>
      <trkpt lat="44.11465" lon="3.08919">
        <ele>384</ele>
      </trkpt>
      <trkpt lat="44.11477" lon="3.08924">
        <ele>386</ele>
      </trkpt>
      <trkpt lat="44.1148" lon="3.08935">
        <ele>387</ele>
      </trkpt>
      <trkpt lat="44.11479" lon="3.08942">
        <ele>390</ele>
      </trkpt>
      <trkpt lat="44.11462" lon="3.08953">
        <ele>393</ele>
      </trkpt>
      <trkpt lat="44.11431" lon="3.08951">
        <ele>395</ele>
      </trkpt>
      <trkpt lat="44.11422" lon="3.08953">
        <ele>395</ele>
      </trkpt>
      <trkpt lat="44.11421" lon="3.08955">
        <ele>395</ele>
      </trkpt>
    </trkseg>
  </trk>
</gpx>
