<?xml version="1.0" encoding="UTF-8"?>
<gpx xmlns="http://www.topografix.com/GPX/1/1" xmlns:xsi="http://www.w3.org/2001/XMLSchema-instance" version="1.1" creator="Trace de Trail" xsi:schemaLocation="http://www.topografix.com/GPX/1/1 http://www.topografix.com/GPX/1/1/gpx.xsd">
  <metadata>
    <name>HOKA LES TEMPLIERS 2026 - VO2 Trail</name>
    <desc>Parcours créé sur Trace de Trail</desc>
    <link href="https://tracedetrail.fr/fr/trace/325083">
      <text>Cartographie du parcours</text>
    </link>
  </metadata>
  <trk>
    <name>HOKA LES TEMPLIERS 2026 - VO2 Trail sur TraceDeTrail.fr</name>
    <src>Trace de Trail</src>
    <trkseg>
      <trkpt lat="44.11351" lon="3.08721">
        <ele>360</ele>
      </trkpt>
      <trkpt lat="44.11377" lon="3.0868">
        <ele>360</ele>
      </trkpt>
      <trkpt lat="44.11381" lon="3.0866">
        <ele>359</ele>
      </trkpt>
      <trkpt lat="44.11401" lon="3.08664">
        <ele>360</ele>
      </trkpt>
      <trkpt lat="44.11427" lon="3.0867">
        <ele>360</ele>
      </trkpt>
      <trkpt lat="44.11453" lon="3.08679">
        <ele>360</ele>
      </trkpt>
      <trkpt lat="44.11467" lon="3.08685">
        <ele>360</ele>
      </trkpt>
      <trkpt lat="44.1149" lon="3.08698">
        <ele>360</ele>
      </trkpt>
      <trkpt lat="44.1153" lon="3.08721">
        <ele>360</ele>
      </trkpt>
      <trkpt lat="44.11563" lon="3.08742">
        <ele>360</ele>
      </trkpt>
      <trkpt lat="44.11597" lon="3.08762">
        <ele>360</ele>
      </trkpt>
      <trkpt lat="44.1163" lon="3.08783">
        <ele>360</ele>
      </trkpt>
      <trkpt lat="44.11668" lon="3.08806">
        <ele>360</ele>
      </trkpt>
      <trkpt lat="44.1171" lon="3.08834">
        <ele>360</ele>
      </trkpt>
      <trkpt lat="44.11728" lon="3.08849">
        <ele>360</ele>
      </trkpt>
      <trkpt lat="44.11743" lon="3.08864">
        <ele>360</ele>
      </trkpt>
      <trkpt lat="44.11759" lon="3.08883">
        <ele>360</ele>
      </trkpt>
      <trkpt lat="44.11784" lon="3.08912">
        <ele>360</ele>
      </trkpt>
      <trkpt lat="44.11819" lon="3.08957">
        <ele>360</ele>
      </trkpt>
      <trkpt lat="44.11837" lon="3.08984">
        <ele>360</ele>
      </trkpt>
      <trkpt lat="44.1186" lon="3.09018">
        <ele>360</ele>
      </trkpt>
      <trkpt lat="44.11878" lon="3.09042">
        <ele>361</ele>
      </trkpt>
      <trkpt lat="44.11898" lon="3.09067">
        <ele>361</ele>
      </trkpt>
      <trkpt lat="44.11916" lon="3.09094">
        <ele>361</ele>
      </trkpt>
      <trkpt lat="44.11938" lon="3.09127">
        <ele>361</ele>
      </trkpt>
      <trkpt lat="44.11973" lon="3.09171">
        <ele>362</ele>
      </trkpt>
      <trkpt lat="44.11995" lon="3.09215">
        <ele>362</ele>
      </trkpt>
      <trkpt lat="44.12005" lon="3.09242">
        <ele>363</ele>
      </trkpt>
      <trkpt lat="44.12011" lon="3.09253">
        <ele>364</ele>
      </trkpt>
      <trkpt lat="44.1203" lon="3.09279">
        <ele>364</ele>
      </trkpt>
      <trkpt lat="44.12061" lon="3.09321">
        <ele>364</ele>
      </trkpt>
      <trkpt lat="44.12081" lon="3.09357">
        <ele>364</ele>
      </trkpt>
      <trkpt lat="44.12101" lon="3.09394">
        <ele>365</ele>
      </trkpt>
      <trkpt lat="44.12124" lon="3.09435">
        <ele>365</ele>
      </trkpt>
      <trkpt lat="44.12134" lon="3.09457">
        <ele>365</ele>
      </trkpt>
      <trkpt lat="44.12145" lon="3.09476">
        <ele>365</ele>
      </trkpt>
      <trkpt lat="44.12158" lon="3.09498">
        <ele>365</ele>
      </trkpt>
      <trkpt lat="44.12186" lon="3.0954">
        <ele>365</ele>
      </trkpt>
      <trkpt lat="44.1221" lon="3.09568">
        <ele>365</ele>
      </trkpt>
      <trkpt lat="44.12252" lon="3.09617">
        <ele>365</ele>
      </trkpt>
      <trkpt lat="44.12277" lon="3.0965">
        <ele>365</ele>
      </trkpt>
      <trkpt lat="44.12303" lon="3.09683">
        <ele>365</ele>
      </trkpt>
      <trkpt lat="44.12341" lon="3.09732">
        <ele>365</ele>
      </trkpt>
      <trkpt lat="44.12353" lon="3.09754">
        <ele>365</ele>
      </trkpt>
      <trkpt lat="44.12373" lon="3.09797">
        <ele>365</ele>
      </trkpt>
      <trkpt lat="44.12376" lon="3.09812">
        <ele>367</ele>
      </trkpt>
      <trkpt lat="44.12383" lon="3.09829">
        <ele>365</ele>
      </trkpt>
      <trkpt lat="44.1239" lon="3.0987">
        <ele>365</ele>
      </trkpt>
      <trkpt lat="44.12401" lon="3.09905">
        <ele>366</ele>
      </trkpt>
      <trkpt lat="44.12413" lon="3.09933">
        <ele>366</ele>
      </trkpt>
      <trkpt lat="44.12436" lon="3.09973">
        <ele>366</ele>
      </trkpt>
      <trkpt lat="44.12454" lon="3.09997">
        <ele>366</ele>
      </trkpt>
      <trkpt lat="44.12477" lon="3.10014">
        <ele>366</ele>
      </trkpt>
      <trkpt lat="44.12504" lon="3.10033">
        <ele>366</ele>
      </trkpt>
      <trkpt lat="44.12524" lon="3.10043">
        <ele>365</ele>
      </trkpt>
      <trkpt lat="44.12549" lon="3.1005">
        <ele>365</ele>
      </trkpt>
      <trkpt lat="44.12576" lon="3.10058">
        <ele>365</ele>
      </trkpt>
      <trkpt lat="44.12601" lon="3.10063">
        <ele>365</ele>
      </trkpt>
      <trkpt lat="44.12645" lon="3.10066">
        <ele>365</ele>
      </trkpt>
      <trkpt lat="44.12683" lon="3.10062">
        <ele>366</ele>
      </trkpt>
      <trkpt lat="44.12711" lon="3.10062">
        <ele>367</ele>
      </trkpt>
      <trkpt lat="44.12749" lon="3.10061">
        <ele>367</ele>
      </trkpt>
      <trkpt lat="44.12774" lon="3.10055">
        <ele>367</ele>
      </trkpt>
      <trkpt lat="44.12777" lon="3.10063">
        <ele>367</ele>
      </trkpt>
      <trkpt lat="44.12803" lon="3.10056">
        <ele>367</ele>
      </trkpt>
      <trkpt lat="44.12844" lon="3.10045">
        <ele>373</ele>
      </trkpt>
      <trkpt lat="44.12891" lon="3.10035">
        <ele>374</ele>
      </trkpt>
      <trkpt lat="44.12918" lon="3.10021">
        <ele>376</ele>
      </trkpt>
      <trkpt lat="44.12934" lon="3.10022">
        <ele>380</ele>
      </trkpt>
      <trkpt lat="44.12944" lon="3.10036">
        <ele>381</ele>
      </trkpt>
      <trkpt lat="44.12947" lon="3.10054">
        <ele>382</ele>
      </trkpt>
      <trkpt lat="44.12938" lon="3.10071">
        <ele>385</ele>
      </trkpt>
      <trkpt lat="44.12898" lon="3.101">
        <ele>393</ele>
      </trkpt>
      <trkpt lat="44.12893" lon="3.10116">
        <ele>393</ele>
      </trkpt>
      <trkpt lat="44.12897" lon="3.10133">
        <ele>395</ele>
      </trkpt>
      <trkpt lat="44.12907" lon="3.10156">
        <ele>397</ele>
      </trkpt>
      <trkpt lat="44.12918" lon="3.10176">
        <ele>398</ele>
      </trkpt>
      <trkpt lat="44.12931" lon="3.10202">
        <ele>400</ele>
      </trkpt>
      <trkpt lat="44.12944" lon="3.10218">
        <ele>402</ele>
      </trkpt>
      <trkpt lat="44.12962" lon="3.10228">
        <ele>402</ele>
      </trkpt>
      <trkpt lat="44.12966" lon="3.10238">
        <ele>404</ele>
      </trkpt>
      <trkpt lat="44.1296" lon="3.10248">
        <ele>405</ele>
      </trkpt>
      <trkpt lat="44.12941" lon="3.10249">
        <ele>408</ele>
      </trkpt>
      <trkpt lat="44.12907" lon="3.10241">
        <ele>413</ele>
      </trkpt>
      <trkpt lat="44.12875" lon="3.10251">
        <ele>416</ele>
      </trkpt>
      <trkpt lat="44.12856" lon="3.10267">
        <ele>416</ele>
      </trkpt>
      <trkpt lat="44.12844" lon="3.10298">
        <ele>422</ele>
      </trkpt>
      <trkpt lat="44.12849" lon="3.10299">
        <ele>422</ele>
      </trkpt>
      <trkpt lat="44.12857" lon="3.10292">
        <ele>423</ele>
      </trkpt>
      <trkpt lat="44.12885" lon="3.10282">
        <ele>426</ele>
      </trkpt>
      <trkpt lat="44.12911" lon="3.10285">
        <ele>428</ele>
      </trkpt>
      <trkpt lat="44.12938" lon="3.10301">
        <ele>427</ele>
      </trkpt>
      <trkpt lat="44.12971" lon="3.10312">
        <ele>428</ele>
      </trkpt>
      <trkpt lat="44.13004" lon="3.10323">
        <ele>430</ele>
      </trkpt>
      <trkpt lat="44.1305" lon="3.10339">
        <ele>433</ele>
      </trkpt>
      <trkpt lat="44.13075" lon="3.10345">
        <ele>434</ele>
      </trkpt>
      <trkpt lat="44.13103" lon="3.10351">
        <ele>434</ele>
      </trkpt>
      <trkpt lat="44.13128" lon="3.10354">
        <ele>433</ele>
      </trkpt>
      <trkpt lat="44.13154" lon="3.10358">
        <ele>433</ele>
      </trkpt>
      <trkpt lat="44.13199" lon="3.10358">
        <ele>433</ele>
      </trkpt>
      <trkpt lat="44.13216" lon="3.10361">
        <ele>435</ele>
      </trkpt>
      <trkpt lat="44.13231" lon="3.10371">
        <ele>437</ele>
      </trkpt>
      <trkpt lat="44.13248" lon="3.10383">
        <ele>440</ele>
      </trkpt>
      <trkpt lat="44.13273" lon="3.10386">
        <ele>440</ele>
      </trkpt>
      <trkpt lat="44.13301" lon="3.10389">
        <ele>447</ele>
      </trkpt>
      <trkpt lat="44.13334" lon="3.10389">
        <ele>452</ele>
      </trkpt>
      <trkpt lat="44.13355" lon="3.10396">
        <ele>461</ele>
      </trkpt>
      <trkpt lat="44.13358" lon="3.10402">
        <ele>464</ele>
      </trkpt>
      <trkpt lat="44.13352" lon="3.10405">
        <ele>464</ele>
      </trkpt>
      <trkpt lat="44.13351" lon="3.10417">
        <ele>467</ele>
      </trkpt>
      <trkpt lat="44.13357" lon="3.10418">
        <ele>467</ele>
      </trkpt>
      <trkpt lat="44.13373" lon="3.10416">
        <ele>471</ele>
      </trkpt>
      <trkpt lat="44.1338" lon="3.1042">
        <ele>476</ele>
      </trkpt>
      <trkpt lat="44.13394" lon="3.10462">
        <ele>474</ele>
      </trkpt>
      <trkpt lat="44.13405" lon="3.10484">
        <ele>479</ele>
      </trkpt>
      <trkpt lat="44.13428" lon="3.10498">
        <ele>477</ele>
      </trkpt>
      <trkpt lat="44.1347" lon="3.10525">
        <ele>480</ele>
      </trkpt>
      <trkpt lat="44.13506" lon="3.10545">
        <ele>483</ele>
      </trkpt>
      <trkpt lat="44.13543" lon="3.10565">
        <ele>485</ele>
      </trkpt>
      <trkpt lat="44.13579" lon="3.10586">
        <ele>486</ele>
      </trkpt>
      <trkpt lat="44.13615" lon="3.10606">
        <ele>487</ele>
      </trkpt>
      <trkpt lat="44.1366" lon="3.10631">
        <ele>486</ele>
      </trkpt>
      <trkpt lat="44.13683" lon="3.10647">
        <ele>485</ele>
      </trkpt>
      <trkpt lat="44.13711" lon="3.10667">
        <ele>483</ele>
      </trkpt>
      <trkpt lat="44.13742" lon="3.10678">
        <ele>479</ele>
      </trkpt>
      <trkpt lat="44.13772" lon="3.10684">
        <ele>478</ele>
      </trkpt>
      <trkpt lat="44.13796" lon="3.10688">
        <ele>474</ele>
      </trkpt>
      <trkpt lat="44.13822" lon="3.10692">
        <ele>474</ele>
      </trkpt>
      <trkpt lat="44.13839" lon="3.10692">
        <ele>473</ele>
      </trkpt>
      <trkpt lat="44.1383" lon="3.10718">
        <ele>475</ele>
      </trkpt>
      <trkpt lat="44.13819" lon="3.10753">
        <ele>481</ele>
      </trkpt>
      <trkpt lat="44.1382" lon="3.10798">
        <ele>491</ele>
      </trkpt>
      <trkpt lat="44.13833" lon="3.10846">
        <ele>497</ele>
      </trkpt>
      <trkpt lat="44.13854" lon="3.10871">
        <ele>498</ele>
      </trkpt>
      <trkpt lat="44.13861" lon="3.10887">
        <ele>499</ele>
      </trkpt>
      <trkpt lat="44.13868" lon="3.10912">
        <ele>505</ele>
      </trkpt>
      <trkpt lat="44.13876" lon="3.1094">
        <ele>509</ele>
      </trkpt>
      <trkpt lat="44.13899" lon="3.10974">
        <ele>509</ele>
      </trkpt>
      <trkpt lat="44.13906" lon="3.11003">
        <ele>511</ele>
      </trkpt>
      <trkpt lat="44.13905" lon="3.1103">
        <ele>516</ele>
      </trkpt>
      <trkpt lat="44.13911" lon="3.11086">
        <ele>524</ele>
      </trkpt>
      <trkpt lat="44.13916" lon="3.111">
        <ele>531</ele>
      </trkpt>
      <trkpt lat="44.13929" lon="3.11119">
        <ele>530</ele>
      </trkpt>
      <trkpt lat="44.13942" lon="3.11139">
        <ele>534</ele>
      </trkpt>
      <trkpt lat="44.13947" lon="3.11149">
        <ele>537</ele>
      </trkpt>
      <trkpt lat="44.13952" lon="3.11177">
        <ele>544</ele>
      </trkpt>
      <trkpt lat="44.1395" lon="3.11188">
        <ele>547</ele>
      </trkpt>
      <trkpt lat="44.13951" lon="3.11206">
        <ele>551</ele>
      </trkpt>
      <trkpt lat="44.13946" lon="3.11206">
        <ele>554</ele>
      </trkpt>
      <trkpt lat="44.13926" lon="3.11186">
        <ele>561</ele>
      </trkpt>
      <trkpt lat="44.13912" lon="3.11177">
        <ele>561</ele>
      </trkpt>
      <trkpt lat="44.13892" lon="3.11166">
        <ele>567</ele>
      </trkpt>
      <trkpt lat="44.13866" lon="3.11152">
        <ele>580</ele>
      </trkpt>
      <trkpt lat="44.13858" lon="3.11146">
        <ele>581</ele>
      </trkpt>
      <trkpt lat="44.13839" lon="3.11138">
        <ele>590</ele>
      </trkpt>
      <trkpt lat="44.13821" lon="3.11127">
        <ele>591</ele>
      </trkpt>
      <trkpt lat="44.13776" lon="3.11104">
        <ele>611</ele>
      </trkpt>
      <trkpt lat="44.13764" lon="3.11093">
        <ele>612</ele>
      </trkpt>
      <trkpt lat="44.13747" lon="3.11091">
        <ele>613</ele>
      </trkpt>
      <trkpt lat="44.13729" lon="3.11089">
        <ele>615</ele>
      </trkpt>
      <trkpt lat="44.1372" lon="3.11092">
        <ele>621</ele>
      </trkpt>
      <trkpt lat="44.13704" lon="3.11101">
        <ele>627</ele>
      </trkpt>
      <trkpt lat="44.13678" lon="3.11117">
        <ele>633</ele>
      </trkpt>
      <trkpt lat="44.13642" lon="3.11139">
        <ele>644</ele>
      </trkpt>
      <trkpt lat="44.1363" lon="3.11145">
        <ele>648</ele>
      </trkpt>
      <trkpt lat="44.13618" lon="3.11147">
        <ele>649</ele>
      </trkpt>
      <trkpt lat="44.13604" lon="3.11153">
        <ele>657</ele>
      </trkpt>
      <trkpt lat="44.13587" lon="3.11161">
        <ele>663</ele>
      </trkpt>
      <trkpt lat="44.1357" lon="3.1117">
        <ele>669</ele>
      </trkpt>
      <trkpt lat="44.13559" lon="3.11178">
        <ele>669</ele>
      </trkpt>
      <trkpt lat="44.13541" lon="3.11186">
        <ele>680</ele>
      </trkpt>
      <trkpt lat="44.13521" lon="3.11194">
        <ele>687</ele>
      </trkpt>
      <trkpt lat="44.13482" lon="3.11202">
        <ele>698</ele>
      </trkpt>
      <trkpt lat="44.13458" lon="3.11218">
        <ele>706</ele>
      </trkpt>
      <trkpt lat="44.13427" lon="3.11239">
        <ele>714</ele>
      </trkpt>
      <trkpt lat="44.13416" lon="3.11241">
        <ele>720</ele>
      </trkpt>
      <trkpt lat="44.13407" lon="3.11246">
        <ele>719</ele>
      </trkpt>
      <trkpt lat="44.13405" lon="3.11249">
        <ele>719</ele>
      </trkpt>
      <trkpt lat="44.13405" lon="3.11254">
        <ele>723</ele>
      </trkpt>
      <trkpt lat="44.13408" lon="3.11256">
        <ele>723</ele>
      </trkpt>
      <trkpt lat="44.13433" lon="3.11259">
        <ele>723</ele>
      </trkpt>
      <trkpt lat="44.13437" lon="3.11262">
        <ele>727</ele>
      </trkpt>
      <trkpt lat="44.13437" lon="3.11268">
        <ele>727</ele>
      </trkpt>
      <trkpt lat="44.13427" lon="3.11273">
        <ele>732</ele>
      </trkpt>
      <trkpt lat="44.1341" lon="3.11276">
        <ele>733</ele>
      </trkpt>
      <trkpt lat="44.13391" lon="3.11286">
        <ele>737</ele>
      </trkpt>
      <trkpt lat="44.13365" lon="3.113">
        <ele>749</ele>
      </trkpt>
      <trkpt lat="44.13363" lon="3.11307">
        <ele>749</ele>
      </trkpt>
      <trkpt lat="44.134" lon="3.11329">
        <ele>755</ele>
      </trkpt>
      <trkpt lat="44.13425" lon="3.11348">
        <ele>765</ele>
      </trkpt>
      <trkpt lat="44.13443" lon="3.11358">
        <ele>768</ele>
      </trkpt>
      <trkpt lat="44.13472" lon="3.11365">
        <ele>774</ele>
      </trkpt>
      <trkpt lat="44.135" lon="3.11384">
        <ele>780</ele>
      </trkpt>
      <trkpt lat="44.13523" lon="3.11405">
        <ele>789</ele>
      </trkpt>
      <trkpt lat="44.13554" lon="3.11434">
        <ele>800</ele>
      </trkpt>
      <trkpt lat="44.13564" lon="3.11448">
        <ele>803</ele>
      </trkpt>
      <trkpt lat="44.13579" lon="3.11474">
        <ele>811</ele>
      </trkpt>
      <trkpt lat="44.13589" lon="3.11494">
        <ele>817</ele>
      </trkpt>
      <trkpt lat="44.13591" lon="3.11503">
        <ele>817</ele>
      </trkpt>
      <trkpt lat="44.13588" lon="3.11513">
        <ele>821</ele>
      </trkpt>
      <trkpt lat="44.13575" lon="3.11518">
        <ele>822</ele>
      </trkpt>
      <trkpt lat="44.13572" lon="3.11523">
        <ele>823</ele>
      </trkpt>
      <trkpt lat="44.13568" lon="3.11541">
        <ele>827</ele>
      </trkpt>
      <trkpt lat="44.13558" lon="3.11558">
        <ele>823</ele>
      </trkpt>
      <trkpt lat="44.13555" lon="3.11599">
        <ele>825</ele>
      </trkpt>
      <trkpt lat="44.13551" lon="3.11662">
        <ele>831</ele>
      </trkpt>
      <trkpt lat="44.13557" lon="3.11705">
        <ele>834</ele>
      </trkpt>
      <trkpt lat="44.13553" lon="3.11726">
        <ele>835</ele>
      </trkpt>
      <trkpt lat="44.13542" lon="3.1176">
        <ele>837</ele>
      </trkpt>
      <trkpt lat="44.13531" lon="3.11804">
        <ele>838</ele>
      </trkpt>
      <trkpt lat="44.13518" lon="3.11844">
        <ele>838</ele>
      </trkpt>
      <trkpt lat="44.13494" lon="3.11917">
        <ele>832</ele>
      </trkpt>
      <trkpt lat="44.13484" lon="3.11951">
        <ele>826</ele>
      </trkpt>
      <trkpt lat="44.13472" lon="3.11994">
        <ele>821</ele>
      </trkpt>
      <trkpt lat="44.13462" lon="3.12026">
        <ele>821</ele>
      </trkpt>
      <trkpt lat="44.13451" lon="3.1206">
        <ele>821</ele>
      </trkpt>
      <trkpt lat="44.13428" lon="3.1209">
        <ele>827</ele>
      </trkpt>
      <trkpt lat="44.13385" lon="3.12148">
        <ele>835</ele>
      </trkpt>
      <trkpt lat="44.13351" lon="3.12185">
        <ele>841</ele>
      </trkpt>
      <trkpt lat="44.13348" lon="3.12191">
        <ele>842</ele>
      </trkpt>
      <trkpt lat="44.13347" lon="3.12201">
        <ele>842</ele>
      </trkpt>
      <trkpt lat="44.13365" lon="3.12218">
        <ele>841</ele>
      </trkpt>
      <trkpt lat="44.13406" lon="3.12246">
        <ele>841</ele>
      </trkpt>
      <trkpt lat="44.13429" lon="3.1226">
        <ele>839</ele>
      </trkpt>
      <trkpt lat="44.13454" lon="3.12276">
        <ele>837</ele>
      </trkpt>
      <trkpt lat="44.13458" lon="3.1229">
        <ele>835</ele>
      </trkpt>
      <trkpt lat="44.13459" lon="3.12315">
        <ele>836</ele>
      </trkpt>
      <trkpt lat="44.13453" lon="3.1233">
        <ele>835</ele>
      </trkpt>
      <trkpt lat="44.13437" lon="3.12356">
        <ele>836</ele>
      </trkpt>
      <trkpt lat="44.13437" lon="3.12367">
        <ele>836</ele>
      </trkpt>
      <trkpt lat="44.13448" lon="3.12386">
        <ele>836</ele>
      </trkpt>
      <trkpt lat="44.13455" lon="3.12415">
        <ele>837</ele>
      </trkpt>
      <trkpt lat="44.13454" lon="3.1244">
        <ele>839</ele>
      </trkpt>
      <trkpt lat="44.13449" lon="3.1246">
        <ele>840</ele>
      </trkpt>
      <trkpt lat="44.13441" lon="3.12507">
        <ele>841</ele>
      </trkpt>
      <trkpt lat="44.1344" lon="3.12526">
        <ele>841</ele>
      </trkpt>
      <trkpt lat="44.13443" lon="3.12549">
        <ele>842</ele>
      </trkpt>
      <trkpt lat="44.13454" lon="3.12593">
        <ele>842</ele>
      </trkpt>
      <trkpt lat="44.13464" lon="3.12613">
        <ele>842</ele>
      </trkpt>
      <trkpt lat="44.13475" lon="3.12626">
        <ele>843</ele>
      </trkpt>
      <trkpt lat="44.13496" lon="3.12644">
        <ele>843</ele>
      </trkpt>
      <trkpt lat="44.13517" lon="3.1267">
        <ele>844</ele>
      </trkpt>
      <trkpt lat="44.1354" lon="3.12706">
        <ele>845</ele>
      </trkpt>
      <trkpt lat="44.13555" lon="3.12723">
        <ele>845</ele>
      </trkpt>
      <trkpt lat="44.13573" lon="3.12736">
        <ele>845</ele>
      </trkpt>
      <trkpt lat="44.13599" lon="3.12754">
        <ele>845</ele>
      </trkpt>
      <trkpt lat="44.13632" lon="3.12759">
        <ele>845</ele>
      </trkpt>
      <trkpt lat="44.13664" lon="3.12765">
        <ele>844</ele>
      </trkpt>
      <trkpt lat="44.13701" lon="3.12771">
        <ele>842</ele>
      </trkpt>
      <trkpt lat="44.13724" lon="3.12771">
        <ele>842</ele>
      </trkpt>
      <trkpt lat="44.13742" lon="3.12777">
        <ele>841</ele>
      </trkpt>
      <trkpt lat="44.13764" lon="3.12795">
        <ele>838</ele>
      </trkpt>
      <trkpt lat="44.13809" lon="3.1283">
        <ele>834</ele>
      </trkpt>
      <trkpt lat="44.13846" lon="3.12864">
        <ele>830</ele>
      </trkpt>
      <trkpt lat="44.13852" lon="3.12874">
        <ele>829</ele>
      </trkpt>
      <trkpt lat="44.13857" lon="3.12903">
        <ele>830</ele>
      </trkpt>
      <trkpt lat="44.13882" lon="3.12897">
        <ele>828</ele>
      </trkpt>
      <trkpt lat="44.1391" lon="3.1289">
        <ele>826</ele>
      </trkpt>
      <trkpt lat="44.13933" lon="3.12889">
        <ele>826</ele>
      </trkpt>
      <trkpt lat="44.13958" lon="3.12895">
        <ele>826</ele>
      </trkpt>
      <trkpt lat="44.13981" lon="3.12906">
        <ele>827</ele>
      </trkpt>
      <trkpt lat="44.14005" lon="3.12918">
        <ele>827</ele>
      </trkpt>
      <trkpt lat="44.14027" lon="3.12927">
        <ele>827</ele>
      </trkpt>
      <trkpt lat="44.14071" lon="3.12938">
        <ele>828</ele>
      </trkpt>
      <trkpt lat="44.14086" lon="3.12936">
        <ele>828</ele>
      </trkpt>
      <trkpt lat="44.14103" lon="3.12929">
        <ele>828</ele>
      </trkpt>
      <trkpt lat="44.14122" lon="3.12922">
        <ele>830</ele>
      </trkpt>
      <trkpt lat="44.14156" lon="3.12922">
        <ele>830</ele>
      </trkpt>
      <trkpt lat="44.14161" lon="3.12934">
        <ele>830</ele>
      </trkpt>
      <trkpt lat="44.1417" lon="3.12935">
        <ele>830</ele>
      </trkpt>
      <trkpt lat="44.14173" lon="3.12942">
        <ele>830</ele>
      </trkpt>
      <trkpt lat="44.14181" lon="3.12943">
        <ele>830</ele>
      </trkpt>
      <trkpt lat="44.14207" lon="3.1296">
        <ele>828</ele>
      </trkpt>
      <trkpt lat="44.14226" lon="3.12965">
        <ele>826</ele>
      </trkpt>
      <trkpt lat="44.14227" lon="3.12971">
        <ele>826</ele>
      </trkpt>
      <trkpt lat="44.14242" lon="3.12975">
        <ele>822</ele>
      </trkpt>
      <trkpt lat="44.14254" lon="3.12998">
        <ele>821</ele>
      </trkpt>
      <trkpt lat="44.14287" lon="3.12995">
        <ele>817</ele>
      </trkpt>
      <trkpt lat="44.1432" lon="3.12991">
        <ele>812</ele>
      </trkpt>
      <trkpt lat="44.1436" lon="3.12987">
        <ele>808</ele>
      </trkpt>
      <trkpt lat="44.14392" lon="3.13016">
        <ele>802</ele>
      </trkpt>
      <trkpt lat="44.14408" lon="3.13016">
        <ele>801</ele>
      </trkpt>
      <trkpt lat="44.14412" lon="3.13046">
        <ele>798</ele>
      </trkpt>
      <trkpt lat="44.1441" lon="3.13068">
        <ele>798</ele>
      </trkpt>
      <trkpt lat="44.1441" lon="3.13091">
        <ele>798</ele>
      </trkpt>
      <trkpt lat="44.1441" lon="3.13115">
        <ele>799</ele>
      </trkpt>
      <trkpt lat="44.14403" lon="3.1316">
        <ele>799</ele>
      </trkpt>
      <trkpt lat="44.14395" lon="3.13197">
        <ele>799</ele>
      </trkpt>
      <trkpt lat="44.14384" lon="3.13236">
        <ele>800</ele>
      </trkpt>
      <trkpt lat="44.14379" lon="3.13246">
        <ele>800</ele>
      </trkpt>
      <trkpt lat="44.14379" lon="3.13263">
        <ele>801</ele>
      </trkpt>
      <trkpt lat="44.14385" lon="3.13319">
        <ele>803</ele>
      </trkpt>
      <trkpt lat="44.14388" lon="3.13381">
        <ele>806</ele>
      </trkpt>
      <trkpt lat="44.144" lon="3.13423">
        <ele>809</ele>
      </trkpt>
      <trkpt lat="44.14412" lon="3.13464">
        <ele>812</ele>
      </trkpt>
      <trkpt lat="44.14425" lon="3.13507">
        <ele>812</ele>
      </trkpt>
      <trkpt lat="44.14414" lon="3.13517">
        <ele>813</ele>
      </trkpt>
      <trkpt lat="44.14392" lon="3.1352">
        <ele>812</ele>
      </trkpt>
      <trkpt lat="44.14361" lon="3.13524">
        <ele>810</ele>
      </trkpt>
      <trkpt lat="44.14341" lon="3.13522">
        <ele>810</ele>
      </trkpt>
      <trkpt lat="44.14327" lon="3.13513">
        <ele>809</ele>
      </trkpt>
      <trkpt lat="44.14296" lon="3.13512">
        <ele>810</ele>
      </trkpt>
      <trkpt lat="44.14265" lon="3.13511">
        <ele>812</ele>
      </trkpt>
      <trkpt lat="44.14211" lon="3.13509">
        <ele>814</ele>
      </trkpt>
      <trkpt lat="44.14211" lon="3.13525">
        <ele>816</ele>
      </trkpt>
      <trkpt lat="44.14203" lon="3.13543">
        <ele>816</ele>
      </trkpt>
      <trkpt lat="44.14203" lon="3.13554">
        <ele>816</ele>
      </trkpt>
      <trkpt lat="44.14185" lon="3.13577">
        <ele>816</ele>
      </trkpt>
      <trkpt lat="44.14165" lon="3.13598">
        <ele>817</ele>
      </trkpt>
      <trkpt lat="44.14149" lon="3.13624">
        <ele>817</ele>
      </trkpt>
      <trkpt lat="44.14142" lon="3.13641">
        <ele>817</ele>
      </trkpt>
      <trkpt lat="44.14121" lon="3.13637">
        <ele>818</ele>
      </trkpt>
      <trkpt lat="44.14109" lon="3.13639">
        <ele>818</ele>
      </trkpt>
      <trkpt lat="44.14077" lon="3.13654">
        <ele>819</ele>
      </trkpt>
      <trkpt lat="44.14068" lon="3.13652">
        <ele>820</ele>
      </trkpt>
      <trkpt lat="44.14044" lon="3.13638">
        <ele>824</ele>
      </trkpt>
      <trkpt lat="44.14036" lon="3.13638">
        <ele>825</ele>
      </trkpt>
      <trkpt lat="44.14011" lon="3.13645">
        <ele>826</ele>
      </trkpt>
      <trkpt lat="44.13975" lon="3.13655">
        <ele>826</ele>
      </trkpt>
      <trkpt lat="44.13963" lon="3.13652">
        <ele>827</ele>
      </trkpt>
      <trkpt lat="44.13949" lon="3.13643">
        <ele>826</ele>
      </trkpt>
      <trkpt lat="44.13935" lon="3.13631">
        <ele>825</ele>
      </trkpt>
      <trkpt lat="44.1392" lon="3.13624">
        <ele>824</ele>
      </trkpt>
      <trkpt lat="44.1388" lon="3.13616">
        <ele>821</ele>
      </trkpt>
      <trkpt lat="44.1385" lon="3.13582">
        <ele>819</ele>
      </trkpt>
      <trkpt lat="44.13845" lon="3.1358">
        <ele>819</ele>
      </trkpt>
      <trkpt lat="44.13824" lon="3.13578">
        <ele>819</ele>
      </trkpt>
      <trkpt lat="44.13792" lon="3.1358">
        <ele>819</ele>
      </trkpt>
      <trkpt lat="44.13733" lon="3.13585">
        <ele>819</ele>
      </trkpt>
      <trkpt lat="44.13702" lon="3.13589">
        <ele>819</ele>
      </trkpt>
      <trkpt lat="44.1368" lon="3.13594">
        <ele>817</ele>
      </trkpt>
      <trkpt lat="44.13671" lon="3.136">
        <ele>817</ele>
      </trkpt>
      <trkpt lat="44.13657" lon="3.13622">
        <ele>816</ele>
      </trkpt>
      <trkpt lat="44.13647" lon="3.13639">
        <ele>815</ele>
      </trkpt>
      <trkpt lat="44.13635" lon="3.13668">
        <ele>815</ele>
      </trkpt>
      <trkpt lat="44.1363" lon="3.13632">
        <ele>815</ele>
      </trkpt>
      <trkpt lat="44.13625" lon="3.13591">
        <ele>814</ele>
      </trkpt>
      <trkpt lat="44.13619" lon="3.1356">
        <ele>813</ele>
      </trkpt>
      <trkpt lat="44.13598" lon="3.13532">
        <ele>813</ele>
      </trkpt>
      <trkpt lat="44.13572" lon="3.13511">
        <ele>814</ele>
      </trkpt>
      <trkpt lat="44.13554" lon="3.13491">
        <ele>816</ele>
      </trkpt>
      <trkpt lat="44.13526" lon="3.13492">
        <ele>818</ele>
      </trkpt>
      <trkpt lat="44.13485" lon="3.13494">
        <ele>818</ele>
      </trkpt>
      <trkpt lat="44.13461" lon="3.13485">
        <ele>818</ele>
      </trkpt>
      <trkpt lat="44.13435" lon="3.13476">
        <ele>817</ele>
      </trkpt>
      <trkpt lat="44.13413" lon="3.13454">
        <ele>816</ele>
      </trkpt>
      <trkpt lat="44.13404" lon="3.13441">
        <ele>814</ele>
      </trkpt>
      <trkpt lat="44.13391" lon="3.13431">
        <ele>813</ele>
      </trkpt>
      <trkpt lat="44.13377" lon="3.13411">
        <ele>813</ele>
      </trkpt>
      <trkpt lat="44.13361" lon="3.13399">
        <ele>813</ele>
      </trkpt>
      <trkpt lat="44.13347" lon="3.13394">
        <ele>813</ele>
      </trkpt>
      <trkpt lat="44.13321" lon="3.13399">
        <ele>812</ele>
      </trkpt>
      <trkpt lat="44.13289" lon="3.1341">
        <ele>809</ele>
      </trkpt>
      <trkpt lat="44.13256" lon="3.13421">
        <ele>806</ele>
      </trkpt>
      <trkpt lat="44.13218" lon="3.13434">
        <ele>806</ele>
      </trkpt>
      <trkpt lat="44.13175" lon="3.13451">
        <ele>807</ele>
      </trkpt>
      <trkpt lat="44.13168" lon="3.13437">
        <ele>807</ele>
      </trkpt>
      <trkpt lat="44.13167" lon="3.13408">
        <ele>807</ele>
      </trkpt>
      <trkpt lat="44.13163" lon="3.13381">
        <ele>807</ele>
      </trkpt>
      <trkpt lat="44.13162" lon="3.1336">
        <ele>807</ele>
      </trkpt>
      <trkpt lat="44.13164" lon="3.13341">
        <ele>807</ele>
      </trkpt>
      <trkpt lat="44.13176" lon="3.13299">
        <ele>808</ele>
      </trkpt>
      <trkpt lat="44.13175" lon="3.13259">
        <ele>808</ele>
      </trkpt>
      <trkpt lat="44.13177" lon="3.13228">
        <ele>808</ele>
      </trkpt>
      <trkpt lat="44.13184" lon="3.13192">
        <ele>808</ele>
      </trkpt>
      <trkpt lat="44.13189" lon="3.13141">
        <ele>808</ele>
      </trkpt>
      <trkpt lat="44.132" lon="3.13103">
        <ele>808</ele>
      </trkpt>
      <trkpt lat="44.132" lon="3.13095">
        <ele>809</ele>
      </trkpt>
      <trkpt lat="44.13192" lon="3.13079">
        <ele>809</ele>
      </trkpt>
      <trkpt lat="44.13162" lon="3.1304">
        <ele>809</ele>
      </trkpt>
      <trkpt lat="44.13151" lon="3.13023">
        <ele>808</ele>
      </trkpt>
      <trkpt lat="44.13143" lon="3.13002">
        <ele>807</ele>
      </trkpt>
      <trkpt lat="44.13135" lon="3.12981">
        <ele>807</ele>
      </trkpt>
      <trkpt lat="44.13126" lon="3.1297">
        <ele>807</ele>
      </trkpt>
      <trkpt lat="44.13115" lon="3.12965">
        <ele>806</ele>
      </trkpt>
      <trkpt lat="44.13096" lon="3.12964">
        <ele>805</ele>
      </trkpt>
      <trkpt lat="44.13089" lon="3.12967">
        <ele>806</ele>
      </trkpt>
      <trkpt lat="44.13082" lon="3.12977">
        <ele>805</ele>
      </trkpt>
      <trkpt lat="44.13074" lon="3.12981">
        <ele>806</ele>
      </trkpt>
      <trkpt lat="44.13061" lon="3.12986">
        <ele>806</ele>
      </trkpt>
      <trkpt lat="44.1305" lon="3.12986">
        <ele>807</ele>
      </trkpt>
      <trkpt lat="44.13037" lon="3.12975">
        <ele>808</ele>
      </trkpt>
      <trkpt lat="44.13027" lon="3.12963">
        <ele>809</ele>
      </trkpt>
      <trkpt lat="44.13016" lon="3.12938">
        <ele>810</ele>
      </trkpt>
      <trkpt lat="44.13002" lon="3.12907">
        <ele>810</ele>
      </trkpt>
      <trkpt lat="44.12987" lon="3.12881">
        <ele>809</ele>
      </trkpt>
      <trkpt lat="44.12987" lon="3.12825">
        <ele>809</ele>
      </trkpt>
      <trkpt lat="44.12981" lon="3.1279">
        <ele>807</ele>
      </trkpt>
      <trkpt lat="44.12973" lon="3.12748">
        <ele>806</ele>
      </trkpt>
      <trkpt lat="44.12968" lon="3.12711">
        <ele>805</ele>
      </trkpt>
      <trkpt lat="44.12967" lon="3.12667">
        <ele>804</ele>
      </trkpt>
      <trkpt lat="44.12965" lon="3.12583">
        <ele>804</ele>
      </trkpt>
      <trkpt lat="44.12953" lon="3.12546">
        <ele>804</ele>
      </trkpt>
      <trkpt lat="44.12936" lon="3.12493">
        <ele>805</ele>
      </trkpt>
      <trkpt lat="44.12935" lon="3.12474">
        <ele>806</ele>
      </trkpt>
      <trkpt lat="44.12941" lon="3.12442">
        <ele>806</ele>
      </trkpt>
      <trkpt lat="44.1295" lon="3.12416">
        <ele>807</ele>
      </trkpt>
      <trkpt lat="44.12959" lon="3.12397">
        <ele>808</ele>
      </trkpt>
      <trkpt lat="44.12964" lon="3.12374">
        <ele>809</ele>
      </trkpt>
      <trkpt lat="44.12963" lon="3.12314">
        <ele>809</ele>
      </trkpt>
      <trkpt lat="44.1296" lon="3.12281">
        <ele>811</ele>
      </trkpt>
      <trkpt lat="44.12947" lon="3.12239">
        <ele>815</ele>
      </trkpt>
      <trkpt lat="44.12947" lon="3.12207">
        <ele>818</ele>
      </trkpt>
      <trkpt lat="44.12954" lon="3.12153">
        <ele>822</ele>
      </trkpt>
      <trkpt lat="44.12967" lon="3.12092">
        <ele>825</ele>
      </trkpt>
      <trkpt lat="44.12979" lon="3.1207">
        <ele>826</ele>
      </trkpt>
      <trkpt lat="44.12996" lon="3.12059">
        <ele>828</ele>
      </trkpt>
      <trkpt lat="44.13018" lon="3.12055">
        <ele>830</ele>
      </trkpt>
      <trkpt lat="44.13037" lon="3.12047">
        <ele>832</ele>
      </trkpt>
      <trkpt lat="44.1305" lon="3.12031">
        <ele>834</ele>
      </trkpt>
      <trkpt lat="44.13067" lon="3.12001">
        <ele>833</ele>
      </trkpt>
      <trkpt lat="44.1308" lon="3.11961">
        <ele>833</ele>
      </trkpt>
      <trkpt lat="44.13094" lon="3.11939">
        <ele>833</ele>
      </trkpt>
      <trkpt lat="44.13129" lon="3.1191">
        <ele>833</ele>
      </trkpt>
      <trkpt lat="44.13135" lon="3.11891">
        <ele>832</ele>
      </trkpt>
      <trkpt lat="44.13135" lon="3.11871">
        <ele>830</ele>
      </trkpt>
      <trkpt lat="44.13138" lon="3.11841">
        <ele>829</ele>
      </trkpt>
      <trkpt lat="44.13146" lon="3.1181">
        <ele>827</ele>
      </trkpt>
      <trkpt lat="44.13161" lon="3.11782">
        <ele>825</ele>
      </trkpt>
      <trkpt lat="44.13178" lon="3.11752">
        <ele>824</ele>
      </trkpt>
      <trkpt lat="44.13178" lon="3.11728">
        <ele>821</ele>
      </trkpt>
      <trkpt lat="44.1315" lon="3.11726">
        <ele>821</ele>
      </trkpt>
      <trkpt lat="44.13131" lon="3.11703">
        <ele>820</ele>
      </trkpt>
      <trkpt lat="44.13111" lon="3.11679">
        <ele>820</ele>
      </trkpt>
      <trkpt lat="44.131" lon="3.11656">
        <ele>820</ele>
      </trkpt>
      <trkpt lat="44.13096" lon="3.11613">
        <ele>820</ele>
      </trkpt>
      <trkpt lat="44.13084" lon="3.11597">
        <ele>819</ele>
      </trkpt>
      <trkpt lat="44.13069" lon="3.11588">
        <ele>819</ele>
      </trkpt>
      <trkpt lat="44.13044" lon="3.11582">
        <ele>819</ele>
      </trkpt>
      <trkpt lat="44.13019" lon="3.11584">
        <ele>816</ele>
      </trkpt>
      <trkpt lat="44.12992" lon="3.11586">
        <ele>815</ele>
      </trkpt>
      <trkpt lat="44.12958" lon="3.11601">
        <ele>813</ele>
      </trkpt>
      <trkpt lat="44.12942" lon="3.11619">
        <ele>813</ele>
      </trkpt>
      <trkpt lat="44.12922" lon="3.11675">
        <ele>813</ele>
      </trkpt>
      <trkpt lat="44.12911" lon="3.11687">
        <ele>814</ele>
      </trkpt>
      <trkpt lat="44.12901" lon="3.11702">
        <ele>813</ele>
      </trkpt>
      <trkpt lat="44.12896" lon="3.1172">
        <ele>812</ele>
      </trkpt>
      <trkpt lat="44.12885" lon="3.11731">
        <ele>811</ele>
      </trkpt>
      <trkpt lat="44.12874" lon="3.11737">
        <ele>810</ele>
      </trkpt>
      <trkpt lat="44.12866" lon="3.11739">
        <ele>808</ele>
      </trkpt>
      <trkpt lat="44.12862" lon="3.11775">
        <ele>808</ele>
      </trkpt>
      <trkpt lat="44.12863" lon="3.11801">
        <ele>807</ele>
      </trkpt>
      <trkpt lat="44.12858" lon="3.11826">
        <ele>807</ele>
      </trkpt>
      <trkpt lat="44.12853" lon="3.11856">
        <ele>806</ele>
      </trkpt>
      <trkpt lat="44.12848" lon="3.11867">
        <ele>805</ele>
      </trkpt>
      <trkpt lat="44.12837" lon="3.11871">
        <ele>805</ele>
      </trkpt>
      <trkpt lat="44.12825" lon="3.11862">
        <ele>803</ele>
      </trkpt>
      <trkpt lat="44.12802" lon="3.11854">
        <ele>801</ele>
      </trkpt>
      <trkpt lat="44.12785" lon="3.11846">
        <ele>800</ele>
      </trkpt>
      <trkpt lat="44.12774" lon="3.11837">
        <ele>799</ele>
      </trkpt>
      <trkpt lat="44.12758" lon="3.11814">
        <ele>798</ele>
      </trkpt>
      <trkpt lat="44.12742" lon="3.11809">
        <ele>794</ele>
      </trkpt>
      <trkpt lat="44.12715" lon="3.11824">
        <ele>798</ele>
      </trkpt>
      <trkpt lat="44.12695" lon="3.11854">
        <ele>800</ele>
      </trkpt>
      <trkpt lat="44.12691" lon="3.11856">
        <ele>800</ele>
      </trkpt>
      <trkpt lat="44.1268" lon="3.11855">
        <ele>800</ele>
      </trkpt>
      <trkpt lat="44.12659" lon="3.1184">
        <ele>801</ele>
      </trkpt>
      <trkpt lat="44.12626" lon="3.11817">
        <ele>801</ele>
      </trkpt>
      <trkpt lat="44.12608" lon="3.1181">
        <ele>802</ele>
      </trkpt>
      <trkpt lat="44.12589" lon="3.11813">
        <ele>804</ele>
      </trkpt>
      <trkpt lat="44.12582" lon="3.11801">
        <ele>804</ele>
      </trkpt>
      <trkpt lat="44.12576" lon="3.11786">
        <ele>804</ele>
      </trkpt>
      <trkpt lat="44.12577" lon="3.11759">
        <ele>805</ele>
      </trkpt>
      <trkpt lat="44.12572" lon="3.11739">
        <ele>806</ele>
      </trkpt>
      <trkpt lat="44.1256" lon="3.11732">
        <ele>807</ele>
      </trkpt>
      <trkpt lat="44.12562" lon="3.11711">
        <ele>808</ele>
      </trkpt>
      <trkpt lat="44.12556" lon="3.1169">
        <ele>811</ele>
      </trkpt>
      <trkpt lat="44.12555" lon="3.11672">
        <ele>811</ele>
      </trkpt>
      <trkpt lat="44.1255" lon="3.11665">
        <ele>812</ele>
      </trkpt>
      <trkpt lat="44.12539" lon="3.11662">
        <ele>812</ele>
      </trkpt>
      <trkpt lat="44.12523" lon="3.11623">
        <ele>812</ele>
      </trkpt>
      <trkpt lat="44.12529" lon="3.11608">
        <ele>813</ele>
      </trkpt>
      <trkpt lat="44.12534" lon="3.11587">
        <ele>812</ele>
      </trkpt>
      <trkpt lat="44.12516" lon="3.11564">
        <ele>812</ele>
      </trkpt>
      <trkpt lat="44.12504" lon="3.11559">
        <ele>811</ele>
      </trkpt>
      <trkpt lat="44.12499" lon="3.11535">
        <ele>810</ele>
      </trkpt>
      <trkpt lat="44.12481" lon="3.11526">
        <ele>809</ele>
      </trkpt>
      <trkpt lat="44.1247" lon="3.11524">
        <ele>808</ele>
      </trkpt>
      <trkpt lat="44.12458" lon="3.11519">
        <ele>807</ele>
      </trkpt>
      <trkpt lat="44.12455" lon="3.11503">
        <ele>806</ele>
      </trkpt>
      <trkpt lat="44.12453" lon="3.11475">
        <ele>803</ele>
      </trkpt>
      <trkpt lat="44.12463" lon="3.11416">
        <ele>798</ele>
      </trkpt>
      <trkpt lat="44.1247" lon="3.11392">
        <ele>797</ele>
      </trkpt>
      <trkpt lat="44.12465" lon="3.11354">
        <ele>794</ele>
      </trkpt>
      <trkpt lat="44.12466" lon="3.11311">
        <ele>792</ele>
      </trkpt>
      <trkpt lat="44.12469" lon="3.11233">
        <ele>787</ele>
      </trkpt>
      <trkpt lat="44.12464" lon="3.11218">
        <ele>785</ele>
      </trkpt>
      <trkpt lat="44.12471" lon="3.112">
        <ele>784</ele>
      </trkpt>
      <trkpt lat="44.12471" lon="3.11182">
        <ele>782</ele>
      </trkpt>
      <trkpt lat="44.12467" lon="3.11177">
        <ele>777</ele>
      </trkpt>
      <trkpt lat="44.12447" lon="3.11185">
        <ele>781</ele>
      </trkpt>
      <trkpt lat="44.12435" lon="3.11208">
        <ele>778</ele>
      </trkpt>
      <trkpt lat="44.12421" lon="3.11205">
        <ele>776</ele>
      </trkpt>
      <trkpt lat="44.12402" lon="3.1123">
        <ele>778</ele>
      </trkpt>
      <trkpt lat="44.12406" lon="3.11243">
        <ele>778</ele>
      </trkpt>
      <trkpt lat="44.12391" lon="3.11275">
        <ele>778</ele>
      </trkpt>
      <trkpt lat="44.12382" lon="3.11288">
        <ele>777</ele>
      </trkpt>
      <trkpt lat="44.12374" lon="3.11292">
        <ele>777</ele>
      </trkpt>
      <trkpt lat="44.12362" lon="3.11306">
        <ele>776</ele>
      </trkpt>
      <trkpt lat="44.12349" lon="3.11318">
        <ele>779</ele>
      </trkpt>
      <trkpt lat="44.12335" lon="3.11336">
        <ele>781</ele>
      </trkpt>
      <trkpt lat="44.12317" lon="3.1134">
        <ele>782</ele>
      </trkpt>
      <trkpt lat="44.12306" lon="3.11339">
        <ele>779</ele>
      </trkpt>
      <trkpt lat="44.12292" lon="3.11345">
        <ele>782</ele>
      </trkpt>
      <trkpt lat="44.12276" lon="3.11344">
        <ele>781</ele>
      </trkpt>
      <trkpt lat="44.12266" lon="3.1133">
        <ele>779</ele>
      </trkpt>
      <trkpt lat="44.12242" lon="3.11335">
        <ele>779</ele>
      </trkpt>
      <trkpt lat="44.12216" lon="3.1134">
        <ele>777</ele>
      </trkpt>
      <trkpt lat="44.12201" lon="3.11335">
        <ele>780</ele>
      </trkpt>
      <trkpt lat="44.12184" lon="3.11318">
        <ele>776</ele>
      </trkpt>
      <trkpt lat="44.12162" lon="3.11297">
        <ele>777</ele>
      </trkpt>
      <trkpt lat="44.12143" lon="3.11282">
        <ele>776</ele>
      </trkpt>
      <trkpt lat="44.1214" lon="3.11267">
        <ele>777</ele>
      </trkpt>
      <trkpt lat="44.12132" lon="3.11255">
        <ele>779</ele>
      </trkpt>
      <trkpt lat="44.12102" lon="3.11243">
        <ele>782</ele>
      </trkpt>
      <trkpt lat="44.12091" lon="3.11244">
        <ele>783</ele>
      </trkpt>
      <trkpt lat="44.12078" lon="3.11221">
        <ele>782</ele>
      </trkpt>
      <trkpt lat="44.12067" lon="3.11197">
        <ele>776</ele>
      </trkpt>
      <trkpt lat="44.12052" lon="3.11173">
        <ele>775</ele>
      </trkpt>
      <trkpt lat="44.12041" lon="3.11161">
        <ele>775</ele>
      </trkpt>
      <trkpt lat="44.12041" lon="3.11151">
        <ele>775</ele>
      </trkpt>
      <trkpt lat="44.12033" lon="3.11148">
        <ele>776</ele>
      </trkpt>
      <trkpt lat="44.12008" lon="3.11145">
        <ele>778</ele>
      </trkpt>
      <trkpt lat="44.11974" lon="3.11142">
        <ele>780</ele>
      </trkpt>
      <trkpt lat="44.11942" lon="3.11134">
        <ele>785</ele>
      </trkpt>
      <trkpt lat="44.11919" lon="3.11133">
        <ele>789</ele>
      </trkpt>
      <trkpt lat="44.11897" lon="3.11135">
        <ele>791</ele>
      </trkpt>
      <trkpt lat="44.11884" lon="3.11141">
        <ele>792</ele>
      </trkpt>
      <trkpt lat="44.11872" lon="3.11143">
        <ele>793</ele>
      </trkpt>
      <trkpt lat="44.11869" lon="3.1114">
        <ele>794</ele>
      </trkpt>
      <trkpt lat="44.11868" lon="3.11135">
        <ele>794</ele>
      </trkpt>
      <trkpt lat="44.11871" lon="3.11124">
        <ele>793</ele>
      </trkpt>
      <trkpt lat="44.11885" lon="3.11094">
        <ele>794</ele>
      </trkpt>
      <trkpt lat="44.11885" lon="3.11082">
        <ele>794</ele>
      </trkpt>
      <trkpt lat="44.1188" lon="3.11066">
        <ele>796</ele>
      </trkpt>
      <trkpt lat="44.11879" lon="3.11041">
        <ele>797</ele>
      </trkpt>
      <trkpt lat="44.11869" lon="3.11006">
        <ele>800</ele>
      </trkpt>
      <trkpt lat="44.1185" lon="3.10984">
        <ele>801</ele>
      </trkpt>
      <trkpt lat="44.11819" lon="3.10978">
        <ele>804</ele>
      </trkpt>
      <trkpt lat="44.11815" lon="3.10976">
        <ele>804</ele>
      </trkpt>
      <trkpt lat="44.11811" lon="3.10972">
        <ele>804</ele>
      </trkpt>
      <trkpt lat="44.1181" lon="3.10963">
        <ele>806</ele>
      </trkpt>
      <trkpt lat="44.118" lon="3.10953">
        <ele>808</ele>
      </trkpt>
      <trkpt lat="44.1179" lon="3.10939">
        <ele>808</ele>
      </trkpt>
      <trkpt lat="44.11784" lon="3.10934">
        <ele>808</ele>
      </trkpt>
      <trkpt lat="44.11777" lon="3.10931">
        <ele>806</ele>
      </trkpt>
      <trkpt lat="44.11771" lon="3.10934">
        <ele>806</ele>
      </trkpt>
      <trkpt lat="44.11758" lon="3.10931">
        <ele>804</ele>
      </trkpt>
      <trkpt lat="44.11745" lon="3.10917">
        <ele>801</ele>
      </trkpt>
      <trkpt lat="44.11738" lon="3.109">
        <ele>798</ele>
      </trkpt>
      <trkpt lat="44.11726" lon="3.10883">
        <ele>794</ele>
      </trkpt>
      <trkpt lat="44.11721" lon="3.1086">
        <ele>792</ele>
      </trkpt>
      <trkpt lat="44.11723" lon="3.10838">
        <ele>789</ele>
      </trkpt>
      <trkpt lat="44.1172" lon="3.10833">
        <ele>789</ele>
      </trkpt>
      <trkpt lat="44.11714" lon="3.10832">
        <ele>789</ele>
      </trkpt>
      <trkpt lat="44.11711" lon="3.10811">
        <ele>786</ele>
      </trkpt>
      <trkpt lat="44.11703" lon="3.10791">
        <ele>785</ele>
      </trkpt>
      <trkpt lat="44.11695" lon="3.10789">
        <ele>784</ele>
      </trkpt>
      <trkpt lat="44.11681" lon="3.1079">
        <ele>784</ele>
      </trkpt>
      <trkpt lat="44.11662" lon="3.10783">
        <ele>784</ele>
      </trkpt>
      <trkpt lat="44.11647" lon="3.1077">
        <ele>785</ele>
      </trkpt>
      <trkpt lat="44.11624" lon="3.10754">
        <ele>788</ele>
      </trkpt>
      <trkpt lat="44.11609" lon="3.10752">
        <ele>791</ele>
      </trkpt>
      <trkpt lat="44.11599" lon="3.10735">
        <ele>793</ele>
      </trkpt>
      <trkpt lat="44.11588" lon="3.10726">
        <ele>794</ele>
      </trkpt>
      <trkpt lat="44.11579" lon="3.10711">
        <ele>797</ele>
      </trkpt>
      <trkpt lat="44.11567" lon="3.10702">
        <ele>800</ele>
      </trkpt>
      <trkpt lat="44.11555" lon="3.10681">
        <ele>801</ele>
      </trkpt>
      <trkpt lat="44.11545" lon="3.10681">
        <ele>804</ele>
      </trkpt>
      <trkpt lat="44.11537" lon="3.10685">
        <ele>806</ele>
      </trkpt>
      <trkpt lat="44.11531" lon="3.10652">
        <ele>806</ele>
      </trkpt>
      <trkpt lat="44.11526" lon="3.10641">
        <ele>807</ele>
      </trkpt>
      <trkpt lat="44.11516" lon="3.10633">
        <ele>809</ele>
      </trkpt>
      <trkpt lat="44.11502" lon="3.10633">
        <ele>810</ele>
      </trkpt>
      <trkpt lat="44.11489" lon="3.10637">
        <ele>813</ele>
      </trkpt>
      <trkpt lat="44.1147" lon="3.10632">
        <ele>814</ele>
      </trkpt>
      <trkpt lat="44.1145" lon="3.1061">
        <ele>815</ele>
      </trkpt>
      <trkpt lat="44.11442" lon="3.1059">
        <ele>814</ele>
      </trkpt>
      <trkpt lat="44.11424" lon="3.10567">
        <ele>815</ele>
      </trkpt>
      <trkpt lat="44.11404" lon="3.10554">
        <ele>815</ele>
      </trkpt>
      <trkpt lat="44.1139" lon="3.10537">
        <ele>815</ele>
      </trkpt>
      <trkpt lat="44.11382" lon="3.10531">
        <ele>816</ele>
      </trkpt>
      <trkpt lat="44.11377" lon="3.10525">
        <ele>816</ele>
      </trkpt>
      <trkpt lat="44.11366" lon="3.10527">
        <ele>817</ele>
      </trkpt>
      <trkpt lat="44.1136" lon="3.10534">
        <ele>819</ele>
      </trkpt>
      <trkpt lat="44.11355" lon="3.10535">
        <ele>819</ele>
      </trkpt>
      <trkpt lat="44.11349" lon="3.10532">
        <ele>820</ele>
      </trkpt>
      <trkpt lat="44.11339" lon="3.10531">
        <ele>821</ele>
      </trkpt>
      <trkpt lat="44.11329" lon="3.10537">
        <ele>821</ele>
      </trkpt>
      <trkpt lat="44.1131" lon="3.10557">
        <ele>825</ele>
      </trkpt>
      <trkpt lat="44.1129" lon="3.10569">
        <ele>825</ele>
      </trkpt>
      <trkpt lat="44.11255" lon="3.10564">
        <ele>825</ele>
      </trkpt>
      <trkpt lat="44.11235" lon="3.10569">
        <ele>825</ele>
      </trkpt>
      <trkpt lat="44.11229" lon="3.10563">
        <ele>824</ele>
      </trkpt>
      <trkpt lat="44.11228" lon="3.10553">
        <ele>824</ele>
      </trkpt>
      <trkpt lat="44.11217" lon="3.10527">
        <ele>825</ele>
      </trkpt>
      <trkpt lat="44.11214" lon="3.10512">
        <ele>824</ele>
      </trkpt>
      <trkpt lat="44.11208" lon="3.10503">
        <ele>825</ele>
      </trkpt>
      <trkpt lat="44.11198" lon="3.10498">
        <ele>827</ele>
      </trkpt>
      <trkpt lat="44.11192" lon="3.10492">
        <ele>827</ele>
      </trkpt>
      <trkpt lat="44.11187" lon="3.10467">
        <ele>828</ele>
      </trkpt>
      <trkpt lat="44.11174" lon="3.10458">
        <ele>829</ele>
      </trkpt>
      <trkpt lat="44.11167" lon="3.1045">
        <ele>827</ele>
      </trkpt>
      <trkpt lat="44.11165" lon="3.10441">
        <ele>832</ele>
      </trkpt>
      <trkpt lat="44.1119" lon="3.1043">
        <ele>827</ele>
      </trkpt>
      <trkpt lat="44.11226" lon="3.10413">
        <ele>818</ele>
      </trkpt>
      <trkpt lat="44.11232" lon="3.10406">
        <ele>814</ele>
      </trkpt>
      <trkpt lat="44.11242" lon="3.10389">
        <ele>808</ele>
      </trkpt>
      <trkpt lat="44.1125" lon="3.10384">
        <ele>808</ele>
      </trkpt>
      <trkpt lat="44.11252" lon="3.10373">
        <ele>803</ele>
      </trkpt>
      <trkpt lat="44.11261" lon="3.10358">
        <ele>791</ele>
      </trkpt>
      <trkpt lat="44.11279" lon="3.10353">
        <ele>789</ele>
      </trkpt>
      <trkpt lat="44.11286" lon="3.10346">
        <ele>783</ele>
      </trkpt>
      <trkpt lat="44.11288" lon="3.1034">
        <ele>783</ele>
      </trkpt>
      <trkpt lat="44.11285" lon="3.10335">
        <ele>779</ele>
      </trkpt>
      <trkpt lat="44.11271" lon="3.10324">
        <ele>775</ele>
      </trkpt>
      <trkpt lat="44.11265" lon="3.10322">
        <ele>776</ele>
      </trkpt>
      <trkpt lat="44.11265" lon="3.10315">
        <ele>772</ele>
      </trkpt>
      <trkpt lat="44.11268" lon="3.10311">
        <ele>772</ele>
      </trkpt>
      <trkpt lat="44.11277" lon="3.10309">
        <ele>767</ele>
      </trkpt>
      <trkpt lat="44.11277" lon="3.10303">
        <ele>767</ele>
      </trkpt>
      <trkpt lat="44.11279" lon="3.10298">
        <ele>761</ele>
      </trkpt>
      <trkpt lat="44.11292" lon="3.10295">
        <ele>758</ele>
      </trkpt>
      <trkpt lat="44.11293" lon="3.1029">
        <ele>758</ele>
      </trkpt>
      <trkpt lat="44.1129" lon="3.10285">
        <ele>756</ele>
      </trkpt>
      <trkpt lat="44.11284" lon="3.1028">
        <ele>752</ele>
      </trkpt>
      <trkpt lat="44.11272" lon="3.1028">
        <ele>754</ele>
      </trkpt>
      <trkpt lat="44.11267" lon="3.10275">
        <ele>756</ele>
      </trkpt>
      <trkpt lat="44.11267" lon="3.1027">
        <ele>756</ele>
      </trkpt>
      <trkpt lat="44.11269" lon="3.10262">
        <ele>751</ele>
      </trkpt>
      <trkpt lat="44.11278" lon="3.10257">
        <ele>745</ele>
      </trkpt>
      <trkpt lat="44.11277" lon="3.10239">
        <ele>737</ele>
      </trkpt>
      <trkpt lat="44.11282" lon="3.1023">
        <ele>734</ele>
      </trkpt>
      <trkpt lat="44.11303" lon="3.10221">
        <ele>727</ele>
      </trkpt>
      <trkpt lat="44.11306" lon="3.10216">
        <ele>724</ele>
      </trkpt>
      <trkpt lat="44.11303" lon="3.10205">
        <ele>719</ele>
      </trkpt>
      <trkpt lat="44.11294" lon="3.10195">
        <ele>716</ele>
      </trkpt>
      <trkpt lat="44.11289" lon="3.10179">
        <ele>714</ele>
      </trkpt>
      <trkpt lat="44.11296" lon="3.10169">
        <ele>705</ele>
      </trkpt>
      <trkpt lat="44.11312" lon="3.10165">
        <ele>701</ele>
      </trkpt>
      <trkpt lat="44.11313" lon="3.10163">
        <ele>701</ele>
      </trkpt>
      <trkpt lat="44.11313" lon="3.10159">
        <ele>696</ele>
      </trkpt>
      <trkpt lat="44.11302" lon="3.10153">
        <ele>698</ele>
      </trkpt>
      <trkpt lat="44.113" lon="3.10147">
        <ele>693</ele>
      </trkpt>
      <trkpt lat="44.11302" lon="3.10135">
        <ele>690</ele>
      </trkpt>
      <trkpt lat="44.11305" lon="3.10132">
        <ele>690</ele>
      </trkpt>
      <trkpt lat="44.11312" lon="3.10134">
        <ele>687</ele>
      </trkpt>
      <trkpt lat="44.11328" lon="3.1012">
        <ele>678</ele>
      </trkpt>
      <trkpt lat="44.11345" lon="3.10114">
        <ele>668</ele>
      </trkpt>
      <trkpt lat="44.11362" lon="3.1012">
        <ele>679</ele>
      </trkpt>
      <trkpt lat="44.11379" lon="3.10148">
        <ele>681</ele>
      </trkpt>
      <trkpt lat="44.11401" lon="3.10166">
        <ele>682</ele>
      </trkpt>
      <trkpt lat="44.11424" lon="3.10185">
        <ele>681</ele>
      </trkpt>
      <trkpt lat="44.11436" lon="3.10203">
        <ele>692</ele>
      </trkpt>
      <trkpt lat="44.11442" lon="3.10206">
        <ele>681</ele>
      </trkpt>
      <trkpt lat="44.11439" lon="3.10224">
        <ele>717</ele>
      </trkpt>
      <trkpt lat="44.11442" lon="3.10225">
        <ele>694</ele>
      </trkpt>
      <trkpt lat="44.11445" lon="3.10222">
        <ele>681</ele>
      </trkpt>
      <trkpt lat="44.11446" lon="3.10216">
        <ele>688</ele>
      </trkpt>
      <trkpt lat="44.11462" lon="3.10221">
        <ele>677</ele>
      </trkpt>
      <trkpt lat="44.11477" lon="3.10219">
        <ele>673</ele>
      </trkpt>
      <trkpt lat="44.11489" lon="3.10225">
        <ele>673</ele>
      </trkpt>
      <trkpt lat="44.11499" lon="3.10228">
        <ele>669</ele>
      </trkpt>
      <trkpt lat="44.11508" lon="3.10234">
        <ele>666</ele>
      </trkpt>
      <trkpt lat="44.11538" lon="3.10226">
        <ele>650</ele>
      </trkpt>
      <trkpt lat="44.11547" lon="3.10231">
        <ele>647</ele>
      </trkpt>
      <trkpt lat="44.1156" lon="3.1024">
        <ele>649</ele>
      </trkpt>
      <trkpt lat="44.11575" lon="3.10271">
        <ele>648</ele>
      </trkpt>
      <trkpt lat="44.11583" lon="3.10278">
        <ele>645</ele>
      </trkpt>
      <trkpt lat="44.11593" lon="3.10276">
        <ele>645</ele>
      </trkpt>
      <trkpt lat="44.11597" lon="3.10279">
        <ele>645</ele>
      </trkpt>
      <trkpt lat="44.11603" lon="3.10285">
        <ele>643</ele>
      </trkpt>
      <trkpt lat="44.11612" lon="3.10299">
        <ele>642</ele>
      </trkpt>
      <trkpt lat="44.11635" lon="3.10322">
        <ele>641</ele>
      </trkpt>
      <trkpt lat="44.11667" lon="3.10353">
        <ele>638</ele>
      </trkpt>
      <trkpt lat="44.11691" lon="3.10369">
        <ele>632</ele>
      </trkpt>
      <trkpt lat="44.11696" lon="3.10367">
        <ele>632</ele>
      </trkpt>
      <trkpt lat="44.11698" lon="3.10363">
        <ele>632</ele>
      </trkpt>
      <trkpt lat="44.11671" lon="3.10325">
        <ele>623</ele>
      </trkpt>
      <trkpt lat="44.11667" lon="3.10317">
        <ele>623</ele>
      </trkpt>
      <trkpt lat="44.1166" lon="3.10297">
        <ele>617</ele>
      </trkpt>
      <trkpt lat="44.11647" lon="3.10268">
        <ele>615</ele>
      </trkpt>
      <trkpt lat="44.11634" lon="3.10238">
        <ele>612</ele>
      </trkpt>
      <trkpt lat="44.11629" lon="3.10222">
        <ele>613</ele>
      </trkpt>
      <trkpt lat="44.1162" lon="3.102">
        <ele>610</ele>
      </trkpt>
      <trkpt lat="44.1161" lon="3.10178">
        <ele>601</ele>
      </trkpt>
      <trkpt lat="44.11594" lon="3.10145">
        <ele>597</ele>
      </trkpt>
      <trkpt lat="44.11586" lon="3.10135">
        <ele>598</ele>
      </trkpt>
      <trkpt lat="44.11577" lon="3.10119">
        <ele>593</ele>
      </trkpt>
      <trkpt lat="44.11575" lon="3.10104">
        <ele>590</ele>
      </trkpt>
      <trkpt lat="44.11571" lon="3.10091">
        <ele>589</ele>
      </trkpt>
      <trkpt lat="44.11553" lon="3.10067">
        <ele>587</ele>
      </trkpt>
      <trkpt lat="44.11534" lon="3.10041">
        <ele>585</ele>
      </trkpt>
      <trkpt lat="44.11506" lon="3.10011">
        <ele>582</ele>
      </trkpt>
      <trkpt lat="44.115" lon="3.09999">
        <ele>578</ele>
      </trkpt>
      <trkpt lat="44.115" lon="3.09985">
        <ele>575</ele>
      </trkpt>
      <trkpt lat="44.11488" lon="3.09964">
        <ele>577</ele>
      </trkpt>
      <trkpt lat="44.11483" lon="3.09947">
        <ele>571</ele>
      </trkpt>
      <trkpt lat="44.1148" lon="3.09933">
        <ele>568</ele>
      </trkpt>
      <trkpt lat="44.1148" lon="3.09914">
        <ele>565</ele>
      </trkpt>
      <trkpt lat="44.11487" lon="3.09885">
        <ele>561</ele>
      </trkpt>
      <trkpt lat="44.11501" lon="3.09845">
        <ele>551</ele>
      </trkpt>
      <trkpt lat="44.11515" lon="3.09817">
        <ele>545</ele>
      </trkpt>
      <trkpt lat="44.1152" lon="3.09755">
        <ele>534</ele>
      </trkpt>
      <trkpt lat="44.11519" lon="3.09709">
        <ele>526</ele>
      </trkpt>
      <trkpt lat="44.11516" lon="3.09678">
        <ele>522</ele>
      </trkpt>
      <trkpt lat="44.11505" lon="3.0963">
        <ele>518</ele>
      </trkpt>
      <trkpt lat="44.11495" lon="3.09582">
        <ele>512</ele>
      </trkpt>
      <trkpt lat="44.11475" lon="3.09493">
        <ele>503</ele>
      </trkpt>
      <trkpt lat="44.11472" lon="3.09464">
        <ele>501</ele>
      </trkpt>
      <trkpt lat="44.11473" lon="3.09447">
        <ele>498</ele>
      </trkpt>
      <trkpt lat="44.11481" lon="3.09414">
        <ele>494</ele>
      </trkpt>
      <trkpt lat="44.11446" lon="3.09388">
        <ele>486</ele>
      </trkpt>
      <trkpt lat="44.11413" lon="3.09357">
        <ele>480</ele>
      </trkpt>
      <trkpt lat="44.11414" lon="3.09353">
        <ele>480</ele>
      </trkpt>
      <trkpt lat="44.11422" lon="3.09351">
        <ele>480</ele>
      </trkpt>
      <trkpt lat="44.11454" lon="3.09352">
        <ele>477</ele>
      </trkpt>
      <trkpt lat="44.11481" lon="3.09348">
        <ele>473</ele>
      </trkpt>
      <trkpt lat="44.11514" lon="3.09342">
        <ele>472</ele>
      </trkpt>
      <trkpt lat="44.11541" lon="3.09333">
        <ele>470</ele>
      </trkpt>
      <trkpt lat="44.11577" lon="3.09321">
        <ele>466</ele>
      </trkpt>
      <trkpt lat="44.11624" lon="3.0932">
        <ele>463</ele>
      </trkpt>
      <trkpt lat="44.11631" lon="3.09317">
        <ele>461</ele>
      </trkpt>
      <trkpt lat="44.1163" lon="3.09308">
        <ele>460</ele>
      </trkpt>
      <trkpt lat="44.11612" lon="3.09269">
        <ele>456</ele>
      </trkpt>
      <trkpt lat="44.11602" lon="3.09256">
        <ele>455</ele>
      </trkpt>
      <trkpt lat="44.11585" lon="3.09242">
        <ele>453</ele>
      </trkpt>
      <trkpt lat="44.11569" lon="3.0922">
        <ele>448</ele>
      </trkpt>
      <trkpt lat="44.11547" lon="3.09212">
        <ele>446</ele>
      </trkpt>
      <trkpt lat="44.11543" lon="3.09205">
        <ele>444</ele>
      </trkpt>
      <trkpt lat="44.11547" lon="3.09194">
        <ele>442</ele>
      </trkpt>
      <trkpt lat="44.11545" lon="3.09186">
        <ele>440</ele>
      </trkpt>
      <trkpt lat="44.11509" lon="3.09161">
        <ele>435</ele>
      </trkpt>
      <trkpt lat="44.11498" lon="3.0915">
        <ele>436</ele>
      </trkpt>
      <trkpt lat="44.11485" lon="3.09131">
        <ele>432</ele>
      </trkpt>
      <trkpt lat="44.11471" lon="3.09109">
        <ele>425</ele>
      </trkpt>
      <trkpt lat="44.11461" lon="3.09089">
        <ele>419</ele>
      </trkpt>
      <trkpt lat="44.11444" lon="3.0907">
        <ele>419</ele>
      </trkpt>
      <trkpt lat="44.11438" lon="3.09061">
        <ele>419</ele>
      </trkpt>
      <trkpt lat="44.11418" lon="3.0902">
        <ele>411</ele>
      </trkpt>
      <trkpt lat="44.11418" lon="3.09011">
        <ele>409</ele>
      </trkpt>
      <trkpt lat="44.11407" lon="3.08991">
        <ele>407</ele>
      </trkpt>
      <trkpt lat="44.11402" lon="3.08987">
        <ele>404</ele>
      </trkpt>
      <trkpt lat="44.11395" lon="3.08967">
        <ele>399</ele>
      </trkpt>
      <trkpt lat="44.11396" lon="3.0896">
        <ele>399</ele>
      </trkpt>
      <trkpt lat="44.11405" lon="3.08952">
        <ele>396</ele>
      </trkpt>
      <trkpt lat="44.11411" lon="3.08943">
        <ele>394</ele>
      </trkpt>
      <trkpt lat="44.11421" lon="3.08936">
        <ele>391</ele>
      </trkpt>
      <trkpt lat="44.11422" lon="3.08927">
        <ele>388</ele>
      </trkpt>
      <trkpt lat="44.11427" lon="3.08918">
        <ele>386</ele>
      </trkpt>
      <trkpt lat="44.11448" lon="3.08915">
        <ele>386</ele>
      </trkpt>
      <trkpt lat="44.11467" lon="3.0892">
        <ele>386</ele>
      </trkpt>
      <trkpt lat="44.11472" lon="3.08927">
        <ele>386</ele>
      </trkpt>
      <trkpt lat="44.11474" lon="3.08935">
        <ele>387</ele>
      </trkpt>
      <trkpt lat="44.11472" lon="3.08943">
        <ele>390</ele>
      </trkpt>
      <trkpt lat="44.11462" lon="3.08953">
        <ele>393</ele>
      </trkpt>
      <trkpt lat="44.11445" lon="3.08951">
        <ele>393</ele>
      </trkpt>
      <trkpt lat="44.11424" lon="3.08951">
        <ele>395</ele>
      </trkpt>
      <trkpt lat="44.1141" lon="3.0896">
        <ele>395</ele>
      </trkpt>
      <trkpt lat="44.11427" lon="3.0895">
        <ele>395</ele>
      </trkpt>
      <trkpt lat="44.1142" lon="3.08959">
        <ele>395</ele>
      </trkpt>
    </trkseg>
  </trk>
</gpx>
